{"type": "FeatureCollection", "features": [{"type": "Feature", "properties": {"GID_3": "ZWE.6.11.1_2", "GID_0": "ZWE", "COUNTRY": "Zimbabwe", "GID_1": "ZWE.6_1", "NAME_1": "Mashonaland West", "NL_NAME_1": "NA", "GID_2": "ZWE.6.11_2", "NAME_2": "Norton", "NL_NAME_2": "NA", "NAME_3": "Ward 1", "VARNAME_3": "NA", "NL_NAME_3": "NA", "TYPE_3": "Ward", "ENGTYPE_3": "Ward", "CC_3": "NA", "HASC_3": "NA", "id": "ZWE.6.11.1_2", "name": "Ward 1"}, "geometry": {"type": "MultiPolygon", "coordinates": [[[[30.685805580000192, -17.857922761999873], [30.685869215000025, -17.857922268999914], [30.685997212000075, -17.85779725899988], [30.68599521200008, -17.8576742489999], [30.685995211000147, -17.857551239999964], [30.685993211000152, -17.857427229999928], [30.685987211, -17.85680918199995], [30.68598521100006, -17.85656316299992], [30.685855215000117, -17.85631614399989], [30.685850215000073, -17.85582210499996], [30.685848214000146, -17.855452075999892], [30.685844213999985, -17.854958037999893], [30.685840214000052, -17.854587008999943], [30.685836214000062, -17.854215979999935], [30.68583521400012, -17.85396996099996], [30.685833214000183, -17.853721940999947], [30.68583121400019, -17.853475921999916], [30.685827214000028, -17.853103892999968], [30.685955210000145, -17.852980882999816], [30.68595321000015, -17.85273386399996], [30.686081206000097, -17.852608853999925], [30.686208203000035, -17.852360834999956], [30.686464195000042, -17.85211281599993], [30.68659219200009, -17.8519868059999], [30.686847184000044, -17.851738785999885], [30.686975181000037, -17.851612775999968], [30.687233173000095, -17.851488765999818], [30.687618162000035, -17.851236746999916], [30.68787315500009, -17.8509887269999], [30.688001151000037, -17.85086471699998], [30.68812914800003, -17.850738707999938], [30.688127148000092, -17.850616697999953], [30.688385140000094, -17.850490687999923], [30.68864013300015, -17.8502416689999], [30.688768129000096, -17.850117658999977], [30.68889612600009, -17.849991648999946], [30.68889612600009, -17.849869638999962], [30.689024122000035, -17.84974362899993], [30.68915111800004, -17.849619619999885], [30.689407111000037, -17.84949360999991], [30.68966410400003, -17.84936759999988], [30.68992209600009, -17.849243589999958], [30.690178089000028, -17.848993569999948], [30.690433082000084, -17.84874355099987], [30.690691074000085, -17.84861954099989], [30.691074063000087, -17.84824551199995], [30.691330056000027, -17.84799649199988], [30.691587049000077, -17.847870481999905], [30.691972038000074, -17.847744471999874], [30.692230030000076, -17.847618461999957], [30.692358027000125, -17.847494451999978], [30.69248502300013, -17.847368442999937], [30.692613019000078, -17.8472444329999], [30.69274101600007, -17.847120422999865], [30.69299700900001, -17.846994412999834], [30.693254001000184, -17.846868402999974], [30.693509994000124, -17.846620383999948], [30.693766987000174, -17.846495373999915], [30.695052950000047, -17.846113342999956], [30.695569936000027, -17.846109342999966], [30.695954924999967, -17.84598133299994], [30.69621191700014, -17.845980331999954], [30.69634191400013, -17.845980331999954], [30.696469910000076, -17.845854322999912], [30.69685689900018, -17.845852321999928], [30.69698489600006, -17.845850321999933], [30.697114892000116, -17.845850321999933], [30.697371885000166, -17.845848321999938], [30.697501881000107, -17.845846320999954], [30.697629877, -17.845846320999954], [30.6977588740001, -17.84584432099996], [30.69801686600016, -17.845842320999964], [30.69827385900004, -17.845840320999912], [30.69904883700019, -17.845835319999935], [30.69930583000007, -17.845831318999956], [30.699435826000126, -17.845831318999956], [30.699692819000177, -17.84582931899996], [30.699952812000106, -17.84594932799996], [30.700209805000156, -17.846071337999945], [30.700598794000086, -17.846191346999888], [30.700858787000186, -17.84643736599992], [30.700987783000016, -17.84655937499997], [30.70111778000006, -17.846681384999954], [30.70124977600011, -17.84692740399987], [30.70137877200017, -17.84705041299992], [30.701508769000156, -17.847172422999904], [30.70176976199997, -17.847418441999935], [30.702029754000193, -17.84766246099997], [30.702418744000056, -17.84803048899994], [30.702679736000164, -17.848398517999897], [30.703070726000135, -17.848764545999927], [30.703461715000117, -17.84925658399993], [30.703723707999984, -17.849624612999946], [30.703984700000092, -17.8499936419999], [30.704245693000132, -17.850485679999963], [30.704506686000116, -17.85085370899992], [30.704766679000045, -17.85109972799995], [30.705027672000085, -17.85146775599992], [30.705159668000135, -17.85171377499995], [30.70541866100018, -17.851957793999873], [30.705548658, -17.85207980399997], [30.705679654, -17.852325822999887], [30.705809650000106, -17.85244783199994], [30.70607264300014, -17.852939869999886], [30.706204640000124, -17.853309898999953], [30.706336636, -17.853680927999903], [30.706467633000102, -17.854048956999975], [30.706601629000033, -17.85441898599987], [30.70660362899997, -17.854789013999948], [30.706606629000078, -17.855283052999937], [30.706610629000068, -17.855531071999962], [30.706614630000104, -17.856025110999894], [30.70648863300005, -17.856397139999956], [30.70649263300004, -17.85676716899991], [30.706366637000087, -17.85713919799997], [30.706368637000082, -17.857509226999923], [30.706244641000126, -17.85800326499998], [30.706252641000106, -17.85899134199991], [30.706255641000155, -17.859363370999972], [30.70625764100015, -17.859485380999956], [30.70625964200002, -17.859733399999925], [30.706387638000137, -17.859731399999873], [30.70651763400008, -17.85985540999991], [30.706519634000074, -17.85997741899996], [30.706648631000178, -17.85997741899996], [30.706778627000062, -17.860099427999955], [30.70703862, -17.860343446999877], [30.70716761600005, -17.860467456999913], [30.707688602000133, -17.860955494999814], [30.70782059800007, -17.8612015139999], [30.70807759100012, -17.861323522999953], [30.708336584000108, -17.861445532999937], [30.708468580000044, -17.861689551999973], [30.708727573000033, -17.861936570999887], [30.708989566000128, -17.862180589999923], [30.709378555000114, -17.86254861799989], [30.709509551999986, -17.862794636999922], [30.709639548000098, -17.862916646999963], [30.709771544000034, -17.86328667499987], [30.70990454100007, -17.86365470399994], [30.710166534000166, -17.86414674199989], [30.71055852300003, -17.864884799999913], [30.710562523000192, -17.86525482899998], [30.710694520000175, -17.86550084799984], [30.71069652000017, -17.86587287699996], [30.710698520000165, -17.86611889599982], [30.710702520000098, -17.866488924999885], [30.710709519999966, -17.867354991999946], [30.710713520000127, -17.867725020999842], [30.710974513000167, -17.86821705899996], [30.711108510000145, -17.868710097999895], [30.711112510000135, -17.86908012699996], [30.71124350600013, -17.869450154999925], [30.711245506000125, -17.86969817499994], [30.711377503000108, -17.870066202999908], [30.711379503000103, -17.870314222999923], [30.7115104990001, -17.870560241999954], [30.711512499000094, -17.87080626099987], [30.71231747900009, -17.874258529999963], [30.71244947500014, -17.87462655799993], [30.712451475000137, -17.874874577999947], [30.712451475000137, -17.874998586999936], [30.7122992300001, -17.877143532999924], [30.710950675000163, -17.88321228999996], [30.70891063, -17.887883460999944], [30.707604904000164, -17.888134880999928], [30.707069436000097, -17.888244843999814], [30.706972547000134, -17.887820770999895], [30.70566553499998, -17.882440223999936], [30.7025933380001, -17.874291241999913], [30.6996443810001, -17.873039529999915], [30.686967894000077, -17.870658451999816], [30.686637208000093, -17.871663314999978], [30.684207985000057, -17.87147007499982], [30.684371500000168, -17.870693187999848], [30.685338831000024, -17.869589186999974], [30.68556765200003, -17.868273592999913], [30.684838351000167, -17.86735225299998], [30.684767936000128, -17.864613383999938], [30.686158714999976, -17.863514403999886], [30.68585028700005, -17.86280088199993], [30.686086962, -17.860876925999946], [30.686726120000117, -17.86058028599996], [30.685805580000192, -17.857922761999873]]]]}}, {"type": "Feature", "properties": {"GID_3": "ZWE.6.11.2_2", "GID_0": "ZWE", "COUNTRY": "Zimbabwe", "GID_1": "ZWE.6_1", "NAME_1": "Mashonaland West", "NL_NAME_1": "NA", "GID_2": "ZWE.6.11_2", "NAME_2": "Norton", "NL_NAME_2": "NA", "NAME_3": "Ward 10", "VARNAME_3": "NA", "NL_NAME_3": "NA", "TYPE_3": "Ward", "ENGTYPE_3": "Ward", "CC_3": "NA", "HASC_3": "NA", "id": "ZWE.6.11.2_2", "name": "Ward 10"}, "geometry": {"type": "MultiPolygon", "coordinates": [[[[30.656217055000127, -17.89142797699992], [30.663707163000083, -17.881506787999967], [30.664407994000044, -17.881187927999974], [30.666446179000047, -17.880260582999824], [30.66704196, -17.88074065299992], [30.66836475000008, -17.88666994099998], [30.66786182700008, -17.886885623999888], [30.664780573000087, -17.887659947999907], [30.66532602500007, -17.890360181999938], [30.659265988000016, -17.892003976999888], [30.656217055000127, -17.89142797699992]]]]}}, {"type": "Feature", "properties": {"GID_3": "ZWE.6.11.3_2", "GID_0": "ZWE", "COUNTRY": "Zimbabwe", "GID_1": "ZWE.6_1", "NAME_1": "Mashonaland West", "NL_NAME_1": "NA", "GID_2": "ZWE.6.11_2", "NAME_2": "Norton", "NL_NAME_2": "NA", "NAME_3": "Ward 11", "VARNAME_3": "NA", "NL_NAME_3": "NA", "TYPE_3": "Ward", "ENGTYPE_3": "Ward", "CC_3": "NA", "HASC_3": "NA", "id": "ZWE.6.11.3_2", "name": "Ward 11"}, "geometry": {"type": "MultiPolygon", "coordinates": [[[[30.66532602500007, -17.890360181999938], [30.664780573000087, -17.887659947999907], [30.66786182700008, -17.886885623999888], [30.66836475000008, -17.88666994099998], [30.673612625000032, -17.88441923099998], [30.675209757, -17.88273450199995], [30.679268519000118, -17.878452910999897], [30.68147507100008, -17.879835789999845], [30.68008301300017, -17.882912569999974], [30.68089056800011, -17.88596443499995], [30.680133564000187, -17.887172314999873], [30.680848417000107, -17.889208994999933], [30.67998155400005, -17.890719787999956], [30.680156090000082, -17.89170876099996], [30.670343774, -17.89117350899994], [30.668500685000026, -17.89039088599992], [30.66606795000007, -17.89015891899993], [30.66532602500007, -17.890360181999938]]]]}}, {"type": "Feature", "properties": {"GID_3": "ZWE.6.11.4_2", "GID_0": "ZWE", "COUNTRY": "Zimbabwe", "GID_1": "ZWE.6_1", "NAME_1": "Mashonaland West", "NL_NAME_1": "NA", "GID_2": "ZWE.6.11_2", "NAME_2": "Norton", "NL_NAME_2": "NA", "NAME_3": "Ward 12", "VARNAME_3": "NA", "NL_NAME_3": "NA", "TYPE_3": "Ward", "ENGTYPE_3": "Ward", "CC_3": "NA", "HASC_3": "NA", "id": "ZWE.6.11.4_2", "name": "Ward 12"}, "geometry": {"type": "MultiPolygon", "coordinates": [[[[30.627749648000076, -17.891205385999967], [30.63504380100005, -17.879221856999948], [30.664407994000044, -17.881187927999974], [30.663707163000083, -17.881506787999967], [30.656217055000127, -17.89142797699992], [30.64031649900005, -17.891689430999975], [30.63156889800007, -17.892495832999828], [30.627749648000076, -17.891205385999967]]]]}}, {"type": "Feature", "properties": {"GID_3": "ZWE.6.11.5_2", "GID_0": "ZWE", "COUNTRY": "Zimbabwe", "GID_1": "ZWE.6_1", "NAME_1": "Mashonaland West", "NL_NAME_1": "NA", "GID_2": "ZWE.6.11_2", "NAME_2": "Norton", "NL_NAME_2": "NA", "NAME_3": "Ward 13", "VARNAME_3": "NA", "NL_NAME_3": "NA", "TYPE_3": "Ward", "ENGTYPE_3": "Ward", "CC_3": "NA", "HASC_3": "NA", "id": "ZWE.6.11.5_2", "name": "Ward 13"}, "geometry": {"type": "MultiPolygon", "coordinates": [[[[30.63504380100005, -17.879221856999948], [30.64647837700005, -17.860431771999913], [30.652690123000127, -17.856175794999842], [30.652987495000048, -17.855972039999926], [30.659638804000167, -17.85980419699996], [30.661446276000163, -17.86733002399984], [30.665419097000154, -17.871231139999963], [30.672188203000132, -17.87431493799994], [30.66564151400013, -17.879349726999862], [30.66653023100008, -17.880222338999943], [30.666446179000047, -17.880260582999824], [30.664407994000044, -17.881187927999974], [30.63504380100005, -17.879221856999948]]]]}}, {"type": "Feature", "properties": {"GID_3": "ZWE.6.11.6_2", "GID_0": "ZWE", "COUNTRY": "Zimbabwe", "GID_1": "ZWE.6_1", "NAME_1": "Mashonaland West", "NL_NAME_1": "NA", "GID_2": "ZWE.6.11_2", "NAME_2": "Norton", "NL_NAME_2": "NA", "NAME_3": "Ward 2", "VARNAME_3": "NA", "NL_NAME_3": "NA", "TYPE_3": "Ward", "ENGTYPE_3": "Ward", "CC_3": "NA", "HASC_3": "NA", "id": "ZWE.6.11.6_2", "name": "Ward 2"}, "geometry": {"type": "MultiPolygon", "coordinates": [[[[30.747590518000095, -17.864270700999953], [30.71658105100005, -17.89395272999991], [30.70849404600017, -17.893383825999933], [30.70865941599999, -17.88845865299993], [30.70891063, -17.887883460999944], [30.710950675000163, -17.88321228999996], [30.7122992300001, -17.877143532999924], [30.712451475000137, -17.874998586999936], [30.712580470999967, -17.87499658699994], [30.712580470999967, -17.874872576999962], [30.712578470999972, -17.87475056799991], [30.712576471000034, -17.87462655799993], [30.712704468000027, -17.874378538999963], [30.71283046400015, -17.8740065099999], [30.71282646400016, -17.87351247099997], [30.71295246000011, -17.873264451999944], [30.71295246000011, -17.873140441999908], [30.713080456000057, -17.873016431999872], [30.713078456000062, -17.872892422999826], [30.713076456000067, -17.87276841299996], [30.713074456000072, -17.87252239399993], [30.713204453000117, -17.872520393999935], [30.71320245300012, -17.872398383999894], [30.71320245300012, -17.872274374999847], [30.713200453000127, -17.87215036499998], [30.713328449000073, -17.872026354999946], [30.71345644500019, -17.871902344999967], [30.713713438000184, -17.871653325999887], [30.71383743400014, -17.87128129699994], [30.714095427000075, -17.87103327699998], [30.714350419000084, -17.870783257999904], [30.714476416000082, -17.87053523799983], [30.71460441200003, -17.87028721899992], [30.714860405000138, -17.87003719899991], [30.714985401000035, -17.86978917999994], [30.715113397000152, -17.869541160999916], [30.715111397000157, -17.869295140999895], [30.71523739300011, -17.86904712199987], [30.71523339300012, -17.868675092999922], [30.715231393000124, -17.86830506399997], [30.715357389000076, -17.867933034999908], [30.715350389000037, -17.867192976999945], [30.71534838900004, -17.86682294899998], [30.71534438900005, -17.86645091899993], [30.715470385000174, -17.86607888999987], [30.71546838500018, -17.865832870999952], [30.71546438500002, -17.865462841999886], [30.71545838500009, -17.864720784999975], [30.71545738500015, -17.864474764999954], [30.71545338499999, -17.86422674599993], [30.715321388000177, -17.86385871699997], [30.715313388000084, -17.862870639999983], [30.715178392000098, -17.862252591999948], [30.715174391, -17.86163654399985], [30.715041395000014, -17.861142505999908], [30.715035395000086, -17.860648466999976], [30.715031395000096, -17.86003041899994], [30.715025394000065, -17.859414370999843], [30.71513639000017, -17.857312206999893], [30.71526238600012, -17.85694217799994], [30.71525838600013, -17.85657014899988], [30.715384383000185, -17.856200119999983], [30.715512379000074, -17.8559521009999], [30.71564037500019, -17.855826090999926], [30.715766371000143, -17.855578070999968], [30.71589336800008, -17.85545406199998], [30.71615136000014, -17.855328051999948], [30.716279357000133, -17.85520404199991], [30.716406352999968, -17.855079031999935], [30.716534349000085, -17.85495502299989], [30.716662346000135, -17.854831012999966], [30.71679034200008, -17.854707002999817], [30.716919338000082, -17.854705002999935], [30.717047335000075, -17.85470300299994], [30.717307328, -17.854701001999956], [30.71743632400006, -17.85482501199988], [30.71782431300005, -17.8548210109999], [30.71859829100015, -17.85493701999991], [30.719117277000123, -17.855304048999926], [30.71963426200017, -17.855548066999972], [30.719895254999983, -17.855792085999894], [30.720152248000034, -17.855914095999935], [30.72015424800003, -17.85603610499993], [30.72028424400014, -17.85603610499993], [30.720412241000133, -17.856034104999935], [30.72066923300008, -17.85590809499996], [30.720927226000015, -17.85590609499991], [30.721184219000065, -17.855781084999933], [30.721312215000182, -17.855657074999897], [30.721440212, -17.855533064999975], [30.721438212000066, -17.855409055999928], [30.721566208000127, -17.85528504599995], [30.721694204000073, -17.855159035999918], [30.721823201000177, -17.855159035999918], [30.721951197000124, -17.85503502599994], [30.72207919300007, -17.854909015999908], [30.722336186000064, -17.854907015999913], [30.72272417500011, -17.854903014999934], [30.72323916, -17.854899014999887], [30.723498153000037, -17.854897014999892], [30.723755146000087, -17.854895013999908], [30.724013139000192, -17.85489401399991], [30.72427013100014, -17.85476800399988], [30.72452612400008, -17.854641993999962], [30.72478311700013, -17.85451598399993], [30.72555809500011, -17.854509982999957], [30.72581508800016, -17.854507982999962], [30.725943084000107, -17.854505982999967], [30.726203077000037, -17.854503982999972], [30.726330073000042, -17.854503982999972], [30.726588065999977, -17.85437897299994], [30.726845059000027, -17.854376971999955], [30.72697505500014, -17.85437497199996], [30.72723104800008, -17.85424896199993], [30.727488040000026, -17.854122951999898], [30.727744033000135, -17.853874932999872], [30.727871029000028, -17.85362691299997], [30.728127022000137, -17.85350090399993], [30.728255018000084, -17.8533748939999], [30.728383015000077, -17.853126873999884], [30.72851001100014, -17.85300286499995], [30.72876600400008, -17.85275384499994], [30.72902399600008, -17.852629834999902], [30.729665978000128, -17.85249982499988], [30.730438956000114, -17.85236981399987], [30.7309539420001, -17.85236581399988], [30.73121293400004, -17.852363812999897], [30.731470927000146, -17.852360812999848], [30.731470927000146, -17.852484822999884], [30.73159992400008, -17.852484822999884], [30.732133910000186, -17.85457898599998], [30.732263906000128, -17.854700994999916], [30.732397902, -17.855071023999926], [30.732526899000106, -17.855317042999843], [30.732660895000038, -17.85568707199991], [30.732791892000137, -17.856055099999878], [30.732923888000187, -17.856425128999945], [30.733055885, -17.856671147999975], [30.733186881, -17.857041176999928], [30.73344887400009, -17.857409205999943], [30.733711867000125, -17.857901243999947], [30.734111857000187, -17.859626377999973], [30.734634842, -17.86024042599996], [30.73489583500003, -17.86073246399991], [30.73515882800018, -17.861346511999898], [30.7354228210001, -17.86183854999996], [30.735681814000145, -17.862206578999917], [30.73594280700013, -17.862574606999942], [30.73620479900012, -17.862943635999898], [30.73646579200016, -17.86318965499993], [30.73672278500004, -17.863309663999928], [30.73672478499998, -17.863433673999964], [30.73685478100009, -17.863433673999964], [30.737112774000025, -17.86343167399997], [30.737239770000087, -17.86342967299987], [30.73736776700008, -17.863305663999938], [30.737495763000027, -17.863179653999964], [30.737752756000077, -17.862931633999892], [30.737876752000034, -17.862559604999944], [30.73813474500014, -17.862309585999924], [30.738258741000095, -17.86193955699997], [30.738254741000105, -17.861445517999925], [30.73825274100011, -17.861197498999957], [30.738250741000115, -17.860951479999926], [30.738248741000177, -17.86070345999991], [30.738115744000083, -17.860333431999948], [30.73811374400009, -17.85996340299988], [30.738111744000093, -17.859717382999975], [30.73810374400017, -17.85897532599995], [30.738101744000176, -17.85872930599993], [30.738101744000176, -17.85860529699994], [30.738227740000127, -17.858357276999925], [30.738225740000132, -17.85823326799988], [30.738225740000132, -17.858109257999956], [30.738351736000084, -17.85786123899993], [30.738351736000084, -17.857739228999947], [30.73847773199998, -17.857491209999978], [30.738605729000028, -17.857242189999965], [30.73873172500015, -17.85699417099994], [30.73872772500016, -17.856624141999816], [30.738855721000107, -17.85637612299996], [30.738853721000112, -17.856252112999925], [30.73898171800016, -17.85612810299989], [30.73898171700006, -17.856004093999957], [30.738979717000063, -17.855882083999973], [30.73910971400005, -17.855880083999978], [30.739107714000056, -17.85575607399994], [30.739236710000114, -17.85575607399994], [30.73923471000012, -17.855632063999963], [30.73923471000012, -17.855508054999916], [30.739362706000065, -17.85538404499988], [30.739490703000058, -17.855382044999885], [30.739618699000175, -17.85525803499985], [30.739748695000117, -17.85513402499987], [30.74013368500016, -17.855130024999823], [30.740650670000036, -17.855126023999958], [30.740907663000087, -17.855124023999963], [30.74116565500009, -17.85512102399997], [30.74142264800014, -17.855119022999872], [30.74155464500012, -17.85524303299985], [30.741813637000064, -17.855487051999944], [30.74194363400005, -17.85560906099994], [30.743909580000036, -17.859174337999946], [30.744173573000126, -17.85991439599991], [30.744306570000163, -17.86028242499998], [30.7444385660001, -17.860776462999922], [30.744571563000193, -17.86114449199988], [30.744701559000077, -17.86139051099991], [30.744833555000184, -17.86163652999994], [30.74483455600017, -17.861760539999977], [30.744964552000113, -17.861882548999972], [30.74496655200005, -17.862006558999894], [30.747590518000095, -17.864270700999953]]]]}}, {"type": "Feature", "properties": {"GID_3": "ZWE.6.11.7_2", "GID_0": "ZWE", "COUNTRY": "Zimbabwe", "GID_1": "ZWE.6_1", "NAME_1": "Mashonaland West", "NL_NAME_1": "NA", "GID_2": "ZWE.6.11_2", "NAME_2": "Norton", "NL_NAME_2": "NA", "NAME_3": "Ward 3", "VARNAME_3": "NA", "NL_NAME_3": "NA", "TYPE_3": "Ward", "ENGTYPE_3": "Ward", "CC_3": "NA", "HASC_3": "NA", "id": "ZWE.6.11.7_2", "name": "Ward 3"}, "geometry": {"type": "MultiPolygon", "coordinates": [[[[30.684207985000057, -17.87147007499982], [30.686637208000093, -17.871663314999978], [30.686967894000077, -17.870658451999816], [30.6996443810001, -17.873039529999915], [30.7025933380001, -17.874291241999913], [30.70566553499998, -17.882440223999936], [30.706972547000134, -17.887820770999895], [30.707069436000097, -17.888244843999814], [30.70637176200006, -17.88838811399995], [30.704657886, -17.888739090999934], [30.69589465200005, -17.890765159999887], [30.68953769600006, -17.890971408999974], [30.683129196000095, -17.880872424999893], [30.68147507100008, -17.879835789999845], [30.68172522300017, -17.878774387999954], [30.682899117000147, -17.878078497999923], [30.68249006700006, -17.876958139999942], [30.683243059000176, -17.87605442099988], [30.684207985000057, -17.87147007499982]]]]}}, {"type": "Feature", "properties": {"GID_3": "ZWE.6.11.8_2", "GID_0": "ZWE", "COUNTRY": "Zimbabwe", "GID_1": "ZWE.6_1", "NAME_1": "Mashonaland West", "NL_NAME_1": "NA", "GID_2": "ZWE.6.11_2", "NAME_2": "Norton", "NL_NAME_2": "NA", "NAME_3": "Ward 4", "VARNAME_3": "NA", "NL_NAME_3": "NA", "TYPE_3": "Ward", "ENGTYPE_3": "Ward", "CC_3": "NA", "HASC_3": "NA", "id": "ZWE.6.11.8_2", "name": "Ward 4"}, "geometry": {"type": "MultiPolygon", "coordinates": [[[[30.636147645999984, -17.911979506999955], [30.624395652000032, -17.896714936999956], [30.627749648000076, -17.891205385999967], [30.63156889800007, -17.892495832999828], [30.64031649900005, -17.891689430999975], [30.656217055000127, -17.89142797699992], [30.659265988000016, -17.892003976999888], [30.66532602500007, -17.890360181999938], [30.66606795000007, -17.89015891899993], [30.668500685000026, -17.89039088599992], [30.670343774, -17.89117350899994], [30.680156090000082, -17.89170876099996], [30.67998155400005, -17.890719787999956], [30.680848417000107, -17.889208994999933], [30.680133564000187, -17.887172314999873], [30.68089056800011, -17.88596443499995], [30.68008301300017, -17.882912569999974], [30.68147507100008, -17.879835789999845], [30.683129196000095, -17.880872424999893], [30.68953769600006, -17.890971408999974], [30.69589465200005, -17.890765159999887], [30.704657886, -17.888739090999934], [30.70637176200006, -17.88838811399995], [30.707069436000097, -17.888244843999814], [30.707604904000164, -17.888134880999928], [30.70891063, -17.887883460999944], [30.70865941599999, -17.88845865299993], [30.70849404600017, -17.893383825999933], [30.699407950000136, -17.892744235999942], [30.659019419000174, -17.928833621999956], [30.657050065000078, -17.927870733999953], [30.636147645999984, -17.911979506999955]]]]}}, {"type": "Feature", "properties": {"GID_3": "ZWE.6.11.9_2", "GID_0": "ZWE", "COUNTRY": "Zimbabwe", "GID_1": "ZWE.6_1", "NAME_1": "Mashonaland West", "NL_NAME_1": "NA", "GID_2": "ZWE.6.11_2", "NAME_2": "Norton", "NL_NAME_2": "NA", "NAME_3": "Ward 5", "VARNAME_3": "NA", "NL_NAME_3": "NA", "TYPE_3": "Ward", "ENGTYPE_3": "Ward", "CC_3": "NA", "HASC_3": "NA", "id": "ZWE.6.11.9_2", "name": "Ward 5"}, "geometry": {"type": "MultiPolygon", "coordinates": [[[[30.68147507100008, -17.879835789999845], [30.679268519000118, -17.878452910999897], [30.673938137000164, -17.87511210199989], [30.67885331400015, -17.87172285099996], [30.68214139900016, -17.87130565799987], [30.684207985000057, -17.87147007499982], [30.683243059000176, -17.87605442099988], [30.68249006700006, -17.876958139999942], [30.682899117000147, -17.878078497999923], [30.68172522300017, -17.878774387999954], [30.68147507100008, -17.879835789999845]]]]}}, {"type": "Feature", "properties": {"GID_3": "ZWE.6.11.10_2", "GID_0": "ZWE", "COUNTRY": "Zimbabwe", "GID_1": "ZWE.6_1", "NAME_1": "Mashonaland West", "NL_NAME_1": "NA", "GID_2": "ZWE.6.11_2", "NAME_2": "Norton", "NL_NAME_2": "NA", "NAME_3": "Ward 6", "VARNAME_3": "NA", "NL_NAME_3": "NA", "TYPE_3": "Ward", "ENGTYPE_3": "Ward", "CC_3": "NA", "HASC_3": "NA", "id": "ZWE.6.11.10_2", "name": "Ward 6"}, "geometry": {"type": "MultiPolygon", "coordinates": [[[[30.652987495000048, -17.855972039999926], [30.667713238000147, -17.845880935999958], [30.667720721000137, -17.846702402999938], [30.667722721000132, -17.846950421999907], [30.667726721000122, -17.847568469999885], [30.66773072100011, -17.847814488999916], [30.66773272100005, -17.848184517999982], [30.667606725000155, -17.848432537999884], [30.667608725000093, -17.848680556999966], [30.667480729000033, -17.848928575999878], [30.66735473200015, -17.84930060599993], [30.667228736000027, -17.849548624999954], [30.666975743000137, -17.85004466399988], [30.666975743000137, -17.850168672999928], [30.666849747000185, -17.850416692999943], [30.66672175100007, -17.85054070299998], [30.66659375500018, -17.85078872199989], [30.66646575800013, -17.850912731999927], [30.66596977300003, -17.853264914999954], [30.665969774000132, -17.85338692499994], [30.66622976600013, -17.853384924999943], [30.66622776600019, -17.85326291499996], [30.66635776300018, -17.853260914999964], [30.666484759000184, -17.853260914999964], [30.666614755000126, -17.85325891499997], [30.66674275200012, -17.853134904999933], [30.666999744000066, -17.85313290499994], [30.66712974100011, -17.853130903999954], [30.667257737000057, -17.853006894999908], [30.667385733000117, -17.853004893999923], [30.667513730000167, -17.852880884999877], [30.667640726000172, -17.852632864999975], [30.667898719000107, -17.852506854999945], [30.66828170800011, -17.85225783599992], [30.668539700000167, -17.85213182599989], [30.668666697000106, -17.85188380599982], [30.668794693, -17.851759796999943], [30.668792693, -17.851635786999964], [30.668920689000117, -17.85138776799988], [30.669048686000167, -17.85126375799996], [30.669176682000113, -17.851137747999815], [30.669429675000174, -17.850765718999924], [30.66955567100007, -17.850393689999976], [30.669811663000132, -17.850021660999914], [30.669937660000187, -17.8497736409999], [30.670194652000134, -17.849647630999982], [30.670322649000127, -17.849399611999957], [30.67057864100019, -17.849274601999923], [30.67070563800013, -17.849150591999887], [30.670833634000076, -17.849026581999908], [30.67109162700018, -17.84890057299998], [30.67109162700018, -17.848776562999944], [30.671219623000127, -17.848652552999965], [30.671474616000125, -17.8484025329999], [30.671602612000072, -17.848278523999852], [30.67173060800019, -17.848154513999873], [30.671857605000127, -17.848028503999956], [30.671985601000074, -17.847904493999977], [30.67211359700019, -17.84778048499993], [30.67224359400018, -17.847778483999946], [30.672371590000125, -17.847778483999946], [30.672500586000126, -17.84777648399995], [30.67275857900006, -17.847774483999956], [30.673017572000106, -17.84789649299995], [30.67327556500004, -17.847895492999953], [30.673532557000158, -17.847893492999958], [30.673662553999975, -17.847891492999963], [30.67392154700019, -17.848013501999958], [30.674049543000137, -17.848011501999963], [30.674308536000126, -17.848133510999844], [30.674568529000055, -17.848377529999937], [30.674959518000037, -17.84874555899995], [30.675480503000017, -17.849481615999935], [30.675741496000057, -17.8498506439999], [30.67600248900004, -17.850220672999967], [30.676132486000085, -17.85034268299995], [30.67626348200008, -17.850588701999925], [30.676265482000076, -17.850834720999956], [30.676397478000126, -17.851080739999873], [30.67640147900005, -17.85157477799993], [30.676403479000044, -17.85182279799983], [30.67640547900004, -17.852068816999918], [30.67653847500003, -17.852562854999974], [30.676670472000183, -17.85293088399993], [30.67693346500016, -17.853546931999915], [30.677065461000097, -17.85391696099998], [30.67719845800019, -17.854284988999893], [30.67720045800013, -17.854533008999965], [30.677328454000076, -17.854531008999913], [30.677457450000077, -17.85453100799998], [30.677845439000123, -17.854527007999934], [30.678102432000173, -17.85452500799994], [30.678360425000108, -17.85452400799994], [30.678617418000158, -17.854522006999957], [30.6787474140001, -17.854520006999962], [30.678877410000155, -17.854520006999962], [30.67887540999999, -17.854395996999926], [30.679130403000045, -17.8541479779999], [30.679386395999984, -17.853897957999948], [30.679512392000106, -17.853525928999886], [30.67976738500016, -17.853277909999974], [30.679895381000108, -17.853151899999943], [30.679895381000108, -17.85302988999996], [30.680023377000055, -17.85290387999993], [30.68002137700006, -17.852781870999934], [30.680280370000105, -17.852777869999898], [30.680408366, -17.852777869999898], [30.682865296999978, -17.85349892499994], [30.68312629000019, -17.853866953999955], [30.683385283, -17.85411297299987], [30.683517280000046, -17.854359991999956], [30.683649276000097, -17.854606010999873], [30.683778272000154, -17.85472802099997], [30.683908269000142, -17.854974039999888], [30.683912269000132, -17.855220058999976], [30.684042265000016, -17.85534206899996], [30.684044265000182, -17.85559008799987], [30.684303258000057, -17.855834106999907], [30.684566251000035, -17.85632614499991], [30.68495724000013, -17.856818182999973], [30.68521723300006, -17.85718621199993], [30.685480226000095, -17.85767824999988], [30.685609222000096, -17.857800258999873], [30.68561122200009, -17.85792426899991], [30.685805580000192, -17.857922761999873], [30.686726120000117, -17.86058028599996], [30.686086962, -17.860876925999946], [30.68585028700005, -17.86280088199993], [30.686158714999976, -17.863514403999886], [30.684767936000128, -17.864613383999938], [30.684838351000167, -17.86735225299998], [30.68556765200003, -17.868273592999913], [30.685338831000024, -17.869589186999974], [30.684371500000168, -17.870693187999848], [30.684207985000057, -17.87147007499982], [30.68214139900016, -17.87130565799987], [30.67885331400015, -17.87172285099996], [30.673938137000164, -17.87511210199989], [30.673292072000095, -17.874817795999945], [30.672188203000132, -17.87431493799994], [30.665419097000154, -17.871231139999963], [30.661446276000163, -17.86733002399984], [30.659638804000167, -17.85980419699996], [30.652987495000048, -17.855972039999926]]]]}}, {"type": "Feature", "properties": {"GID_3": "ZWE.6.11.11_2", "GID_0": "ZWE", "COUNTRY": "Zimbabwe", "GID_1": "ZWE.6_1", "NAME_1": "Mashonaland West", "NL_NAME_1": "NA", "GID_2": "ZWE.6.11_2", "NAME_2": "Norton", "NL_NAME_2": "NA", "NAME_3": "Ward 7", "VARNAME_3": "NA", "NL_NAME_3": "NA", "TYPE_3": "Ward", "ENGTYPE_3": "Ward", "CC_3": "NA", "HASC_3": "NA", "id": "ZWE.6.11.11_2", "name": "Ward 7"}, "geometry": {"type": "MultiPolygon", "coordinates": [[[[30.66704196, -17.88074065299992], [30.666446179000047, -17.880260582999824], [30.66653023100008, -17.880222338999943], [30.66564151400013, -17.879349726999862], [30.672188203000132, -17.87431493799994], [30.673292072000095, -17.874817795999945], [30.6728481400001, -17.878072110999938], [30.67126770200008, -17.87939789399985], [30.66968964100016, -17.880721648999952], [30.66704196, -17.88074065299992]]]]}}, {"type": "Feature", "properties": {"GID_3": "ZWE.6.11.12_2", "GID_0": "ZWE", "COUNTRY": "Zimbabwe", "GID_1": "ZWE.6_1", "NAME_1": "Mashonaland West", "NL_NAME_1": "NA", "GID_2": "ZWE.6.11_2", "NAME_2": "Norton", "NL_NAME_2": "NA", "NAME_3": "Ward 8", "VARNAME_3": "NA", "NL_NAME_3": "NA", "TYPE_3": "Ward", "ENGTYPE_3": "Ward", "CC_3": "NA", "HASC_3": "NA", "id": "ZWE.6.11.12_2", "name": "Ward 8"}, "geometry": {"type": "MultiPolygon", "coordinates": [[[[30.679268519000118, -17.878452910999897], [30.675209757, -17.88273450199995], [30.674065875000053, -17.88214296999996], [30.673472956000126, -17.88294714999995], [30.671698074000176, -17.880999189999898], [30.671915123000076, -17.880596153999875], [30.671391007000068, -17.880184256999883], [30.671927018000076, -17.879683626999963], [30.67126770200008, -17.87939789399985], [30.6728481400001, -17.878072110999938], [30.673292072000095, -17.874817795999945], [30.673938137000164, -17.87511210199989], [30.679268519000118, -17.878452910999897]]]]}}, {"type": "Feature", "properties": {"GID_3": "ZWE.6.11.13_2", "GID_0": "ZWE", "COUNTRY": "Zimbabwe", "GID_1": "ZWE.6_1", "NAME_1": "Mashonaland West", "NL_NAME_1": "NA", "GID_2": "ZWE.6.11_2", "NAME_2": "Norton", "NL_NAME_2": "NA", "NAME_3": "Ward 9", "VARNAME_3": "NA", "NL_NAME_3": "NA", "TYPE_3": "Ward", "ENGTYPE_3": "Ward", "CC_3": "NA", "HASC_3": "NA", "id": "ZWE.6.11.13_2", "name": "Ward 9"}, "geometry": {"type": "MultiPolygon", "coordinates": [[[[30.66836475000008, -17.88666994099998], [30.66704196, -17.88074065299992], [30.66968964100016, -17.880721648999952], [30.67126770200008, -17.87939789399985], [30.671927018000076, -17.879683626999963], [30.671391007000068, -17.880184256999883], [30.671915123000076, -17.880596153999875], [30.671698074000176, -17.880999189999898], [30.673472956000126, -17.88294714999995], [30.674065875000053, -17.88214296999996], [30.675209757, -17.88273450199995], [30.673612625000032, -17.88441923099998], [30.66836475000008, -17.88666994099998]]]]}}]}