{"type": "FeatureCollection", "features": [{"type": "Feature", "properties": {"GID_3": "ZWE.9.2.1_2", "GID_0": "ZWE", "COUNTRY": "Zimbabwe", "GID_1": "ZWE.9_1", "NAME_1": "Matabeleland South", "NL_NAME_1": "NA", "GID_2": "ZWE.9.2_2", "NAME_2": "Beitbridge Urban", "NL_NAME_2": "NA", "NAME_3": "Ward 1", "VARNAME_3": "NA", "NL_NAME_3": "NA", "TYPE_3": "Ward", "ENGTYPE_3": "Ward", "CC_3": "NA", "HASC_3": "NA", "id": "ZWE.9.2.1_2", "name": "Ward 1"}, "geometry": {"type": "MultiPolygon", "coordinates": [[[[29.96725394700013, -22.220501487999968], [29.96679791300005, -22.220008668999924], [29.965760337000177, -22.217812095999932], [29.96516282600004, -22.216146895999884], [29.965052575000016, -22.21625366199993], [29.96507254900007, -22.215474567999877], [29.982512494000048, -22.214957774999903], [29.982674907000103, -22.215885536999963], [29.98318149700009, -22.216208649999942], [29.98375383000007, -22.216264627999976], [29.983675431999984, -22.21593365999985], [29.984090965000178, -22.21532770099998], [29.984912784000073, -22.215324048999946], [29.9848829500001, -22.215362139999968], [29.98578553600015, -22.215634645999955], [29.987343236000072, -22.215895110999952], [29.988437053000098, -22.21542533199988], [29.989602543000046, -22.215082706999965], [29.99161501700013, -22.21401785599994], [29.99360047800019, -22.213306797999905], [29.995376317000137, -22.21247110099995], [29.996765368000183, -22.211289197999974], [29.997194589000117, -22.210776272999965], [29.99765612300007, -22.209772054999917], [29.998367184000017, -22.20914867299996], [29.999006554000175, -22.208398130999853], [29.999784885, -22.207831745999954], [29.99982171700003, -22.20780494299987], [29.999858089000043, -22.207773617999976], [30.002167326000063, -22.205784802999972], [30.002940959, -22.20523867499992], [30.00357894400014, -22.205027452999957], [30.003703265000013, -22.204160907999892], [30.002745901000026, -22.202782490999823], [30.002213871000095, -22.201263254999958], [30.002045705, -22.200069705999965], [30.00224139100004, -22.199201844999948], [30.002445560000183, -22.198732711999924], [30.00243566200004, -22.198267528999907], [30.002425764000122, -22.19780234699988], [30.00219756000007, -22.197141750999947], [30.00213241199998, -22.197164560999965], [30.002856630000053, -22.196152801999972], [30.00423236500012, -22.194180819999815], [30.00682854200005, -22.192071964999855], [30.00950732500013, -22.190493391999894], [30.010633349000045, -22.189741278999918], [30.01238449600004, -22.188179823999974], [30.013865813000166, -22.187354633999973], [30.014580723000165, -22.187407872999927], [30.015444009000134, -22.18772428099993], [30.015957650000132, -22.188379564999877], [30.016548326000134, -22.189299339999934], [30.018172324000034, -22.188471466999943], [30.018803100000184, -22.187927926999976], [30.02190973900008, -22.18634123199996], [30.023338123000144, -22.18638118299998], [30.02345162500012, -22.186384972999974], [30.024352187000034, -22.186199979999913], [30.02578149500016, -22.185709202999817], [30.026946173000056, -22.185790703999885], [30.028490599000122, -22.185504077999894], [30.030204402000095, -22.185369021999918], [30.03234886000007, -22.18465855799991], [30.03332309600006, -22.183608829999912], [30.035641266000027, -22.18067720799985], [30.037812596000094, -22.178354551999973], [30.039008156000023, -22.177300667999873], [30.041304061, -22.175916753999957], [30.04387778000006, -22.174579195999968], [30.044637128000033, -22.173842900999944], [30.045687666000106, -22.173771674999955], [30.047289248000084, -22.172310541999934], [30.048780339000075, -22.172127895999893], [30.049934879000034, -22.171745226999974], [30.051722356000084, -22.171844317999955], [30.05198319800013, -22.179617847999964], [30.053575189000185, -22.223651986999926], [30.054529183000056, -22.249980861999973], [30.054590181000094, -22.249980861999973], [30.05485917699997, -22.254110155999967], [30.054021201000126, -22.254158159999918], [30.05374920900016, -22.254158159999918], [30.046920407000016, -22.254412182999886], [30.046648415000107, -22.254412183999875], [30.04500946200011, -22.25441218499998], [30.035450738000065, -22.25415817399994], [30.034904753999967, -22.25415817399994], [30.03381178600017, -22.254156174999935], [30.03244682500008, -22.254156175999924], [30.027805959000148, -22.25288608799991], [30.027532967000127, -22.2528860889999], [30.026712990000078, -22.252376052999978], [30.025622021000117, -22.25186701699988], [30.024529052, -22.25110396399998], [30.023165091000067, -22.250596928999983], [30.02125814200008, -22.24576558599989], [30.02111114600018, -22.245274550999966], [30.020987148000074, -22.242823375999933], [30.021050146000107, -22.24270736799997], [30.021050146000107, -22.24264836399982], [30.021050146000107, -22.24247235099989], [30.02098714700014, -22.242415346999906], [30.02098714700014, -22.242123326999888], [30.021117141000047, -22.239205118999962], [30.021180139000137, -22.238972101999934], [30.021180139000137, -22.238797088999945], [30.02124313700017, -22.238681080999925], [30.02124313700017, -22.238505068999928], [30.021243136000123, -22.23797903099984], [30.02137213000009, -22.234243764999974], [30.021372129000042, -22.234010747999946], [30.021435127000075, -22.233776731999967], [30.021435127000075, -22.233192689999953], [30.02121365100004, -22.23165137999996], [30.021246032000136, -22.231670621999967], [30.021187776000147, -22.23147130599989], [30.0189555770001, -22.229555334999873], [30.018005798000104, -22.22916837899993], [30.01727175900004, -22.228709977999927], [30.017028078000067, -22.228634522999982], [30.016870498000173, -22.228549957999917], [30.01613998400012, -22.228229522999982], [30.01503944500007, -22.22793960499996], [30.01468086300008, -22.22791099499989], [30.012870788000157, -22.227630614999896], [30.012149809999983, -22.227489470999956], [30.011249542000144, -22.22743988099984], [30.010620118000077, -22.227489470999956], [30.010089873000027, -22.227489470999956], [30.00951957700005, -22.227460861999873], [30.007490159000042, -22.227519988999973], [30.006940841000016, -22.227510451999876], [30.00643920900012, -22.227519988999973], [30.00597953800019, -22.22754096999995], [30.005170822000025, -22.22756957999991], [30.004589080000073, -22.22757911699989], [30.002880095000137, -22.22764015299998], [30.002080918, -22.227680206999935], [30.001731872000107, -22.227727888999937], [30.00135993900011, -22.227779388999863], [29.999959946000047, -22.227890013999968], [29.999769212000047, -22.22792053099988], [29.999799728000085, -22.228799819999892], [29.999500274000184, -22.22871971099994], [29.99893951300004, -22.22849082999994], [29.998199463000105, -22.228179930999943], [29.997739792000175, -22.228069304999963], [29.996940612000117, -22.22780990599989], [29.99647903500005, -22.227590559999953], [29.995809554000175, -22.227329252999937], [29.99367904700017, -22.226579665999964], [29.993030549000025, -22.226419447999945], [29.992290497000056, -22.226119993999873], [29.991239547000134, -22.225749968999878], [29.990640639000162, -22.22551918099998], [29.989219665000178, -22.225040435999972], [29.98860931400003, -22.22485923699992], [29.987609862000113, -22.224590301999967], [29.98686027499997, -22.22450065599992], [29.98596954300018, -22.224359511999978], [29.985740662000183, -22.22434997599987], [29.9848098760001, -22.224159239999892], [29.98378944300009, -22.223979948999897], [29.983190537000098, -22.22377967899996], [29.982450485000186, -22.22363090499988], [29.98188972400004, -22.22352981499995], [29.98119926400011, -22.223550795999927], [29.97928047200014, -22.2235603339999], [29.978000642000154, -22.22372054899995], [29.976770402000113, -22.22396087599992], [29.976070404000097, -22.224060057999964], [29.97479057400011, -22.224229812999965], [29.974464719000025, -22.224271190999957], [29.97069958200018, -22.222645441999873], [29.96725394700013, -22.220501487999968]]]]}}, {"type": "Feature", "properties": {"GID_3": "ZWE.9.2.2_2", "GID_0": "ZWE", "COUNTRY": "Zimbabwe", "GID_1": "ZWE.9_1", "NAME_1": "Matabeleland South", "NL_NAME_1": "NA", "GID_2": "ZWE.9.2_2", "NAME_2": "Beitbridge Urban", "NL_NAME_2": "NA", "NAME_3": "Ward 2", "VARNAME_3": "NA", "NL_NAME_3": "NA", "TYPE_3": "Ward", "ENGTYPE_3": "Ward", "CC_3": "NA", "HASC_3": "NA", "id": "ZWE.9.2.2_2", "name": "Ward 2"}, "geometry": {"type": "MultiPolygon", "coordinates": [[[[30.00213241199998, -22.197164560999965], [30.00219756000007, -22.197141750999947], [30.002425764000122, -22.19780234699988], [30.00243566200004, -22.198267528999907], [30.002445560000183, -22.198732711999924], [30.00224139100004, -22.199201844999948], [30.002045705, -22.200069705999965], [30.002213871000095, -22.201263254999958], [30.002745901000026, -22.202782490999823], [30.003703265000013, -22.204160907999892], [30.00357894400014, -22.205027452999957], [30.002940959, -22.20523867499992], [30.002167326000063, -22.205784802999972], [29.999858089000043, -22.207773617999976], [29.99982171700003, -22.20780494299987], [29.999784885, -22.207831745999954], [29.999006554000175, -22.208398130999853], [29.998367184000017, -22.20914867299996], [29.99765612300007, -22.209772054999917], [29.997194589000117, -22.210776272999965], [29.996765368000183, -22.211289197999974], [29.995376317000137, -22.21247110099995], [29.99360047800019, -22.213306797999905], [29.99161501700013, -22.21401785599994], [29.989602543000046, -22.215082706999965], [29.988437053000098, -22.21542533199988], [29.987343236000072, -22.215895110999952], [29.98578553600015, -22.215634645999955], [29.9848829500001, -22.215362139999968], [29.984912784000073, -22.215324048999946], [29.986159168000142, -22.213732709999817], [29.98730716700004, -22.2119037409999], [29.990939992000108, -22.203696433999937], [29.993154114, -22.20404130199995], [29.993873349000125, -22.20380322699998], [29.994723671000088, -22.20324153699994], [29.99681822600013, -22.20117941799998], [29.997904390000144, -22.200356411999906], [30.000481046000175, -22.199033517999965], [30.00173353400004, -22.19803039699991], [30.001996083000165, -22.197355015999904], [30.00213241199998, -22.197164560999965]]]]}}, {"type": "Feature", "properties": {"GID_3": "ZWE.9.2.3_2", "GID_0": "ZWE", "COUNTRY": "Zimbabwe", "GID_1": "ZWE.9_1", "NAME_1": "Matabeleland South", "NL_NAME_1": "NA", "GID_2": "ZWE.9.2_2", "NAME_2": "Beitbridge Urban", "NL_NAME_2": "NA", "NAME_3": "Ward 3", "VARNAME_3": "NA", "NL_NAME_3": "NA", "TYPE_3": "Ward", "ENGTYPE_3": "Ward", "CC_3": "NA", "HASC_3": "NA", "id": "ZWE.9.2.3_2", "name": "Ward 3"}, "geometry": {"type": "MultiPolygon", "coordinates": [[[[30.051722356000084, -22.171844317999955], [30.049934879000034, -22.171745226999974], [30.048780339000075, -22.172127895999893], [30.047289248000084, -22.172310541999934], [30.045687666000106, -22.173771674999955], [30.044637128000033, -22.173842900999944], [30.04387778000006, -22.174579195999968], [30.041304061, -22.175916753999957], [30.039008156000023, -22.177300667999873], [30.037812596000094, -22.178354551999973], [30.035641266000027, -22.18067720799985], [30.03332309600006, -22.183608829999912], [30.03234886000007, -22.18465855799991], [30.030204402000095, -22.185369021999918], [30.028490599000122, -22.185504077999894], [30.026946173000056, -22.185790703999885], [30.02578149500016, -22.185709202999817], [30.024352187000034, -22.186199979999913], [30.02345162500012, -22.186384972999974], [30.023338123000144, -22.18638118299998], [30.02190973900008, -22.18634123199996], [30.018803100000184, -22.187927926999976], [30.018172324000034, -22.188471466999943], [30.016548326000134, -22.189299339999934], [30.015957650000132, -22.188379564999877], [30.015444009000134, -22.18772428099993], [30.014580723000165, -22.187407872999927], [30.013865813000166, -22.187354633999973], [30.01238449600004, -22.188179823999974], [30.010633349000045, -22.189741278999918], [30.00950732500013, -22.190493391999894], [30.00682854200005, -22.192071964999855], [30.00423236500012, -22.194180819999815], [30.002856630000053, -22.196152801999972], [30.00213241199998, -22.197164560999965], [30.001996083000165, -22.197355015999904], [30.00173353400004, -22.19803039699991], [30.000481046000175, -22.199033517999965], [29.997904390000144, -22.200356411999906], [29.99681822600013, -22.20117941799998], [29.994723671000088, -22.20324153699994], [29.993873349000125, -22.20380322699998], [29.993154114, -22.20404130199995], [29.990939992000108, -22.203696433999937], [29.991096490000132, -22.20334285099989], [29.992413167000052, -22.199552362999896], [29.99436802499997, -22.19465448299991], [29.99591560600004, -22.1915103689999], [29.995805542000028, -22.191512395999894], [29.9975917270001, -22.18748008199998], [29.998510427999975, -22.184079034999854], [29.99823807700011, -22.181622869999842], [29.99729671700004, -22.178768824999963], [29.997186664000083, -22.178770851999957], [29.996166584000036, -22.174920079999936], [29.995869545000062, -22.173770171999877], [29.99305681100003, -22.165720472999908], [29.991933431000177, -22.16154913199989], [29.991439486000047, -22.16073351299991], [29.989105066000036, -22.155845688999875], [29.987917639999978, -22.15270209499994], [29.9880270270001, -22.15272397399997], [29.98810505500012, -22.15273875799994], [30.022145045, -22.1591844109999], [30.022435037000037, -22.1591844109999], [30.023017019000065, -22.15891139099989], [30.030742796000084, -22.15938641899993], [30.03166476900003, -22.1588773819999], [30.051408201000072, -22.162478624999892], [30.051722356000084, -22.171844317999955]]]]}}, {"type": "Feature", "properties": {"GID_3": "ZWE.9.2.4_2", "GID_0": "ZWE", "COUNTRY": "Zimbabwe", "GID_1": "ZWE.9_1", "NAME_1": "Matabeleland South", "NL_NAME_1": "NA", "GID_2": "ZWE.9.2_2", "NAME_2": "Beitbridge Urban", "NL_NAME_2": "NA", "NAME_3": "Ward 4", "VARNAME_3": "NA", "NL_NAME_3": "NA", "TYPE_3": "Ward", "ENGTYPE_3": "Ward", "CC_3": "NA", "HASC_3": "NA", "id": "ZWE.9.2.4_2", "name": "Ward 4"}, "geometry": {"type": "MultiPolygon", "coordinates": [[[[29.961241704000145, -22.213642126999957], [29.96079753500004, -22.213203455999974], [29.960468775000038, -22.21271075999988], [29.960224777000064, -22.21260724499996], [29.95865823200006, -22.21115836099989], [29.95750087100015, -22.2100068769999], [29.955991115000074, -22.208861787999922], [29.95405551400006, -22.208004069999845], [29.952376960000095, -22.207213771999932], [29.95171021599998, -22.20663960299993], [29.949975952000045, -22.205592327999966], [29.94672633700003, -22.20348800499994], [29.944421829000134, -22.20207870699994], [29.944323984000107, -22.20183596499993], [29.982620841000028, -22.201368741999886], [29.98458834400003, -22.200381278999828], [29.986395037000023, -22.200416076999943], [29.98695240900014, -22.200032088999876], [29.98964152700006, -22.199867962999974], [29.989683238000055, -22.199865415999966], [29.98973981400013, -22.199861962999933], [29.988979936000135, -22.203470713999934], [29.99033434600011, -22.20337933799982], [29.990939992000108, -22.203696433999937], [29.98730716700004, -22.2119037409999], [29.986159168000142, -22.213732709999817], [29.984912784000073, -22.215324048999946], [29.984090965000178, -22.21532770099998], [29.983675431999984, -22.21593365999985], [29.98375383000007, -22.216264627999976], [29.98318149700009, -22.216208649999942], [29.982674907000103, -22.215885536999963], [29.982512494000048, -22.214957774999903], [29.96507254900007, -22.215474567999877], [29.965114376000088, -22.21384314099987], [29.96291888500008, -22.214260777999982], [29.961241704000145, -22.213642126999957]]]]}}, {"type": "Feature", "properties": {"GID_3": "ZWE.9.2.5_2", "GID_0": "ZWE", "COUNTRY": "Zimbabwe", "GID_1": "ZWE.9_1", "NAME_1": "Matabeleland South", "NL_NAME_1": "NA", "GID_2": "ZWE.9.2_2", "NAME_2": "Beitbridge Urban", "NL_NAME_2": "NA", "NAME_3": "Ward 5", "VARNAME_3": "NA", "NL_NAME_3": "NA", "TYPE_3": "Ward", "ENGTYPE_3": "Ward", "CC_3": "NA", "HASC_3": "NA", "id": "ZWE.9.2.5_2", "name": "Ward 5"}, "geometry": {"type": "MultiPolygon", "coordinates": [[[[29.989683238000055, -22.199865415999966], [29.98964152700006, -22.199867962999974], [29.98695240900014, -22.200032088999876], [29.986395037000023, -22.200416076999943], [29.98458834400003, -22.200381278999828], [29.982620841000028, -22.201368741999886], [29.944323984000107, -22.20183596499993], [29.944421829000134, -22.20207870699994], [29.94251773800005, -22.200914230999956], [29.9366219690001, -22.196571711999923], [29.93131011800017, -22.19143524099991], [29.926839751000045, -22.18834978599989], [29.930125730000043, -22.186158402999922], [29.93061571600009, -22.186114398999962], [29.96201336700011, -22.16778270299983], [29.98750784900011, -22.189547363999964], [29.987977577000095, -22.190115920999915], [29.988136324000152, -22.190531954999983], [29.988014514000042, -22.191860864999967], [29.98843060100006, -22.19380831899997], [29.98890242800013, -22.194847024999945], [29.990718811000022, -22.195651544999976], [29.990671972000143, -22.196979075999877], [29.989937319000035, -22.19769082599987], [29.989683238000055, -22.199865415999966]]]]}}, {"type": "Feature", "properties": {"GID_3": "ZWE.9.2.6_2", "GID_0": "ZWE", "COUNTRY": "Zimbabwe", "GID_1": "ZWE.9_1", "NAME_1": "Matabeleland South", "NL_NAME_1": "NA", "GID_2": "ZWE.9.2_2", "NAME_2": "Beitbridge Urban", "NL_NAME_2": "NA", "NAME_3": "Ward 6", "VARNAME_3": "NA", "NL_NAME_3": "NA", "TYPE_3": "Ward", "ENGTYPE_3": "Ward", "CC_3": "NA", "HASC_3": "NA", "id": "ZWE.9.2.6_2", "name": "Ward 6"}, "geometry": {"type": "MultiPolygon", "coordinates": [[[[29.987917639999978, -22.15270209499994], [29.989105066000036, -22.155845688999875], [29.991439486000047, -22.16073351299991], [29.991933431000177, -22.16154913199989], [29.99305681100003, -22.165720472999908], [29.995869545000062, -22.173770171999877], [29.996166584000036, -22.174920079999936], [29.997186664000083, -22.178770851999957], [29.99729671700004, -22.178768824999963], [29.99823807700011, -22.181622869999842], [29.998510427999975, -22.184079034999854], [29.9975917270001, -22.18748008199998], [29.995805542000028, -22.191512395999894], [29.99591560600004, -22.1915103689999], [29.99436802499997, -22.19465448299991], [29.992413167000052, -22.199552362999896], [29.991096490000132, -22.20334285099989], [29.990939992000108, -22.203696433999937], [29.99033434600011, -22.20337933799982], [29.988979936000135, -22.203470713999934], [29.98973981400013, -22.199861962999933], [29.989683238000055, -22.199865415999966], [29.989937319000035, -22.19769082599987], [29.990671972000143, -22.196979075999877], [29.990718811000022, -22.195651544999976], [29.98890242800013, -22.194847024999945], [29.98843060100006, -22.19380831899997], [29.988014514000042, -22.191860864999967], [29.988136324000152, -22.190531954999983], [29.987977577000095, -22.190115920999915], [29.98750784900011, -22.189547363999964], [29.96201336700011, -22.16778270299983], [29.98785203200009, -22.152688971999908], [29.987917639999978, -22.15270209499994]]]]}}]}