{"type": "FeatureCollection", "features": [{"type": "Feature", "properties": {"GID_3": "ZWE.2.1.1_2", "GID_0": "ZWE", "COUNTRY": "Zimbabwe", "GID_1": "ZWE.2_1", "NAME_1": "Harare", "NL_NAME_1": "NA", "GID_2": "ZWE.2.1_2", "NAME_2": "Chitungwiza", "NL_NAME_2": "NA", "NAME_3": "Ward 1", "VARNAME_3": "NA", "NL_NAME_3": "NA", "TYPE_3": "Ward", "ENGTYPE_3": "Ward", "CC_3": "NA", "HASC_3": "NA", "id": "ZWE.2.1.1_2", "name": "Ward 1"}, "geometry": {"type": "MultiPolygon", "coordinates": [[[[31.04502229400009, -17.982271651999895], [31.045271406000097, -17.981807129999936], [31.04552926000008, -17.981565495999973], [31.046682880000162, -17.981088655999883], [31.049868426000103, -17.98148707999991], [31.052509998, -17.97913234899994], [31.05448952200004, -17.97896904799984], [31.05610983300005, -17.979294356999844], [31.056416594000154, -17.979313916999956], [31.056358810000177, -17.982701371999838], [31.056825224000193, -17.98380510499993], [31.058524139000156, -17.98563163299997], [31.053776507000123, -17.991828516999874], [31.053554897000083, -17.991673644999935], [31.051934682000024, -17.99393462499995], [31.051451071000088, -17.993252189999907], [31.05102605999997, -17.992460539999968], [31.05123219800015, -17.99111932499983], [31.054310325000017, -17.986784566999972], [31.05322315400008, -17.98701788299985], [31.051483299000097, -17.988587920999976], [31.04502229400009, -17.982271651999895]]]]}}, {"type": "Feature", "properties": {"GID_3": "ZWE.2.1.2_2", "GID_0": "ZWE", "COUNTRY": "Zimbabwe", "GID_1": "ZWE.2_1", "NAME_1": "Harare", "NL_NAME_1": "NA", "GID_2": "ZWE.2.1_2", "NAME_2": "Chitungwiza", "NL_NAME_2": "NA", "NAME_3": "Ward 10", "VARNAME_3": "NA", "NL_NAME_3": "NA", "TYPE_3": "Ward", "ENGTYPE_3": "Ward", "CC_3": "NA", "HASC_3": "NA", "id": "ZWE.2.1.2_2", "name": "Ward 10"}, "geometry": {"type": "MultiPolygon", "coordinates": [[[[31.061436516000185, -17.98743761399993], [31.065852843000073, -17.98924585499998], [31.069597840000085, -17.99436955699997], [31.06931967000014, -17.994272315999922], [31.066739440000163, -17.997611788999848], [31.063163703000157, -18.004113894999932], [31.06251425700009, -18.00364206899991], [31.0617103940001, -18.003598223999916], [31.061401431000036, -18.00259757399988], [31.05709984900011, -17.999196238999957], [31.055498247000116, -17.99832946099997], [31.05678286100016, -17.996725672999958], [31.05526343800011, -17.995641898999907], [31.061436516000185, -17.98743761399993]]]]}}, {"type": "Feature", "properties": {"GID_3": "ZWE.2.1.3_2", "GID_0": "ZWE", "COUNTRY": "Zimbabwe", "GID_1": "ZWE.2_1", "NAME_1": "Harare", "NL_NAME_1": "NA", "GID_2": "ZWE.2.1_2", "NAME_2": "Chitungwiza", "NL_NAME_2": "NA", "NAME_3": "Ward 11", "VARNAME_3": "NA", "NL_NAME_3": "NA", "TYPE_3": "Ward", "ENGTYPE_3": "Ward", "CC_3": "NA", "HASC_3": "NA", "id": "ZWE.2.1.3_2", "name": "Ward 11"}, "geometry": {"type": "MultiPolygon", "coordinates": [[[[31.04542217100004, -18.013110804999883], [31.046789396000122, -18.011565332999908], [31.05272706200003, -18.009308513999883], [31.058473603000095, -18.007172253999954], [31.05866573800006, -18.006708781999976], [31.05962314500016, -18.006303809999963], [31.063163703000157, -18.004113894999932], [31.061885581000126, -18.006229522999945], [31.061332388000096, -18.007260250999934], [31.06104374800003, -18.007798050999952], [31.05907084500012, -18.01372355899997], [31.053953256000057, -18.0129919769999], [31.05106489500008, -18.013678909999896], [31.049495291000085, -18.013519899999892], [31.04873607600007, -18.01451463799998], [31.04727988000019, -18.014249353999958], [31.04542217100004, -18.013110804999883]]]]}}, {"type": "Feature", "properties": {"GID_3": "ZWE.2.1.4_2", "GID_0": "ZWE", "COUNTRY": "Zimbabwe", "GID_1": "ZWE.2_1", "NAME_1": "Harare", "NL_NAME_1": "NA", "GID_2": "ZWE.2.1_2", "NAME_2": "Chitungwiza", "NL_NAME_2": "NA", "NAME_3": "Ward 12", "VARNAME_3": "NA", "NL_NAME_3": "NA", "TYPE_3": "Ward", "ENGTYPE_3": "Ward", "CC_3": "NA", "HASC_3": "NA", "id": "ZWE.2.1.4_2", "name": "Ward 12"}, "geometry": {"type": "MultiPolygon", "coordinates": [[[[31.04542217100004, -18.013110804999883], [31.04727988000019, -18.014249353999958], [31.04873607600007, -18.01451463799998], [31.049495291000085, -18.013519899999892], [31.05106489500008, -18.013678909999896], [31.053953256000057, -18.0129919769999], [31.05907084500012, -18.01372355899997], [31.058313461000125, -18.018757358999892], [31.05754249000006, -18.020826010999826], [31.05594924100012, -18.022814795999977], [31.057516731000135, -18.02407843499998], [31.057824949000064, -18.024300111999935], [31.062448626000048, -18.027625435999937], [31.06320384300011, -18.028628485999945], [31.06293679500004, -18.02900319299988], [31.062562668999988, -18.02899944499984], [31.062402050000117, -18.030000231999963], [31.06036137000001, -18.03184136699997], [31.057800786000087, -18.03331925799995], [31.05045832600007, -18.034104562999914], [31.050162302000103, -18.034166754999887], [31.04980244300009, -18.033053612999822], [31.049673051000013, -18.033109947999947], [31.04726106300012, -18.031925500999932], [31.044388283000103, -18.032018586999982], [31.04222483600006, -18.031447173999936], [31.041917269000123, -18.030406072999938], [31.040972296000177, -18.029297458999963], [31.040731249000032, -18.028012798999896], [31.039758752000125, -18.026605573999916], [31.039274008000177, -18.02675579399994], [31.037107939000123, -18.026428534999923], [31.03565188500005, -18.02537576999987], [31.034038030000033, -18.020343029999935], [31.038125517000083, -18.01733655199996], [31.03932341500007, -18.017277093999894], [31.040608007000174, -18.016144519999898], [31.04244031000013, -18.01330342299991], [31.044777798000098, -18.01243603799992], [31.04542217100004, -18.013110804999883]]]]}}, {"type": "Feature", "properties": {"GID_3": "ZWE.2.1.5_2", "GID_0": "ZWE", "COUNTRY": "Zimbabwe", "GID_1": "ZWE.2_1", "NAME_1": "Harare", "NL_NAME_1": "NA", "GID_2": "ZWE.2.1_2", "NAME_2": "Chitungwiza", "NL_NAME_2": "NA", "NAME_3": "Ward 13", "VARNAME_3": "NA", "NL_NAME_3": "NA", "TYPE_3": "Ward", "ENGTYPE_3": "Ward", "CC_3": "NA", "HASC_3": "NA", "id": "ZWE.2.1.5_2", "name": "Ward 13"}, "geometry": {"type": "MultiPolygon", "coordinates": [[[[31.05907084500012, -18.01372355899997], [31.06104374800003, -18.007798050999952], [31.061332388000096, -18.007260250999934], [31.072441092000133, -18.014637730999937], [31.072246866000057, -18.0153848139999], [31.070667857000046, -18.01608508099997], [31.070211918999973, -18.016724934999957], [31.067958727000075, -18.01749005399995], [31.06689952400012, -18.018553474999976], [31.066367182000135, -18.019335755999975], [31.06318477500014, -18.02295551799989], [31.061228419000088, -18.02393831799992], [31.060634539000148, -18.023502767999958], [31.05906483300015, -18.023343825999973], [31.057824949000064, -18.024300111999935], [31.057516731000135, -18.02407843499998], [31.05594924100012, -18.022814795999977], [31.05754249000006, -18.020826010999826], [31.058313461000125, -18.018757358999892], [31.05907084500012, -18.01372355899997]]]]}}, {"type": "Feature", "properties": {"GID_3": "ZWE.2.1.6_2", "GID_0": "ZWE", "COUNTRY": "Zimbabwe", "GID_1": "ZWE.2_1", "NAME_1": "Harare", "NL_NAME_1": "NA", "GID_2": "ZWE.2.1_2", "NAME_2": "Chitungwiza", "NL_NAME_2": "NA", "NAME_3": "Ward 14", "VARNAME_3": "NA", "NL_NAME_3": "NA", "TYPE_3": "Ward", "ENGTYPE_3": "Ward", "CC_3": "NA", "HASC_3": "NA", "id": "ZWE.2.1.6_2", "name": "Ward 14"}, "geometry": {"type": "MultiPolygon", "coordinates": [[[[31.063163703000157, -18.004113894999932], [31.066739440000163, -17.997611788999848], [31.06931967000014, -17.994272315999922], [31.069597840000085, -17.99436955699997], [31.07358563000014, -17.99982505999992], [31.074927448000153, -18.00003728299987], [31.072327392000147, -18.014095057999953], [31.072441092000133, -18.014637730999937], [31.061332388000096, -18.007260250999934], [31.061885581000126, -18.006229522999945], [31.063163703000157, -18.004113894999932]]]]}}, {"type": "Feature", "properties": {"GID_3": "ZWE.2.1.7_2", "GID_0": "ZWE", "COUNTRY": "Zimbabwe", "GID_1": "ZWE.2_1", "NAME_1": "Harare", "NL_NAME_1": "NA", "GID_2": "ZWE.2.1_2", "NAME_2": "Chitungwiza", "NL_NAME_2": "NA", "NAME_3": "Ward 15", "VARNAME_3": "NA", "NL_NAME_3": "NA", "TYPE_3": "Ward", "ENGTYPE_3": "Ward", "CC_3": "NA", "HASC_3": "NA", "id": "ZWE.2.1.7_2", "name": "Ward 15"}, "geometry": {"type": "MultiPolygon", "coordinates": [[[[31.072327392000147, -18.014095057999953], [31.074927448000153, -18.00003728299987], [31.086848006000082, -18.00192221799989], [31.081985855000028, -18.009058093999954], [31.08666845400012, -18.011968455999977], [31.081666859999984, -18.017790192999882], [31.080807156000105, -18.020147524999913], [31.076127769000095, -18.017950004999875], [31.072327392000147, -18.014095057999953]]]]}}, {"type": "Feature", "properties": {"GID_3": "ZWE.2.1.8_2", "GID_0": "ZWE", "COUNTRY": "Zimbabwe", "GID_1": "ZWE.2_1", "NAME_1": "Harare", "NL_NAME_1": "NA", "GID_2": "ZWE.2.1_2", "NAME_2": "Chitungwiza", "NL_NAME_2": "NA", "NAME_3": "Ward 16", "VARNAME_3": "NA", "NL_NAME_3": "NA", "TYPE_3": "Ward", "ENGTYPE_3": "Ward", "CC_3": "NA", "HASC_3": "NA", "id": "ZWE.2.1.8_2", "name": "Ward 16"}, "geometry": {"type": "MultiPolygon", "coordinates": [[[[31.06320384300011, -18.028628485999945], [31.062448626000048, -18.027625435999937], [31.057824949000064, -18.024300111999935], [31.05906483300015, -18.023343825999973], [31.060634539000148, -18.023502767999958], [31.061228419000088, -18.02393831799992], [31.06318477500014, -18.02295551799989], [31.066367182000135, -18.019335755999975], [31.06689952400012, -18.018553474999976], [31.067958727000075, -18.01749005399995], [31.070211918999973, -18.016724934999957], [31.070667857000046, -18.01608508099997], [31.072246866000057, -18.0153848139999], [31.072441092000133, -18.014637730999937], [31.072327392000147, -18.014095057999953], [31.076127769000095, -18.017950004999875], [31.080807156000105, -18.020147524999913], [31.081886660000066, -18.020528402999958], [31.081794988000127, -18.02059866499991], [31.081056634000163, -18.021164576999865], [31.08097405600006, -18.02187976199997], [31.07954465900019, -18.02258158199993], [31.07864911200005, -18.02235788999991], [31.078268783000112, -18.022926914999914], [31.075332787000036, -18.024544533999915], [31.0747989030001, -18.025470023999958], [31.074052219000123, -18.025319390999982], [31.07186127700004, -18.027230766999935], [31.06752222900019, -18.02711586499987], [31.06617460700005, -18.027173996999977], [31.065127847000156, -18.027091928999937], [31.06384878700004, -18.027723527999967], [31.06320384300011, -18.028628485999945]]]]}}, {"type": "Feature", "properties": {"GID_3": "ZWE.2.1.9_2", "GID_0": "ZWE", "COUNTRY": "Zimbabwe", "GID_1": "ZWE.2_1", "NAME_1": "Harare", "NL_NAME_1": "NA", "GID_2": "ZWE.2.1_2", "NAME_2": "Chitungwiza", "NL_NAME_2": "NA", "NAME_3": "Ward 17", "VARNAME_3": "NA", "NL_NAME_3": "NA", "TYPE_3": "Ward", "ENGTYPE_3": "Ward", "CC_3": "NA", "HASC_3": "NA", "id": "ZWE.2.1.9_2", "name": "Ward 17"}, "geometry": {"type": "MultiPolygon", "coordinates": [[[[31.06320384300011, -18.028628485999945], [31.06384878700004, -18.027723527999967], [31.065127847000156, -18.027091928999937], [31.06617460700005, -18.027173996999977], [31.06752222900019, -18.02711586499987], [31.07186127700004, -18.027230766999935], [31.074052219000123, -18.025319390999982], [31.0747989030001, -18.025470023999958], [31.075332787000036, -18.024544533999915], [31.078268783000112, -18.022926914999914], [31.07864911200005, -18.02235788999991], [31.07954465900019, -18.02258158199993], [31.08097405600006, -18.02187976199997], [31.081056634000163, -18.021164576999865], [31.081794988000127, -18.02059866499991], [31.083295547000034, -18.02122849599982], [31.086407940000072, -18.024051725999982], [31.084060513000054, -18.026606108999943], [31.08082364200004, -18.02836402999992], [31.077646817000186, -18.029420879999975], [31.066403238000078, -18.03316079599989], [31.06320384300011, -18.028628485999945]]]]}}, {"type": "Feature", "properties": {"GID_3": "ZWE.2.1.10_2", "GID_0": "ZWE", "COUNTRY": "Zimbabwe", "GID_1": "ZWE.2_1", "NAME_1": "Harare", "NL_NAME_1": "NA", "GID_2": "ZWE.2.1_2", "NAME_2": "Chitungwiza", "NL_NAME_2": "NA", "NAME_3": "Ward 18", "VARNAME_3": "NA", "NL_NAME_3": "NA", "TYPE_3": "Ward", "ENGTYPE_3": "Ward", "CC_3": "NA", "HASC_3": "NA", "id": "ZWE.2.1.10_2", "name": "Ward 18"}, "geometry": {"type": "MultiPolygon", "coordinates": [[[[31.050162302000103, -18.034166754999887], [31.05045832600007, -18.034104562999914], [31.057800786000087, -18.03331925799995], [31.06036137000001, -18.03184136699997], [31.062402050000117, -18.030000231999963], [31.062562668999988, -18.02899944499984], [31.06293679500004, -18.02900319299988], [31.06320384300011, -18.028628485999945], [31.066403238000078, -18.03316079599989], [31.077646817000186, -18.029420879999975], [31.078631433000112, -18.03136137399997], [31.078824057000077, -18.034298897999918], [31.080546656000024, -18.03417280499997], [31.080817245000162, -18.036824701999933], [31.080364387000145, -18.037178207999943], [31.080694396000183, -18.040367827999887], [31.07512004900019, -18.043504085999928], [31.073393059000125, -18.043853231999947], [31.073186984000017, -18.04519447299998], [31.070927478000158, -18.047553225999934], [31.066579308000087, -18.04830353199992], [31.064606350000076, -18.04779531299988], [31.06390170000003, -18.048032487999876], [31.062596619000146, -18.050644924999972], [31.0614452370001, -18.05087760999993], [31.061967148, -18.049844850999932], [31.061337682000158, -18.049044775999903], [31.060142348000056, -18.048444848999907], [31.05990344000014, -18.048782779999897], [31.059085890000176, -18.04767551799995], [31.059490219000168, -18.045725707999907], [31.05860551900014, -18.044923062999942], [31.05669553400014, -18.044675129999916], [31.056056285000068, -18.0445921459999], [31.054292981, -18.04243735999995], [31.052643234000016, -18.041565929999877], [31.050115597000058, -18.039281293999977], [31.049819411000044, -18.037202326999875], [31.05023322000011, -18.034397820999914], [31.050162302000103, -18.034166754999887]]]]}}, {"type": "Feature", "properties": {"GID_3": "ZWE.2.1.11_2", "GID_0": "ZWE", "COUNTRY": "Zimbabwe", "GID_1": "ZWE.2_1", "NAME_1": "Harare", "NL_NAME_1": "NA", "GID_2": "ZWE.2.1_2", "NAME_2": "Chitungwiza", "NL_NAME_2": "NA", "NAME_3": "Ward 19", "VARNAME_3": "NA", "NL_NAME_3": "NA", "TYPE_3": "Ward", "ENGTYPE_3": "Ward", "CC_3": "NA", "HASC_3": "NA", "id": "ZWE.2.1.11_2", "name": "Ward 19"}, "geometry": {"type": "MultiPolygon", "coordinates": [[[[31.080807156000105, -18.020147524999913], [31.081666859999984, -18.017790192999882], [31.08666845400012, -18.011968455999977], [31.08783719400003, -18.01270079699998], [31.087963264000166, -18.018589719999966], [31.08876622300005, -18.020459269999947], [31.090053645000182, -18.019039967999845], [31.09087205900005, -18.019477648999896], [31.095777067000142, -18.015659530999926], [31.10059284900018, -18.020146120999982], [31.09772574300007, -18.022337585999935], [31.094797606000043, -18.023239584999942], [31.09116284300012, -18.027213397999958], [31.091092869000192, -18.02776154399993], [31.086407940000072, -18.024051725999982], [31.083295547000034, -18.02122849599982], [31.081794988000127, -18.02059866499991], [31.081886660000066, -18.020528402999958], [31.080807156000105, -18.020147524999913]]]]}}, {"type": "Feature", "properties": {"GID_3": "ZWE.2.1.12_2", "GID_0": "ZWE", "COUNTRY": "Zimbabwe", "GID_1": "ZWE.2_1", "NAME_1": "Harare", "NL_NAME_1": "NA", "GID_2": "ZWE.2.1_2", "NAME_2": "Chitungwiza", "NL_NAME_2": "NA", "NAME_3": "Ward 2", "VARNAME_3": "NA", "NL_NAME_3": "NA", "TYPE_3": "Ward", "ENGTYPE_3": "Ward", "CC_3": "NA", "HASC_3": "NA", "id": "ZWE.2.1.12_2", "name": "Ward 2"}, "geometry": {"type": "MultiPolygon", "coordinates": [[[[31.04502229400009, -17.982271651999895], [31.051483299000097, -17.988587920999976], [31.05322315400008, -17.98701788299985], [31.054310325000017, -17.986784566999972], [31.05123219800015, -17.99111932499983], [31.05102605999997, -17.992460539999968], [31.051451071000088, -17.993252189999907], [31.051934682000024, -17.99393462499995], [31.0519229840001, -17.993950948999895], [31.05072666100017, -17.995529054999906], [31.04836341000015, -17.99872538699998], [31.046570083000177, -18.001422838999872], [31.044951232000074, -17.999412580999888], [31.044694393000043, -17.997963100999982], [31.044984043, -17.996762183999977], [31.044684905000167, -17.9947022689999], [31.044934585000192, -17.994441249999966], [31.047560430000146, -17.993366979999905], [31.047519817000023, -17.993293880999886], [31.042434576, -17.98414054899996], [31.043014477000156, -17.983982457999957], [31.043178284000078, -17.983723491999854], [31.043786712000156, -17.983379669999977], [31.044750316000147, -17.98277880899991], [31.04502229400009, -17.982271651999895]]]]}}, {"type": "Feature", "properties": {"GID_3": "ZWE.2.1.13_2", "GID_0": "ZWE", "COUNTRY": "Zimbabwe", "GID_1": "ZWE.2_1", "NAME_1": "Harare", "NL_NAME_1": "NA", "GID_2": "ZWE.2.1_2", "NAME_2": "Chitungwiza", "NL_NAME_2": "NA", "NAME_3": "Ward 20", "VARNAME_3": "NA", "NL_NAME_3": "NA", "TYPE_3": "Ward", "ENGTYPE_3": "Ward", "CC_3": "NA", "HASC_3": "NA", "id": "ZWE.2.1.13_2", "name": "Ward 20"}, "geometry": {"type": "MultiPolygon", "coordinates": [[[[31.08666845400012, -18.011968455999977], [31.081985855000028, -18.009058093999954], [31.086848006000082, -18.00192221799989], [31.0897727520001, -18.00238457699993], [31.089042641, -18.00690825499987], [31.091125954000177, -18.008002818999955], [31.08783719400003, -18.01270079699998], [31.08666845400012, -18.011968455999977]]]]}}, {"type": "Feature", "properties": {"GID_3": "ZWE.2.1.14_2", "GID_0": "ZWE", "COUNTRY": "Zimbabwe", "GID_1": "ZWE.2_1", "NAME_1": "Harare", "NL_NAME_1": "NA", "GID_2": "ZWE.2.1_2", "NAME_2": "Chitungwiza", "NL_NAME_2": "NA", "NAME_3": "Ward 21", "VARNAME_3": "NA", "NL_NAME_3": "NA", "TYPE_3": "Ward", "ENGTYPE_3": "Ward", "CC_3": "NA", "HASC_3": "NA", "id": "ZWE.2.1.14_2", "name": "Ward 21"}, "geometry": {"type": "MultiPolygon", "coordinates": [[[[31.095777067000142, -18.015659530999926], [31.09087205900005, -18.019477648999896], [31.090053645000182, -18.019039967999845], [31.08876622300005, -18.020459269999947], [31.087963264000166, -18.018589719999966], [31.08783719400003, -18.01270079699998], [31.091125954000177, -18.008002818999955], [31.089042641, -18.00690825499987], [31.0897727520001, -18.00238457699993], [31.096539610000093, -18.003454138999814], [31.10451856000003, -18.007704459999957], [31.095777067000142, -18.015659530999926]]]]}}, {"type": "Feature", "properties": {"GID_3": "ZWE.2.1.15_2", "GID_0": "ZWE", "COUNTRY": "Zimbabwe", "GID_1": "ZWE.2_1", "NAME_1": "Harare", "NL_NAME_1": "NA", "GID_2": "ZWE.2.1_2", "NAME_2": "Chitungwiza", "NL_NAME_2": "NA", "NAME_3": "Ward 22", "VARNAME_3": "NA", "NL_NAME_3": "NA", "TYPE_3": "Ward", "ENGTYPE_3": "Ward", "CC_3": "NA", "HASC_3": "NA", "id": "ZWE.2.1.15_2", "name": "Ward 22"}, "geometry": {"type": "MultiPolygon", "coordinates": [[[[31.12490053400012, -18.022003712999947], [31.119572751000078, -18.02637928599995], [31.116756568000085, -18.029941036999958], [31.116404812999974, -18.030380385999877], [31.11618324900013, -18.03069269899987], [31.115884892000054, -18.031106096999963], [31.111753127000043, -18.033424185999934], [31.11015292100018, -18.033947028999933], [31.109098915000175, -18.02946600499996], [31.108734720000143, -18.02853162699995], [31.10814019500009, -18.027919347999898], [31.11496417700016, -18.02229150499994], [31.116343755000116, -18.01922607199998], [31.12490053400012, -18.022003712999947]]]]}}, {"type": "Feature", "properties": {"GID_3": "ZWE.2.1.16_2", "GID_0": "ZWE", "COUNTRY": "Zimbabwe", "GID_1": "ZWE.2_1", "NAME_1": "Harare", "NL_NAME_1": "NA", "GID_2": "ZWE.2.1_2", "NAME_2": "Chitungwiza", "NL_NAME_2": "NA", "NAME_3": "Ward 23", "VARNAME_3": "NA", "NL_NAME_3": "NA", "TYPE_3": "Ward", "ENGTYPE_3": "Ward", "CC_3": "NA", "HASC_3": "NA", "id": "ZWE.2.1.16_2", "name": "Ward 23"}, "geometry": {"type": "MultiPolygon", "coordinates": [[[[31.091092869000192, -18.02776154399993], [31.09116284300012, -18.027213397999958], [31.094797606000043, -18.023239584999942], [31.09772574300007, -18.022337585999935], [31.10059284900018, -18.020146120999982], [31.10814019500009, -18.027919347999898], [31.108734720000143, -18.02853162699995], [31.109098915000175, -18.02946600499996], [31.11015292100018, -18.033947028999933], [31.10957567500003, -18.03413563099997], [31.100182774000075, -18.035203708999973], [31.096293480000156, -18.03486015699997], [31.094320476000178, -18.032581518999905], [31.091304803000128, -18.033490852999932], [31.09135358400016, -18.031344151999974], [31.09083519700016, -18.030837829999882], [31.091092869000192, -18.02776154399993]]]]}}, {"type": "Feature", "properties": {"GID_3": "ZWE.2.1.17_2", "GID_0": "ZWE", "COUNTRY": "Zimbabwe", "GID_1": "ZWE.2_1", "NAME_1": "Harare", "NL_NAME_1": "NA", "GID_2": "ZWE.2.1_2", "NAME_2": "Chitungwiza", "NL_NAME_2": "NA", "NAME_3": "Ward 24", "VARNAME_3": "NA", "NL_NAME_3": "NA", "TYPE_3": "Ward", "ENGTYPE_3": "Ward", "CC_3": "NA", "HASC_3": "NA", "id": "ZWE.2.1.17_2", "name": "Ward 24"}, "geometry": {"type": "MultiPolygon", "coordinates": [[[[31.077646817000186, -18.029420879999975], [31.08082364200004, -18.02836402999992], [31.084060513000054, -18.026606108999943], [31.086407940000072, -18.024051725999982], [31.091092869000192, -18.02776154399993], [31.09083519700016, -18.030837829999882], [31.09135358400016, -18.031344151999974], [31.091304803000128, -18.033490852999932], [31.091183174000093, -18.033527527999865], [31.0894464160001, -18.034792623999977], [31.086477389000038, -18.037877288999937], [31.084555723, -18.038529910999955], [31.081912903000045, -18.04094607399992], [31.081339899000056, -18.040818268999942], [31.081091926000056, -18.04014415699993], [31.080694396000183, -18.040367827999887], [31.080364387000145, -18.037178207999943], [31.080817245000162, -18.036824701999933], [31.080546656000024, -18.03417280499997], [31.078824057000077, -18.034298897999918], [31.078631433000112, -18.03136137399997], [31.077646817000186, -18.029420879999975]]]]}}, {"type": "Feature", "properties": {"GID_3": "ZWE.2.1.18_2", "GID_0": "ZWE", "COUNTRY": "Zimbabwe", "GID_1": "ZWE.2_1", "NAME_1": "Harare", "NL_NAME_1": "NA", "GID_2": "ZWE.2.1_2", "NAME_2": "Chitungwiza", "NL_NAME_2": "NA", "NAME_3": "Ward 25", "VARNAME_3": "NA", "NL_NAME_3": "NA", "TYPE_3": "Ward", "ENGTYPE_3": "Ward", "CC_3": "NA", "HASC_3": "NA", "id": "ZWE.2.1.18_2", "name": "Ward 25"}, "geometry": {"type": "MultiPolygon", "coordinates": [[[[31.10059284900018, -18.020146120999982], [31.095777067000142, -18.015659530999926], [31.10451856000003, -18.007704459999957], [31.12710959600014, -18.019735744999934], [31.126215340000044, -18.02069832599983], [31.12538789400014, -18.021610852999913], [31.12490053400012, -18.022003712999947], [31.116343755000116, -18.01922607199998], [31.11496417700016, -18.02229150499994], [31.10814019500009, -18.027919347999898], [31.10059284900018, -18.020146120999982]]]]}}, {"type": "Feature", "properties": {"GID_3": "ZWE.2.1.19_2", "GID_0": "ZWE", "COUNTRY": "Zimbabwe", "GID_1": "ZWE.2_1", "NAME_1": "Harare", "NL_NAME_1": "NA", "GID_2": "ZWE.2.1_2", "NAME_2": "Chitungwiza", "NL_NAME_2": "NA", "NAME_3": "Ward 3", "VARNAME_3": "NA", "NL_NAME_3": "NA", "TYPE_3": "Ward", "ENGTYPE_3": "Ward", "CC_3": "NA", "HASC_3": "NA", "id": "ZWE.2.1.19_2", "name": "Ward 3"}, "geometry": {"type": "MultiPolygon", "coordinates": [[[[31.042434576, -17.98414054899996], [31.047519817000023, -17.993293880999886], [31.047560430000146, -17.993366979999905], [31.044934585000192, -17.994441249999966], [31.044684905000167, -17.9947022689999], [31.044984043, -17.996762183999977], [31.044694393000043, -17.997963100999982], [31.044221160000063, -17.997841385999948], [31.043154738999988, -17.99740003799991], [31.04199281500013, -17.99511621399995], [31.039842733000057, -17.995896381999955], [31.035375973000157, -17.98516795899991], [31.03955891400011, -17.984924469999896], [31.042434576, -17.98414054899996]]]]}}, {"type": "Feature", "properties": {"GID_3": "ZWE.2.1.20_2", "GID_0": "ZWE", "COUNTRY": "Zimbabwe", "GID_1": "ZWE.2_1", "NAME_1": "Harare", "NL_NAME_1": "NA", "GID_2": "ZWE.2.1_2", "NAME_2": "Chitungwiza", "NL_NAME_2": "NA", "NAME_3": "Ward 4", "VARNAME_3": "NA", "NL_NAME_3": "NA", "TYPE_3": "Ward", "ENGTYPE_3": "Ward", "CC_3": "NA", "HASC_3": "NA", "id": "ZWE.2.1.20_2", "name": "Ward 4"}, "geometry": {"type": "MultiPolygon", "coordinates": [[[[31.044694393000043, -17.997963100999982], [31.044951232000074, -17.999412580999888], [31.046570083000177, -18.001422838999872], [31.045858024000154, -18.002493860999948], [31.045467347000056, -18.00349895099987], [31.034920656000054, -18.00321321499996], [31.031662270000083, -18.00097756499997], [31.033540501000175, -17.99846273999998], [31.036077176000163, -17.99986228299997], [31.036591037000164, -17.999110642999938], [31.03720793800011, -17.999105757999928], [31.03808189500006, -17.997593751999943], [31.037734257000068, -17.99745657899996], [31.037973160000035, -17.996902116999934], [31.037324067000043, -17.996627699999976], [31.035076930000173, -17.99549689999992], [31.035407454000165, -17.995077022999908], [31.033927281, -17.99421658799986], [31.030347367000104, -17.99428535499993], [31.02904940100018, -17.994806757999925], [31.02659988099998, -17.997201523999934], [31.022569522000026, -17.99364258099996], [31.022581479000053, -17.993514922999964], [31.02269205400006, -17.99233435399998], [31.023196644000052, -17.991673572999957], [31.023779019000187, -17.989541100999872], [31.02487290500011, -17.987482675999956], [31.025970076000192, -17.98716729299997], [31.029622444000097, -17.987338113999954], [31.03017454400009, -17.986954227999888], [31.031527138000115, -17.98496402799998], [31.032204268000157, -17.984770426999944], [31.033710086000042, -17.98540941699997], [31.035375973000157, -17.98516795899991], [31.039842733000057, -17.995896381999955], [31.04199281500013, -17.99511621399995], [31.043154738999988, -17.99740003799991], [31.044221160000063, -17.997841385999948], [31.044694393000043, -17.997963100999982]]]]}}, {"type": "Feature", "properties": {"GID_3": "ZWE.2.1.21_2", "GID_0": "ZWE", "COUNTRY": "Zimbabwe", "GID_1": "ZWE.2_1", "NAME_1": "Harare", "NL_NAME_1": "NA", "GID_2": "ZWE.2.1_2", "NAME_2": "Chitungwiza", "NL_NAME_2": "NA", "NAME_3": "Ward 5", "VARNAME_3": "NA", "NL_NAME_3": "NA", "TYPE_3": "Ward", "ENGTYPE_3": "Ward", "CC_3": "NA", "HASC_3": "NA", "id": "ZWE.2.1.21_2", "name": "Ward 5"}, "geometry": {"type": "MultiPolygon", "coordinates": [[[[31.02659988099998, -17.997201523999934], [31.02904940100018, -17.994806757999925], [31.030347367000104, -17.99428535499993], [31.033927281, -17.99421658799986], [31.035407454000165, -17.995077022999908], [31.035076930000173, -17.99549689999992], [31.037324067000043, -17.996627699999976], [31.037973160000035, -17.996902116999934], [31.037734257000068, -17.99745657899996], [31.03808189500006, -17.997593751999943], [31.03720793800011, -17.999105757999928], [31.036591037000164, -17.999110642999938], [31.036077176000163, -17.99986228299997], [31.033540501000175, -17.99846273999998], [31.031662270000083, -18.00097756499997], [31.02659988099998, -17.997201523999934]]]]}}, {"type": "Feature", "properties": {"GID_3": "ZWE.2.1.22_2", "GID_0": "ZWE", "COUNTRY": "Zimbabwe", "GID_1": "ZWE.2_1", "NAME_1": "Harare", "NL_NAME_1": "NA", "GID_2": "ZWE.2.1_2", "NAME_2": "Chitungwiza", "NL_NAME_2": "NA", "NAME_3": "Ward 6", "VARNAME_3": "NA", "NL_NAME_3": "NA", "TYPE_3": "Ward", "ENGTYPE_3": "Ward", "CC_3": "NA", "HASC_3": "NA", "id": "ZWE.2.1.22_2", "name": "Ward 6"}, "geometry": {"type": "MultiPolygon", "coordinates": [[[[31.05272706200003, -18.009308513999883], [31.046789396000122, -18.011565332999908], [31.04542217100004, -18.013110804999883], [31.044777798000098, -18.01243603799992], [31.04244031000013, -18.01330342299991], [31.040608007000174, -18.016144519999898], [31.03932341500007, -18.017277093999894], [31.038125517000083, -18.01733655199996], [31.034038030000033, -18.020343029999935], [31.025256789000082, -18.0181165919999], [31.02305499100015, -18.01528546299994], [31.018371756000192, -18.01289749199998], [31.015944560000094, -18.013116856999943], [31.011770744000046, -18.015455258999964], [31.010452830000077, -18.013487884999904], [31.00956715000018, -18.0128071499999], [31.00860601500011, -18.01316360699991], [31.007698382000058, -18.01443646599995], [31.00712279300018, -18.014552653999885], [31.00682419800006, -18.014141226999982], [31.00542625500009, -18.01221500999992], [31.004085748000136, -18.012262248999946], [31.002752810000175, -18.01163792999995], [31.002444816000093, -18.010657839999965], [31.003318917000172, -18.00669815299989], [31.00263088600019, -18.00546991599998], [30.99924544100014, -18.005801304999864], [30.997618398000043, -18.002975869999943], [30.996343833000026, -18.00284057199991], [30.994457816000192, -18.000889567999877], [30.9975745590001, -18.001100016999885], [30.999959443000023, -17.999413293999964], [31.001227951000033, -17.99913301999993], [31.00457441800006, -17.99961302399987], [31.006175595000116, -17.997981169999946], [31.00720015400009, -17.99794716399998], [31.00949806800014, -18.00059923699996], [31.01677587300003, -18.00339145399994], [31.020636002000117, -18.002537448999817], [31.021176877000187, -17.999959066999907], [31.02064712000015, -17.99736974399997], [31.020845738000048, -17.996258019999914], [31.022581479000053, -17.993514922999964], [31.022569522000026, -17.99364258099996], [31.02659988099998, -17.997201523999934], [31.031662270000083, -18.00097756499997], [31.034920656000054, -18.00321321499996], [31.045467347000056, -18.00349895099987], [31.045858024000154, -18.002493860999948], [31.046570083000177, -18.001422838999872], [31.04836341000015, -17.99872538699998], [31.053041515000018, -18.00187168799988], [31.051186395, -18.005461642999933], [31.051397609000105, -18.007424003999915], [31.05272706200003, -18.009308513999883]]]]}}, {"type": "Feature", "properties": {"GID_3": "ZWE.2.1.23_2", "GID_0": "ZWE", "COUNTRY": "Zimbabwe", "GID_1": "ZWE.2_1", "NAME_1": "Harare", "NL_NAME_1": "NA", "GID_2": "ZWE.2.1_2", "NAME_2": "Chitungwiza", "NL_NAME_2": "NA", "NAME_3": "Ward 7", "VARNAME_3": "NA", "NL_NAME_3": "NA", "TYPE_3": "Ward", "ENGTYPE_3": "Ward", "CC_3": "NA", "HASC_3": "NA", "id": "ZWE.2.1.23_2", "name": "Ward 7"}, "geometry": {"type": "MultiPolygon", "coordinates": [[[[31.04836341000015, -17.99872538699998], [31.05072666100017, -17.995529054999906], [31.05542437800011, -17.998421681999957], [31.053041515000018, -18.00187168799988], [31.04836341000015, -17.99872538699998]]]]}}, {"type": "Feature", "properties": {"GID_3": "ZWE.2.1.24_2", "GID_0": "ZWE", "COUNTRY": "Zimbabwe", "GID_1": "ZWE.2_1", "NAME_1": "Harare", "NL_NAME_1": "NA", "GID_2": "ZWE.2.1_2", "NAME_2": "Chitungwiza", "NL_NAME_2": "NA", "NAME_3": "Ward 8", "VARNAME_3": "NA", "NL_NAME_3": "NA", "TYPE_3": "Ward", "ENGTYPE_3": "Ward", "CC_3": "NA", "HASC_3": "NA", "id": "ZWE.2.1.24_2", "name": "Ward 8"}, "geometry": {"type": "MultiPolygon", "coordinates": [[[[31.051934682000024, -17.99393462499995], [31.053554897000083, -17.991673644999935], [31.053776507000123, -17.991828516999874], [31.058524139000156, -17.98563163299997], [31.05982684100013, -17.98675882299989], [31.061436516000185, -17.98743761399993], [31.05526343800011, -17.995641898999907], [31.05678286100016, -17.996725672999958], [31.055498247000116, -17.99832946099997], [31.05542437800011, -17.998421681999957], [31.05072666100017, -17.995529054999906], [31.0519229840001, -17.993950948999895], [31.051934682000024, -17.99393462499995]]]]}}, {"type": "Feature", "properties": {"GID_3": "ZWE.2.1.25_2", "GID_0": "ZWE", "COUNTRY": "Zimbabwe", "GID_1": "ZWE.2_1", "NAME_1": "Harare", "NL_NAME_1": "NA", "GID_2": "ZWE.2.1_2", "NAME_2": "Chitungwiza", "NL_NAME_2": "NA", "NAME_3": "Ward 9", "VARNAME_3": "NA", "NL_NAME_3": "NA", "TYPE_3": "Ward", "ENGTYPE_3": "Ward", "CC_3": "NA", "HASC_3": "NA", "id": "ZWE.2.1.25_2", "name": "Ward 9"}, "geometry": {"type": "MultiPolygon", "coordinates": [[[[31.055498247000116, -17.99832946099997], [31.05709984900011, -17.999196238999957], [31.061401431000036, -18.00259757399988], [31.0617103940001, -18.003598223999916], [31.06251425700009, -18.00364206899991], [31.063163703000157, -18.004113894999932], [31.05962314500016, -18.006303809999963], [31.05866573800006, -18.006708781999976], [31.058473603000095, -18.007172253999954], [31.05272706200003, -18.009308513999883], [31.051397609000105, -18.007424003999915], [31.051186395, -18.005461642999933], [31.053041515000018, -18.00187168799988], [31.05542437800011, -17.998421681999957], [31.055498247000116, -17.99832946099997]]]]}}]}