{"type": "FeatureCollection", "features": [{"type": "Feature", "properties": {"GID_3": "ZWE.5.5.1_2", "GID_0": "ZWE", "COUNTRY": "Zimbabwe", "GID_1": "ZWE.5_1", "NAME_1": "Mashonaland East", "NL_NAME_1": "NA", "GID_2": "ZWE.5.5_2", "NAME_2": "Marondera Urban", "NL_NAME_2": "NA", "NAME_3": "Ward 1", "VARNAME_3": "NA", "NL_NAME_3": "NA", "TYPE_3": "Ward", "ENGTYPE_3": "Ward", "CC_3": "NA", "HASC_3": "NA", "id": "ZWE.5.5.1_2", "name": "Ward 1"}, "geometry": {"type": "MultiPolygon", "coordinates": [[[[31.56246081600011, -18.178135347999955], [31.560947747000057, -18.181001290999916], [31.560837247000165, -18.180893988999912], [31.559893637000073, -18.18051425899995], [31.558140249000076, -18.183801773999903], [31.55880805800018, -18.18386002299991], [31.55880412300013, -18.184339122999972], [31.55757652400007, -18.18539758099996], [31.554848988000174, -18.185090555999977], [31.554804445000116, -18.18462799499997], [31.55500254300017, -18.183806432999916], [31.555871761000162, -18.182807018999938], [31.55674397600012, -18.181441819999975], [31.556696935000048, -18.181424117999825], [31.55712975000006, -18.180620319999946], [31.55777529200003, -18.179421442999967], [31.558225151000045, -18.17889245399988], [31.558297014000175, -18.176923237999915], [31.55946290500009, -18.177357877999896], [31.559470829000077, -18.17733558099991], [31.561955663000106, -18.177997124999933], [31.56246081600011, -18.178135347999955]]]]}}, {"type": "Feature", "properties": {"GID_3": "ZWE.5.5.2_2", "GID_0": "ZWE", "COUNTRY": "Zimbabwe", "GID_1": "ZWE.5_1", "NAME_1": "Mashonaland East", "NL_NAME_1": "NA", "GID_2": "ZWE.5.5_2", "NAME_2": "Marondera Urban", "NL_NAME_2": "NA", "NAME_3": "Ward 10", "VARNAME_3": "NA", "NL_NAME_3": "NA", "TYPE_3": "Ward", "ENGTYPE_3": "Ward", "CC_3": "NA", "HASC_3": "NA", "id": "ZWE.5.5.2_2", "name": "Ward 10"}, "geometry": {"type": "MultiPolygon", "coordinates": [[[[31.51507619000006, -18.263060354999936], [31.513235967000128, -18.268013406999955], [31.51111994500019, -18.258707629999947], [31.50954151300016, -18.254373404999967], [31.510555391000025, -18.249133226999902], [31.510229718000176, -18.24943940299994], [31.51281560400008, -18.24429746699991], [31.511621740000066, -18.23771923599992], [31.5084283810001, -18.233372449999877], [31.50810536900019, -18.233369934999928], [31.511842199000114, -18.21178922499996], [31.51404324700013, -18.21125187499996], [31.514254113000163, -18.211142857999846], [31.522898734000023, -18.203476524999928], [31.52321913900016, -18.203233216999877], [31.522896180000146, -18.203230730999962], [31.521307427000067, -18.200131363999844], [31.520984474000045, -18.200128874999905], [31.512848701000053, -18.197699135999926], [31.51305852300004, -18.196733775999917], [31.51307772900003, -18.19446895199991], [31.512396676000037, -18.192598402999977], [31.509468707000167, -18.192708920999962], [31.504779992000124, -18.186810184999956], [31.500010039000074, -18.18717267699992], [31.50001022500004, -18.187150955999982], [31.487248406000106, -18.190313814999968], [31.487258255000143, -18.189171845999965], [31.489655977999973, -18.18821182799985], [31.48982664099998, -18.18821316999987], [31.493592441000033, -18.186937556999908], [31.494944107000094, -18.18670804599992], [31.526719518000107, -18.180294894999918], [31.528923088, -18.181033958999876], [31.53302145100008, -18.182848575999913], [31.533977653000193, -18.182901602999948], [31.53550628300019, -18.183141890999934], [31.535971370000027, -18.18310840999993], [31.536078834000193, -18.183125292999875], [31.535701929000027, -18.188356012999975], [31.539452392999976, -18.19176822199995], [31.538154075000023, -18.192581385999972], [31.53685689000008, -18.193257374999973], [31.536563029000035, -18.194078180999952], [31.537711007000155, -18.194086929999855], [31.53780861400014, -18.193854639999927], [31.538891091000096, -18.194750385999953], [31.539091327000165, -18.19491607899988], [31.539023685000075, -18.197293255999853], [31.538763178000067, -18.19985186199989], [31.538620622, -18.20547492599991], [31.538650538000184, -18.207624218999854], [31.538440123999976, -18.209908853999877], [31.538270115000046, -18.21037074999998], [31.537852727000143, -18.21150474199993], [31.536071297000035, -18.21286210999989], [31.532570353999972, -18.21388701799998], [31.53175059800003, -18.214658060999966], [31.53000924800017, -18.216930948999845], [31.52936277300006, -18.219852363999962], [31.528769493000027, -18.222134038999855], [31.52813489000016, -18.22363807599993], [31.527016482000192, -18.22577853499996], [31.526719560000117, -18.226949799999943], [31.526724666000177, -18.229632592999963], [31.52672487300015, -18.22974146899992], [31.52164844500004, -18.22860873799982], [31.519505984000148, -18.23748309099983], [31.518901301000085, -18.247851113999957], [31.515678447000084, -18.262150320999865], [31.514715011000135, -18.26296419199997], [31.515209420000076, -18.262701746999937], [31.51507619000006, -18.263060354999936]]]]}}, {"type": "Feature", "properties": {"GID_3": "ZWE.5.5.3_2", "GID_0": "ZWE", "COUNTRY": "Zimbabwe", "GID_1": "ZWE.5_1", "NAME_1": "Mashonaland East", "NL_NAME_1": "NA", "GID_2": "ZWE.5.5_2", "NAME_2": "Marondera Urban", "NL_NAME_2": "NA", "NAME_3": "Ward 11", "VARNAME_3": "NA", "NL_NAME_3": "NA", "TYPE_3": "Ward", "ENGTYPE_3": "Ward", "CC_3": "NA", "HASC_3": "NA", "id": "ZWE.5.5.3_2", "name": "Ward 11"}, "geometry": {"type": "MultiPolygon", "coordinates": [[[[31.55712975000006, -18.180620319999946], [31.556696935000048, -18.181424117999825], [31.55674397600012, -18.181441819999975], [31.555871761000162, -18.182807018999938], [31.55500254300017, -18.183806432999916], [31.554804445000116, -18.18462799499997], [31.554848988000174, -18.185090555999977], [31.55757652400007, -18.18539758099996], [31.559306539000147, -18.185592299999826], [31.562202306000188, -18.185614005999923], [31.566211837000026, -18.185643987999924], [31.56708063500014, -18.185650473999942], [31.567183620000037, -18.185651241999892], [31.567771101000062, -18.18565562499998], [31.567992146000165, -18.18648112099993], [31.583429248000073, -18.194498866999936], [31.58905432000006, -18.197839621999947], [31.60094417900018, -18.20561825699997], [31.600653559000136, -18.205528709999953], [31.600653559000136, -18.205658719999917], [31.60051856300015, -18.205660720999845], [31.60051856300015, -18.205790730999922], [31.60051856300015, -18.20592174099994], [31.600520563000146, -18.206053750999956], [31.60038456700005, -18.206185760999915], [31.60038456700005, -18.206446780999954], [31.600386567000044, -18.206577791999962], [31.60038856700004, -18.20683981199994], [31.600251571000058, -18.20697082199996], [31.600254571000164, -18.207495862999963], [31.60011957500018, -18.20762687299998], [31.600121575000173, -18.207888892999904], [31.600121575000173, -18.20801990399991], [31.60012357500017, -18.208149913999932], [31.59998757900007, -18.20841293399991], [31.599989579000066, -18.208937974999913], [31.59985458300008, -18.20906898499993], [31.599856583000076, -18.209331004999854], [31.59986158300012, -18.210378085999878], [31.59986558300011, -18.21077111699998], [31.599871583000095, -18.21182019799994], [31.599738587000104, -18.21221322899993], [31.59973958700016, -18.21260625899987], [31.59974358800008, -18.213130299999875], [31.599608592000095, -18.213523329999873], [31.599612592000085, -18.213916360999974], [31.599614592000023, -18.21444140099993], [31.59961759200013, -18.21496344199994], [31.59948459600014, -18.215358471999934], [31.599486596000133, -18.21575150299998], [31.599490596000066, -18.216274542999884], [31.599493596000173, -18.21692859399991], [31.599495596000168, -18.21732162499984], [31.5994995960001, -18.217845664999857], [31.599501596000096, -18.218238695999958], [31.59950559700019, -18.218761735999976], [31.599507597000184, -18.219154766999907], [31.59950959700018, -18.219417786999884], [31.599650593000092, -18.21993982699985], [31.599652593000087, -18.22033285799995], [31.599654593000082, -18.22059487799993], [31.599011614000062, -18.22714638599996], [31.599013614000057, -18.22740840599988], [31.599152610000033, -18.227801436999982], [31.599156610000193, -18.228323476999947], [31.599295606000112, -18.228716507999934], [31.599295957000038, -18.228762413999902], [31.59921550000007, -18.22875868599988], [31.59919950300008, -18.230757128999926], [31.587087089000136, -18.228669639999964], [31.569338954000045, -18.233867387999965], [31.568114577000074, -18.232121547999952], [31.572352759000125, -18.222077947999935], [31.561107679000145, -18.212861292999833], [31.55533262100016, -18.208359172999906], [31.556220847000077, -18.19959577599991], [31.555902707000087, -18.200083052999844], [31.55360891900017, -18.199791424999944], [31.55073810800002, -18.199861213999952], [31.550738863, -18.199769768999943], [31.54834715300018, -18.19975168999997], [31.546436062000055, -18.19946287199997], [31.545000282000103, -18.199543439999957], [31.545119474000046, -18.19670939899993], [31.54426986300018, -18.19533120799997], [31.542745290000028, -18.19458803999993], [31.540545751000025, -18.194479876999935], [31.53882301700014, -18.19455821799994], [31.538891091000096, -18.194750385999953], [31.53780861400014, -18.193854639999927], [31.537711007000155, -18.194086929999855], [31.536563029000035, -18.194078180999952], [31.53685689000008, -18.193257374999973], [31.538154075000023, -18.192581385999972], [31.539452392999976, -18.19176822199995], [31.535701929000027, -18.188356012999975], [31.536078834000193, -18.183125292999875], [31.535971370000027, -18.18310840999993], [31.53550628300019, -18.183141890999934], [31.533977653000193, -18.182901602999948], [31.53302145100008, -18.182848575999913], [31.528923088, -18.181033958999876], [31.526719518000107, -18.180294894999918], [31.526122851000025, -18.180019924999897], [31.51767176800007, -18.176125023999873], [31.508918042000175, -18.172599696999953], [31.514117892000172, -18.168688457999963], [31.525056322000182, -18.158152954999935], [31.52943918000011, -18.159174416999974], [31.55533795300005, -18.163587406999966], [31.556240797000157, -18.1632764499999], [31.556604883999967, -18.163326066999957], [31.556510195000044, -18.163332873999877], [31.556019173000095, -18.164883844999963], [31.55504537500019, -18.16697988699991], [31.553881002000026, -18.16898303699992], [31.55310222700018, -18.17062328099985], [31.55296948900019, -18.170838540999966], [31.55203572100004, -18.172352802999967], [31.551546138000106, -18.173720866999815], [31.550865237000153, -18.175087485999825], [31.55334850100013, -18.175563453999928], [31.55343737400011, -18.176387175999878], [31.553809451000063, -18.177670281999895], [31.55398871100016, -18.179134836999935], [31.554248142, -18.18042772499996], [31.55712975000006, -18.180620319999946]]]]}}, {"type": "Feature", "properties": {"GID_3": "ZWE.5.5.4_2", "GID_0": "ZWE", "COUNTRY": "Zimbabwe", "GID_1": "ZWE.5_1", "NAME_1": "Mashonaland East", "NL_NAME_1": "NA", "GID_2": "ZWE.5.5_2", "NAME_2": "Marondera Urban", "NL_NAME_2": "NA", "NAME_3": "Ward 12", "VARNAME_3": "NA", "NL_NAME_3": "NA", "TYPE_3": "Ward", "ENGTYPE_3": "Ward", "CC_3": "NA", "HASC_3": "NA", "id": "ZWE.5.5.4_2", "name": "Ward 12"}, "geometry": {"type": "MultiPolygon", "coordinates": [[[[31.52672487300015, -18.22974146899992], [31.526724666000177, -18.229632592999963], [31.528276178000112, -18.227913275999924], [31.530129941000155, -18.22606425099997], [31.531533158000173, -18.224797346999935], [31.533386853000138, -18.222948284999973], [31.535515771000064, -18.221487616999923], [31.5362942160001, -18.221653270999866], [31.537018299000067, -18.221658798999954], [31.5369666040001, -18.221179279999888], [31.53708511700006, -18.220328408999933], [31.537092233000124, -18.219476686999883], [31.53809613100003, -18.219324636999943], [31.53871058599998, -18.21911637799991], [31.538830421000057, -18.218105805999983], [31.538724356000046, -18.217466164999962], [31.53911645900007, -18.21720297299987], [31.54147436700015, -18.214985008999975], [31.541702029000135, -18.214401142999975], [31.54187886800014, -18.21323129299998], [31.541823172000136, -18.21323086999996], [31.541767476000132, -18.213230445999898], [31.541959309000106, -18.21039158399992], [31.548027514000125, -18.210616135999942], [31.548084091000078, -18.21051009199988], [31.550253570999985, -18.210845921999976], [31.553147186000047, -18.210845580999944], [31.55174207800013, -18.21451415199988], [31.550671743000123, -18.218951568999955], [31.55165628700007, -18.224886348999917], [31.546455430000094, -18.228798523999956], [31.542283881000174, -18.23321231899996], [31.52672487300015, -18.22974146899992]]]]}}, {"type": "Feature", "properties": {"GID_3": "ZWE.5.5.5_2", "GID_0": "ZWE", "COUNTRY": "Zimbabwe", "GID_1": "ZWE.5_1", "NAME_1": "Mashonaland East", "NL_NAME_1": "NA", "GID_2": "ZWE.5.5_2", "NAME_2": "Marondera Urban", "NL_NAME_2": "NA", "NAME_3": "Ward 2", "VARNAME_3": "NA", "NL_NAME_3": "NA", "TYPE_3": "Ward", "ENGTYPE_3": "Ward", "CC_3": "NA", "HASC_3": "NA", "id": "ZWE.5.5.5_2", "name": "Ward 2"}, "geometry": {"type": "MultiPolygon", "coordinates": [[[[31.55757652400007, -18.18539758099996], [31.55880412300013, -18.184339122999972], [31.55880805800018, -18.18386002299991], [31.558140249000076, -18.183801773999903], [31.559893637000073, -18.18051425899995], [31.560837247000165, -18.180893988999912], [31.560947747000057, -18.181001290999916], [31.56246081600011, -18.178135347999955], [31.564744520000033, -18.17876021199993], [31.564766839000185, -18.17885202499997], [31.56363718299997, -18.18076053899989], [31.564020450000157, -18.180961562999926], [31.563821092000182, -18.181418232999874], [31.56470903000013, -18.18179752799989], [31.564426677000142, -18.182274547999953], [31.564466454000126, -18.182284370999923], [31.56445960299999, -18.18236415399997], [31.56546219500018, -18.18237164599998], [31.565404319000038, -18.18263745799993], [31.565113527000108, -18.182957968999972], [31.564976145000117, -18.183183679999843], [31.564138660000026, -18.183443602999944], [31.562690792000126, -18.183432770999843], [31.56708063500014, -18.185650473999942], [31.566211837000026, -18.185643987999924], [31.562202306000188, -18.185614005999923], [31.559306539000147, -18.185592299999826], [31.55757652400007, -18.18539758099996]]]]}}, {"type": "Feature", "properties": {"GID_3": "ZWE.5.5.6_2", "GID_0": "ZWE", "COUNTRY": "Zimbabwe", "GID_1": "ZWE.5_1", "NAME_1": "Mashonaland East", "NL_NAME_1": "NA", "GID_2": "ZWE.5.5_2", "NAME_2": "Marondera Urban", "NL_NAME_2": "NA", "NAME_3": "Ward 3", "VARNAME_3": "NA", "NL_NAME_3": "NA", "TYPE_3": "Ward", "ENGTYPE_3": "Ward", "CC_3": "NA", "HASC_3": "NA", "id": "ZWE.5.5.6_2", "name": "Ward 3"}, "geometry": {"type": "MultiPolygon", "coordinates": [[[[31.56246081600011, -18.178135347999955], [31.561955663000106, -18.177997124999933], [31.56252646700011, -18.176297821999867], [31.564316222000116, -18.17535294599992], [31.565873219000082, -18.175630759999933], [31.566318697000156, -18.175634084999842], [31.566558067000074, -18.17429813799987], [31.569294218000095, -18.17495919299995], [31.56948873900012, -18.174415471999907], [31.57145583600004, -18.174066663999895], [31.57244594300016, -18.176981594999972], [31.57225142800013, -18.177525317999823], [31.57250536300012, -18.17746663099996], [31.57288355600008, -18.17771173899996], [31.573139953000066, -18.177350196999896], [31.574798884000074, -18.17859333399997], [31.577074134000043, -18.18170460799996], [31.572657884000193, -18.18586120899994], [31.572797255000125, -18.185862244999953], [31.572778367000126, -18.185913190999884], [31.572646429000088, -18.186021827999923], [31.567992146000165, -18.18648112099993], [31.567771101000062, -18.18565562499998], [31.567183620000037, -18.185651241999892], [31.56708063500014, -18.185650473999942], [31.562690792000126, -18.183432770999843], [31.564138660000026, -18.183443602999944], [31.564976145000117, -18.183183679999843], [31.565113527000108, -18.182957968999972], [31.565404319000038, -18.18263745799993], [31.56546219500018, -18.18237164599998], [31.56445960299999, -18.18236415399997], [31.564466454000126, -18.182284370999923], [31.564426677000142, -18.182274547999953], [31.56470903000013, -18.18179752799989], [31.563821092000182, -18.181418232999874], [31.564020450000157, -18.180961562999926], [31.56363718299997, -18.18076053899989], [31.564766839000185, -18.17885202499997], [31.564744520000033, -18.17876021199993], [31.56246081600011, -18.178135347999955]]]]}}, {"type": "Feature", "properties": {"GID_3": "ZWE.5.5.7_2", "GID_0": "ZWE", "COUNTRY": "Zimbabwe", "GID_1": "ZWE.5_1", "NAME_1": "Mashonaland East", "NL_NAME_1": "NA", "GID_2": "ZWE.5.5_2", "NAME_2": "Marondera Urban", "NL_NAME_2": "NA", "NAME_3": "Ward 4", "VARNAME_3": "NA", "NL_NAME_3": "NA", "TYPE_3": "Ward", "ENGTYPE_3": "Ward", "CC_3": "NA", "HASC_3": "NA", "id": "ZWE.5.5.7_2", "name": "Ward 4"}, "geometry": {"type": "MultiPolygon", "coordinates": [[[[31.561955663000106, -18.177997124999933], [31.559470829000077, -18.17733558099991], [31.560113789000127, -18.17552631999996], [31.56217080900018, -18.169737664999843], [31.564086782000174, -18.164345522999895], [31.56935639500017, -18.165063360999966], [31.583982131000084, -18.167054929999892], [31.583236605000025, -18.170350795999923], [31.582380010000122, -18.172875987999873], [31.580694743000038, -18.174462391999953], [31.579696722000165, -18.175166501999968], [31.579696876000128, -18.175177938999923], [31.576840186000027, -18.176912383999934], [31.576902565000125, -18.17703399499993], [31.574798884000074, -18.17859333399997], [31.573139953000066, -18.177350196999896], [31.57288355600008, -18.17771173899996], [31.57250536300012, -18.17746663099996], [31.57225142800013, -18.177525317999823], [31.57244594300016, -18.176981594999972], [31.57145583600004, -18.174066663999895], [31.56948873900012, -18.174415471999907], [31.569294218000095, -18.17495919299995], [31.566558067000074, -18.17429813799987], [31.566318697000156, -18.175634084999842], [31.565873219000082, -18.175630759999933], [31.564316222000116, -18.17535294599992], [31.56252646700011, -18.176297821999867], [31.561955663000106, -18.177997124999933]]]]}}, {"type": "Feature", "properties": {"GID_3": "ZWE.5.5.8_2", "GID_0": "ZWE", "COUNTRY": "Zimbabwe", "GID_1": "ZWE.5_1", "NAME_1": "Mashonaland East", "NL_NAME_1": "NA", "GID_2": "ZWE.5.5_2", "NAME_2": "Marondera Urban", "NL_NAME_2": "NA", "NAME_3": "Ward 5", "VARNAME_3": "NA", "NL_NAME_3": "NA", "TYPE_3": "Ward", "ENGTYPE_3": "Ward", "CC_3": "NA", "HASC_3": "NA", "id": "ZWE.5.5.8_2", "name": "Ward 5"}, "geometry": {"type": "MultiPolygon", "coordinates": [[[[31.56217080900018, -18.169737664999843], [31.560113789000127, -18.17552631999996], [31.555868370000155, -18.173319868999954], [31.55727708600017, -18.17130746099997], [31.557220832000155, -18.171301337999978], [31.557559875000038, -18.170777217999955], [31.557669730000157, -18.170778041999938], [31.557563616000095, -18.168268893999823], [31.55883174600001, -18.16815725999993], [31.558879044000037, -18.169933015999845], [31.560296202000075, -18.169839478999904], [31.560578107000026, -18.16941569699992], [31.56217080900018, -18.169737664999843]]]]}}, {"type": "Feature", "properties": {"GID_3": "ZWE.5.5.9_2", "GID_0": "ZWE", "COUNTRY": "Zimbabwe", "GID_1": "ZWE.5_1", "NAME_1": "Mashonaland East", "NL_NAME_1": "NA", "GID_2": "ZWE.5.5_2", "NAME_2": "Marondera Urban", "NL_NAME_2": "NA", "NAME_3": "Ward 6", "VARNAME_3": "NA", "NL_NAME_3": "NA", "TYPE_3": "Ward", "ENGTYPE_3": "Ward", "CC_3": "NA", "HASC_3": "NA", "id": "ZWE.5.5.9_2", "name": "Ward 6"}, "geometry": {"type": "MultiPolygon", "coordinates": [[[[31.55296948900019, -18.170838540999966], [31.55310222700018, -18.17062328099985], [31.553881002000026, -18.16898303699992], [31.55504537500019, -18.16697988699991], [31.556019173000095, -18.164883844999963], [31.556510195000044, -18.163332873999877], [31.556604883999967, -18.163326066999957], [31.564086782000174, -18.164345522999895], [31.56217080900018, -18.169737664999843], [31.560578107000026, -18.16941569699992], [31.560296202000075, -18.169839478999904], [31.558879044000037, -18.169933015999845], [31.55883174600001, -18.16815725999993], [31.557563616000095, -18.168268893999823], [31.557669730000157, -18.170778041999938], [31.557559875000038, -18.170777217999955], [31.557220832000155, -18.171301337999978], [31.55296948900019, -18.170838540999966]]]]}}, {"type": "Feature", "properties": {"GID_3": "ZWE.5.5.10_2", "GID_0": "ZWE", "COUNTRY": "Zimbabwe", "GID_1": "ZWE.5_1", "NAME_1": "Mashonaland East", "NL_NAME_1": "NA", "GID_2": "ZWE.5.5_2", "NAME_2": "Marondera Urban", "NL_NAME_2": "NA", "NAME_3": "Ward 7", "VARNAME_3": "NA", "NL_NAME_3": "NA", "TYPE_3": "Ward", "ENGTYPE_3": "Ward", "CC_3": "NA", "HASC_3": "NA", "id": "ZWE.5.5.10_2", "name": "Ward 7"}, "geometry": {"type": "MultiPolygon", "coordinates": [[[[31.559470829000077, -18.17733558099991], [31.55946290500009, -18.177357877999896], [31.558297014000175, -18.176923237999915], [31.558225151000045, -18.17889245399988], [31.55777529200003, -18.179421442999967], [31.55712975000006, -18.180620319999946], [31.554248142, -18.18042772499996], [31.55398871100016, -18.179134836999935], [31.553809451000063, -18.177670281999895], [31.55343737400011, -18.176387175999878], [31.55334850100013, -18.175563453999928], [31.550865237000153, -18.175087485999825], [31.551546138000106, -18.173720866999815], [31.55203572100004, -18.172352802999967], [31.55296948900019, -18.170838540999966], [31.557220832000155, -18.171301337999978], [31.55727708600017, -18.17130746099997], [31.555868370000155, -18.173319868999954], [31.560113789000127, -18.17552631999996], [31.559470829000077, -18.17733558099991]]]]}}, {"type": "Feature", "properties": {"GID_3": "ZWE.5.5.11_2", "GID_0": "ZWE", "COUNTRY": "Zimbabwe", "GID_1": "ZWE.5_1", "NAME_1": "Mashonaland East", "NL_NAME_1": "NA", "GID_2": "ZWE.5.5_2", "NAME_2": "Marondera Urban", "NL_NAME_2": "NA", "NAME_3": "Ward 8", "VARNAME_3": "NA", "NL_NAME_3": "NA", "TYPE_3": "Ward", "ENGTYPE_3": "Ward", "CC_3": "NA", "HASC_3": "NA", "id": "ZWE.5.5.11_2", "name": "Ward 8"}, "geometry": {"type": "MultiPolygon", "coordinates": [[[[31.538270115000046, -18.21037074999998], [31.538440123999976, -18.209908853999877], [31.538650538000184, -18.207624218999854], [31.538620622, -18.20547492599991], [31.538763178000067, -18.19985186199989], [31.539023685000075, -18.197293255999853], [31.539091327000165, -18.19491607899988], [31.538891091000096, -18.194750385999953], [31.53882301700014, -18.19455821799994], [31.540545751000025, -18.194479876999935], [31.542745290000028, -18.19458803999993], [31.54426986300018, -18.19533120799997], [31.545119474000046, -18.19670939899993], [31.545000282000103, -18.199543439999957], [31.546436062000055, -18.19946287199997], [31.54834715300018, -18.19975168999997], [31.550738863, -18.199769768999943], [31.55073810800002, -18.199861213999952], [31.55360891900017, -18.199791424999944], [31.555902707000087, -18.200083052999844], [31.556220847000077, -18.19959577599991], [31.55533262100016, -18.208359172999906], [31.555544216000158, -18.20895068199991], [31.553330179, -18.210844195999982], [31.553147186000047, -18.210845580999944], [31.550253570999985, -18.210845921999976], [31.548084091000078, -18.21051009199988], [31.548027514000125, -18.210616135999942], [31.541959309000106, -18.21039158399992], [31.540788889999988, -18.210348250999914], [31.538270115000046, -18.21037074999998]]]]}}, {"type": "Feature", "properties": {"GID_3": "ZWE.5.5.12_2", "GID_0": "ZWE", "COUNTRY": "Zimbabwe", "GID_1": "ZWE.5_1", "NAME_1": "Mashonaland East", "NL_NAME_1": "NA", "GID_2": "ZWE.5.5_2", "NAME_2": "Marondera Urban", "NL_NAME_2": "NA", "NAME_3": "Ward 9", "VARNAME_3": "NA", "NL_NAME_3": "NA", "TYPE_3": "Ward", "ENGTYPE_3": "Ward", "CC_3": "NA", "HASC_3": "NA", "id": "ZWE.5.5.12_2", "name": "Ward 9"}, "geometry": {"type": "MultiPolygon", "coordinates": [[[[31.526724666000177, -18.229632592999963], [31.526719560000117, -18.226949799999943], [31.527016482000192, -18.22577853499996], [31.52813489000016, -18.22363807599993], [31.528769493000027, -18.222134038999855], [31.52936277300006, -18.219852363999962], [31.53000924800017, -18.216930948999845], [31.53175059800003, -18.214658060999966], [31.532570353999972, -18.21388701799998], [31.536071297000035, -18.21286210999989], [31.537852727000143, -18.21150474199993], [31.538270115000046, -18.21037074999998], [31.540788889999988, -18.210348250999914], [31.541959309000106, -18.21039158399992], [31.541767476000132, -18.213230445999898], [31.541823172000136, -18.21323086999996], [31.54187886800014, -18.21323129299998], [31.541702029000135, -18.214401142999975], [31.54147436700015, -18.214985008999975], [31.53911645900007, -18.21720297299987], [31.538724356000046, -18.217466164999962], [31.538830421000057, -18.218105805999983], [31.53871058599998, -18.21911637799991], [31.53809613100003, -18.219324636999943], [31.537092233000124, -18.219476686999883], [31.53708511700006, -18.220328408999933], [31.5369666040001, -18.221179279999888], [31.537018299000067, -18.221658798999954], [31.5362942160001, -18.221653270999866], [31.535515771000064, -18.221487616999923], [31.533386853000138, -18.222948284999973], [31.531533158000173, -18.224797346999935], [31.530129941000155, -18.22606425099997], [31.528276178000112, -18.227913275999924], [31.526724666000177, -18.229632592999963]]]]}}]}