{"type": "FeatureCollection", "features": [{"type": "Feature", "properties": {"GID_3": "ZWE.10.10.1_2", "GID_0": "ZWE", "COUNTRY": "Zimbabwe", "GID_1": "ZWE.10_1", "NAME_1": "Midlands", "NL_NAME_1": "NA", "GID_2": "ZWE.10.10_2", "NAME_2": "Redcliff", "NL_NAME_2": "NA", "NAME_3": "Ward 1", "VARNAME_3": "NA", "NL_NAME_3": "NA", "TYPE_3": "Ward", "ENGTYPE_3": "Ward", "CC_3": "NA", "HASC_3": "NA", "id": "ZWE.10.10.1_2", "name": "Ward 1"}, "geometry": {"type": "MultiPolygon", "coordinates": [[[[29.734566533000134, -19.01899280999993], [29.732068775000073, -19.01624790599982], [29.729708541000036, -19.01637268299993], [29.72958868300003, -19.014579552999976], [29.731058169000107, -19.012134911999965], [29.731577910000055, -19.011330672999918], [29.732346320000033, -19.01014163399998], [29.734366530000045, -19.012534662999883], [29.736459083000057, -19.01358052899991], [29.734566533000134, -19.01899280999993]]]]}}, {"type": "Feature", "properties": {"GID_3": "ZWE.10.10.2_2", "GID_0": "ZWE", "COUNTRY": "Zimbabwe", "GID_1": "ZWE.10_1", "NAME_1": "Midlands", "NL_NAME_1": "NA", "GID_2": "ZWE.10.10_2", "NAME_2": "Redcliff", "NL_NAME_2": "NA", "NAME_3": "Ward 2", "VARNAME_3": "NA", "NL_NAME_3": "NA", "TYPE_3": "Ward", "ENGTYPE_3": "Ward", "CC_3": "NA", "HASC_3": "NA", "id": "ZWE.10.10.2_2", "name": "Ward 2"}, "geometry": {"type": "MultiPolygon", "coordinates": [[[[29.72070749600016, -19.004293892999897], [29.723666835000188, -19.003665696999974], [29.73758421400015, -19.012423756999965], [29.736459083000057, -19.01358052899991], [29.734366530000045, -19.012534662999883], [29.732346320000033, -19.01014163399998], [29.731577910000055, -19.011330672999918], [29.72070749600016, -19.004293892999897]]]]}}, {"type": "Feature", "properties": {"GID_3": "ZWE.10.10.3_2", "GID_0": "ZWE", "COUNTRY": "Zimbabwe", "GID_1": "ZWE.10_1", "NAME_1": "Midlands", "NL_NAME_1": "NA", "GID_2": "ZWE.10.10_2", "NAME_2": "Redcliff", "NL_NAME_2": "NA", "NAME_3": "Ward 3", "VARNAME_3": "NA", "NL_NAME_3": "NA", "TYPE_3": "Ward", "ENGTYPE_3": "Ward", "CC_3": "NA", "HASC_3": "NA", "id": "ZWE.10.10.3_2", "name": "Ward 3"}, "geometry": {"type": "MultiPolygon", "coordinates": [[[[29.71847053800019, -19.00476871099994], [29.72070749600016, -19.004293892999897], [29.731577910000055, -19.011330672999918], [29.731058169000107, -19.012134911999965], [29.72958868300003, -19.014579552999976], [29.729708541000036, -19.01637268299993], [29.727355827000054, -19.016497032999894], [29.727515180000182, -19.014699918999895], [29.729263251000134, -19.01198196199988], [29.726591696000128, -19.010136909999915], [29.725019062000058, -19.012044613999933], [29.72348808800001, -19.010721114999853], [29.720845808000092, -19.01067030799993], [29.721949835000032, -19.008949016999964], [29.71847053800019, -19.00476871099994]]]]}}, {"type": "Feature", "properties": {"GID_3": "ZWE.10.10.4_2", "GID_0": "ZWE", "COUNTRY": "Zimbabwe", "GID_1": "ZWE.10_1", "NAME_1": "Midlands", "NL_NAME_1": "NA", "GID_2": "ZWE.10.10_2", "NAME_2": "Redcliff", "NL_NAME_2": "NA", "NAME_3": "Ward 4", "VARNAME_3": "NA", "NL_NAME_3": "NA", "TYPE_3": "Ward", "ENGTYPE_3": "Ward", "CC_3": "NA", "HASC_3": "NA", "id": "ZWE.10.10.4_2", "name": "Ward 4"}, "geometry": {"type": "MultiPolygon", "coordinates": [[[[29.70049364200014, -19.01771193899998], [29.699074363000193, -19.00888453999994], [29.71847053800019, -19.00476871099994], [29.721949835000032, -19.008949016999964], [29.720845808000092, -19.01067030799993], [29.72348808800001, -19.010721114999853], [29.725019062000058, -19.012044613999933], [29.726591696000128, -19.010136909999915], [29.729263251000134, -19.01198196199988], [29.727515180000182, -19.014699918999895], [29.727355827000054, -19.016497032999894], [29.70049364200014, -19.01771193899998]]]]}}, {"type": "Feature", "properties": {"GID_3": "ZWE.10.10.5_2", "GID_0": "ZWE", "COUNTRY": "Zimbabwe", "GID_1": "ZWE.10_1", "NAME_1": "Midlands", "NL_NAME_1": "NA", "GID_2": "ZWE.10.10_2", "NAME_2": "Redcliff", "NL_NAME_2": "NA", "NAME_3": "Ward 5", "VARNAME_3": "NA", "NL_NAME_3": "NA", "TYPE_3": "Ward", "ENGTYPE_3": "Ward", "CC_3": "NA", "HASC_3": "NA", "id": "ZWE.10.10.5_2", "name": "Ward 5"}, "geometry": {"type": "MultiPolygon", "coordinates": [[[[29.727884366000183, -19.002770328999873], [29.741333367000152, -18.999914463999914], [29.74235545600004, -19.004968057999974], [29.74271196400008, -19.009449625999878], [29.738407373000143, -19.011577434999936], [29.73647115900019, -19.008555048999938], [29.727884366000183, -19.002770328999873]]]]}}, {"type": "Feature", "properties": {"GID_3": "ZWE.10.10.6_2", "GID_0": "ZWE", "COUNTRY": "Zimbabwe", "GID_1": "ZWE.10_1", "NAME_1": "Midlands", "NL_NAME_1": "NA", "GID_2": "ZWE.10.10_2", "NAME_2": "Redcliff", "NL_NAME_2": "NA", "NAME_3": "Ward 6", "VARNAME_3": "NA", "NL_NAME_3": "NA", "TYPE_3": "Ward", "ENGTYPE_3": "Ward", "CC_3": "NA", "HASC_3": "NA", "id": "ZWE.10.10.6_2", "name": "Ward 6"}, "geometry": {"type": "MultiPolygon", "coordinates": [[[[29.723666835000188, -19.003665696999974], [29.727884366000183, -19.002770328999873], [29.73647115900019, -19.008555048999938], [29.738407373000143, -19.011577434999936], [29.73758421400015, -19.012423756999965], [29.723666835000188, -19.003665696999974]]]]}}, {"type": "Feature", "properties": {"GID_3": "ZWE.10.10.7_2", "GID_0": "ZWE", "COUNTRY": "Zimbabwe", "GID_1": "ZWE.10_1", "NAME_1": "Midlands", "NL_NAME_1": "NA", "GID_2": "ZWE.10.10_2", "NAME_2": "Redcliff", "NL_NAME_2": "NA", "NAME_3": "Ward 7", "VARNAME_3": "NA", "NL_NAME_3": "NA", "TYPE_3": "Ward", "ENGTYPE_3": "Ward", "CC_3": "NA", "HASC_3": "NA", "id": "ZWE.10.10.7_2", "name": "Ward 7"}, "geometry": {"type": "MultiPolygon", "coordinates": [[[[29.819469648, -19.014223121999976], [29.8419227440001, -19.024975363999943], [29.83033674600017, -19.06096435799998], [29.824521019000088, -19.062062323999953], [29.818140823000135, -19.06115120899989], [29.816028297000116, -19.061687876999883], [29.803755846000172, -19.05733544799989], [29.800667494000038, -19.06293067799993], [29.792628877000084, -19.058008712999936], [29.7920986150001, -19.058016743999872], [29.791568352000183, -19.058024772999943], [29.791038089000097, -19.058032801999957], [29.78886643100003, -19.05503929899993], [29.790820619000044, -19.051663497999925], [29.790798815000187, -19.051426843999877], [29.788976983999987, -19.031649467999955], [29.78690789900014, -19.032039657999917], [29.78196727900007, -19.02996055999995], [29.782329617000073, -19.029057751999915], [29.783624683000085, -19.027512739999906], [29.781319182, -19.02503491699997], [29.780384958000184, -19.025587396999924], [29.77793266800012, -19.025624310999888], [29.77610184100007, -19.023318736999897], [29.77663643600016, -19.02142626299991], [29.77775182900018, -19.020422403999873], [29.779639641000074, -19.02048373299982], [29.782142849000024, -19.01784372999998], [29.784401904000163, -19.017540482999834], [29.787921447000144, -19.019282076999957], [29.819469648, -19.014223121999976]]]]}}, {"type": "Feature", "properties": {"GID_3": "ZWE.10.10.8_2", "GID_0": "ZWE", "COUNTRY": "Zimbabwe", "GID_1": "ZWE.10_1", "NAME_1": "Midlands", "NL_NAME_1": "NA", "GID_2": "ZWE.10.10_2", "NAME_2": "Redcliff", "NL_NAME_2": "NA", "NAME_3": "Ward 8", "VARNAME_3": "NA", "NL_NAME_3": "NA", "TYPE_3": "Ward", "ENGTYPE_3": "Ward", "CC_3": "NA", "HASC_3": "NA", "id": "ZWE.10.10.8_2", "name": "Ward 8"}, "geometry": {"type": "MultiPolygon", "coordinates": [[[[29.69931497200014, -19.060407373999965], [29.69520355600008, -19.035750657999927], [29.703132558000163, -19.034121425999956], [29.70049364200014, -19.01771193899998], [29.727355827000054, -19.016497032999894], [29.729708541000036, -19.01637268299993], [29.732068775000073, -19.01624790599982], [29.734566533000134, -19.01899280999993], [29.744484107000062, -19.02120115999992], [29.749871079000116, -19.018467801999975], [29.754847473000098, -19.017555784999956], [29.760170368000047, -19.019850229999975], [29.767126385000154, -19.02323717099989], [29.770093260000067, -19.023044952999896], [29.772464163, -19.020142922999867], [29.77663643600016, -19.02142626299991], [29.77610184100007, -19.023318736999897], [29.77793266800012, -19.025624310999888], [29.780384958000184, -19.025587396999924], [29.781319182, -19.02503491699997], [29.783624683000085, -19.027512739999906], [29.782329617000073, -19.029057751999915], [29.78196727900007, -19.02996055999995], [29.78690789900014, -19.032039657999917], [29.788976983999987, -19.031649467999955], [29.790798815000187, -19.051426843999877], [29.78345447200013, -19.04856392099998], [29.78051688000005, -19.06323574399994], [29.75048168700016, -19.07528772099988], [29.745890037000038, -19.05417106199991], [29.69931497200014, -19.060407373999965]]]]}}, {"type": "Feature", "properties": {"GID_3": "ZWE.10.10.9_2", "GID_0": "ZWE", "COUNTRY": "Zimbabwe", "GID_1": "ZWE.10_1", "NAME_1": "Midlands", "NL_NAME_1": "NA", "GID_2": "ZWE.10.10_2", "NAME_2": "Redcliff", "NL_NAME_2": "NA", "NAME_3": "Ward 9", "VARNAME_3": "NA", "NL_NAME_3": "NA", "TYPE_3": "Ward", "ENGTYPE_3": "Ward", "CC_3": "NA", "HASC_3": "NA", "id": "ZWE.10.10.9_2", "name": "Ward 9"}, "geometry": {"type": "MultiPolygon", "coordinates": [[[[29.741333367000152, -18.999914463999914], [29.741329754000105, -18.999868316999937], [29.740935539000077, -18.99483288899995], [29.736483686000042, -18.991906189999895], [29.734852573000182, -18.988339144999884], [29.73199780300007, -18.986885010999913], [29.730961638000053, -18.981214267999974], [29.728696968000065, -18.977357224999935], [29.72921866700017, -18.970765675999814], [29.730364367999982, -18.963865659999897], [29.731858557000066, -18.959055364999813], [29.729004341000177, -18.957601113999942], [29.728833980000047, -18.947129288999975], [29.752202994000015, -18.95306815599986], [29.741599737000172, -18.977765030999933], [29.780622124000104, -18.97897826899998], [29.791298356000027, -18.996772712999928], [29.82837652900008, -18.99441369699997], [29.827199598000107, -19.000991014999897], [29.826669532000153, -19.00099912199994], [29.819469648, -19.014223121999976], [29.787921447000144, -19.019282076999957], [29.784401904000163, -19.017540482999834], [29.782142849000024, -19.01784372999998], [29.779639641000074, -19.02048373299982], [29.77775182900018, -19.020422403999873], [29.77663643600016, -19.02142626299991], [29.772464163, -19.020142922999867], [29.770093260000067, -19.023044952999896], [29.767126385000154, -19.02323717099989], [29.760170368000047, -19.019850229999975], [29.754847473000098, -19.017555784999956], [29.749871079000116, -19.018467801999975], [29.744484107000062, -19.02120115999992], [29.734566533000134, -19.01899280999993], [29.736459083000057, -19.01358052899991], [29.73758421400015, -19.012423756999965], [29.738407373000143, -19.011577434999936], [29.74271196400008, -19.009449625999878], [29.74235545600004, -19.004968057999974], [29.741333367000152, -18.999914463999914]]]]}}]}