{"type": "FeatureCollection", "features": [{"type": "Feature", "properties": {"GID_3": "ZWE.10.6.1_2", "GID_0": "ZWE", "COUNTRY": "Zimbabwe", "GID_1": "ZWE.10_1", "NAME_1": "Midlands", "NL_NAME_1": "NA", "GID_2": "ZWE.10.6_2", "NAME_2": "Gweru Urban", "NL_NAME_2": "NA", "NAME_3": "Ward 1", "VARNAME_3": "NA", "NL_NAME_3": "NA", "TYPE_3": "Ward", "ENGTYPE_3": "Ward", "CC_3": "NA", "HASC_3": "NA", "id": "ZWE.10.6.1_2", "name": "Ward 1"}, "geometry": {"type": "MultiPolygon", "coordinates": [[[[29.786122173000138, -19.41655596199996], [29.79333592800009, -19.386636973999885], [29.792975419000186, -19.38670729599994], [29.80919497500014, -19.373951432999945], [29.809245031000046, -19.373857065999914], [29.810156404, -19.372978807999914], [29.81700684599997, -19.384704972999884], [29.81953341700006, -19.385633084999938], [29.831978576000097, -19.39084351799994], [29.826430297000115, -19.39929075399988], [29.827627719000077, -19.400189767999905], [29.830070049000028, -19.398520347999977], [29.832246568000073, -19.40011779799994], [29.835734703000128, -19.396800622999876], [29.841079339000032, -19.401407285999937], [29.84119206600019, -19.40171140399997], [29.84532335900019, -19.398455384999863], [29.845628507000185, -19.398110544999838], [29.853339278000192, -19.404788442999916], [29.864710089000027, -19.401035992999937], [29.867110659000048, -19.405659325999864], [29.864880540000172, -19.409229907999872], [29.866198452000162, -19.41084081799994], [29.864378980000026, -19.413317107999944], [29.87288741300017, -19.419287698999938], [29.869404091999968, -19.425827063999918], [29.85272900500007, -19.415621086999977], [29.84458420100009, -19.446139548999952], [29.825894050999977, -19.430982304999873], [29.822428272000025, -19.435000322999883], [29.819278803000145, -19.446104021999872], [29.813854313000036, -19.443904827999972], [29.80831608799997, -19.440794840999956], [29.806156553999983, -19.4407662079999], [29.80318727100007, -19.43164735399995], [29.800767533000055, -19.42979155699993], [29.80023206300018, -19.429086001999906], [29.800709287000075, -19.428302740999925], [29.800528341000188, -19.428088283999955], [29.80051769900018, -19.427467733999947], [29.799444930000163, -19.4278567209999], [29.799272380000104, -19.427331775999903], [29.798621538000077, -19.427528031999884], [29.798632173000158, -19.42814858399987], [29.79676870300017, -19.42820835899994], [29.79679396500012, -19.42777346799994], [29.794515775000093, -19.426536106999947], [29.79365438900004, -19.425897619999887], [29.793496720000064, -19.426241442999924], [29.79333851900003, -19.426554237999937], [29.793839658000024, -19.42716723899997], [29.792662927000094, -19.427216392999924], [29.792503571000054, -19.425548684999967], [29.791885775000083, -19.423851216999935], [29.791672600000084, -19.422861347999856], [29.791510686000038, -19.422956946999932], [29.79149283200013, -19.42382622799994], [29.790762276000123, -19.423185710999974], [29.789646733000097, -19.422985613999913], [29.789446818000158, -19.422771435999948], [29.789182947000086, -19.420727116999842], [29.788755056000127, -19.41865428099993], [29.787966547000167, -19.418449143999908], [29.787703357000055, -19.41836007899991], [29.787597317000177, -19.41789616699998], [29.787205446000144, -19.41793322199993], [29.787201212000184, -19.417684998999846], [29.787683771000047, -19.417212045999975], [29.787416879000148, -19.416905784999926], [29.786122173000138, -19.41655596199996]]]]}}, {"type": "Feature", "properties": {"GID_3": "ZWE.10.6.2_2", "GID_0": "ZWE", "COUNTRY": "Zimbabwe", "GID_1": "ZWE.10_1", "NAME_1": "Midlands", "NL_NAME_1": "NA", "GID_2": "ZWE.10.6_2", "NAME_2": "Gweru Urban", "NL_NAME_2": "NA", "NAME_3": "Ward 10", "VARNAME_3": "NA", "NL_NAME_3": "NA", "TYPE_3": "Ward", "ENGTYPE_3": "Ward", "CC_3": "NA", "HASC_3": "NA", "id": "ZWE.10.6.2_2", "name": "Ward 10"}, "geometry": {"type": "MultiPolygon", "coordinates": [[[[29.777305507, -19.466594974999964], [29.779974913000103, -19.477037975999906], [29.764465671000096, -19.475971962999893], [29.75898679900007, -19.47636591099996], [29.75631749500019, -19.472961518999966], [29.76245712499997, -19.469297578999942], [29.770067157000085, -19.468498528999874], [29.77393614800002, -19.466764531999956], [29.777305507, -19.466594974999964]]]]}}, {"type": "Feature", "properties": {"GID_3": "ZWE.10.6.3_2", "GID_0": "ZWE", "COUNTRY": "Zimbabwe", "GID_1": "ZWE.10_1", "NAME_1": "Midlands", "NL_NAME_1": "NA", "GID_2": "ZWE.10.6_2", "NAME_2": "Gweru Urban", "NL_NAME_2": "NA", "NAME_3": "Ward 11", "VARNAME_3": "NA", "NL_NAME_3": "NA", "TYPE_3": "Ward", "ENGTYPE_3": "Ward", "CC_3": "NA", "HASC_3": "NA", "id": "ZWE.10.6.3_2", "name": "Ward 11"}, "geometry": {"type": "MultiPolygon", "coordinates": [[[[29.76245712499997, -19.469297578999942], [29.75631749500019, -19.472961518999966], [29.75339230000003, -19.474123344999953], [29.74590115700005, -19.475585314999876], [29.745625788000098, -19.47507335299997], [29.750720247000174, -19.47214990699996], [29.746322611000096, -19.46611772599988], [29.7477555640001, -19.465672704999918], [29.75184147500005, -19.463500176999958], [29.75297814300012, -19.465314064999916], [29.759896667000078, -19.46582712399993], [29.76052357100008, -19.468054570999925], [29.76245712499997, -19.469297578999942]]]]}}, {"type": "Feature", "properties": {"GID_3": "ZWE.10.6.4_2", "GID_0": "ZWE", "COUNTRY": "Zimbabwe", "GID_1": "ZWE.10_1", "NAME_1": "Midlands", "NL_NAME_1": "NA", "GID_2": "ZWE.10.6_2", "NAME_2": "Gweru Urban", "NL_NAME_2": "NA", "NAME_3": "Ward 12", "VARNAME_3": "NA", "NL_NAME_3": "NA", "TYPE_3": "Ward", "ENGTYPE_3": "Ward", "CC_3": "NA", "HASC_3": "NA", "id": "ZWE.10.6.4_2", "name": "Ward 12"}, "geometry": {"type": "MultiPolygon", "coordinates": [[[[29.759896667000078, -19.46582712399993], [29.75297814300012, -19.465314064999916], [29.75184147500005, -19.463500176999958], [29.761591651000117, -19.45817893499992], [29.76642962600016, -19.455538262999937], [29.768139069000085, -19.4550032919999], [29.77089895600011, -19.460284954999906], [29.76963348000004, -19.46155303599994], [29.763861201000168, -19.464589658999955], [29.75992324900011, -19.46582909499989], [29.759896667000078, -19.46582712399993]]]]}}, {"type": "Feature", "properties": {"GID_3": "ZWE.10.6.5_2", "GID_0": "ZWE", "COUNTRY": "Zimbabwe", "GID_1": "ZWE.10_1", "NAME_1": "Midlands", "NL_NAME_1": "NA", "GID_2": "ZWE.10.6_2", "NAME_2": "Gweru Urban", "NL_NAME_2": "NA", "NAME_3": "Ward 13", "VARNAME_3": "NA", "NL_NAME_3": "NA", "TYPE_3": "Ward", "ENGTYPE_3": "Ward", "CC_3": "NA", "HASC_3": "NA", "id": "ZWE.10.6.5_2", "name": "Ward 13"}, "geometry": {"type": "MultiPolygon", "coordinates": [[[[29.761591651000117, -19.45817893499992], [29.75184147500005, -19.463500176999958], [29.750101082000185, -19.460622539999974], [29.74889084600005, -19.456761318999952], [29.74895715200006, -19.45477094299997], [29.748977740000157, -19.454152914999895], [29.750992262000068, -19.45415031799996], [29.756622625000034, -19.453366427999924], [29.758267593000085, -19.45268318999996], [29.761591651000117, -19.45817893499992]]]]}}, {"type": "Feature", "properties": {"GID_3": "ZWE.10.6.6_2", "GID_0": "ZWE", "COUNTRY": "Zimbabwe", "GID_1": "ZWE.10_1", "NAME_1": "Midlands", "NL_NAME_1": "NA", "GID_2": "ZWE.10.6_2", "NAME_2": "Gweru Urban", "NL_NAME_2": "NA", "NAME_3": "Ward 14", "VARNAME_3": "NA", "NL_NAME_3": "NA", "TYPE_3": "Ward", "ENGTYPE_3": "Ward", "CC_3": "NA", "HASC_3": "NA", "id": "ZWE.10.6.6_2", "name": "Ward 14"}, "geometry": {"type": "MultiPolygon", "coordinates": [[[[29.75184147500005, -19.463500176999958], [29.7477555640001, -19.465672704999918], [29.746322611000096, -19.46611772599988], [29.745790653000142, -19.46538800399992], [29.740640319000192, -19.457865685999934], [29.745981631000177, -19.454974262999883], [29.74895715200006, -19.45477094299997], [29.74889084600005, -19.456761318999952], [29.750101082000185, -19.460622539999974], [29.75184147500005, -19.463500176999958]]]]}}, {"type": "Feature", "properties": {"GID_3": "ZWE.10.6.7_2", "GID_0": "ZWE", "COUNTRY": "Zimbabwe", "GID_1": "ZWE.10_1", "NAME_1": "Midlands", "NL_NAME_1": "NA", "GID_2": "ZWE.10.6_2", "NAME_2": "Gweru Urban", "NL_NAME_2": "NA", "NAME_3": "Ward 15", "VARNAME_3": "NA", "NL_NAME_3": "NA", "TYPE_3": "Ward", "ENGTYPE_3": "Ward", "CC_3": "NA", "HASC_3": "NA", "id": "ZWE.10.6.7_2", "name": "Ward 15"}, "geometry": {"type": "MultiPolygon", "coordinates": [[[[29.768139069000085, -19.4550032919999], [29.76642962600016, -19.455538262999937], [29.761591651000117, -19.45817893499992], [29.758267593000085, -19.45268318999996], [29.756622625000034, -19.453366427999924], [29.750992262000068, -19.45415031799996], [29.748977740000157, -19.454152914999895], [29.749276953000162, -19.446103378999908], [29.74933789400012, -19.44446398899987], [29.7494217200001, -19.443614271999934], [29.750799840000127, -19.441917382999975], [29.754610413000023, -19.438973116999875], [29.755019867000158, -19.43803579699994], [29.755342726000094, -19.437782597999956], [29.759394143000065, -19.437591951999934], [29.76541649300009, -19.440919140999938], [29.776358717, -19.43341046499995], [29.77918170400011, -19.435100620999947], [29.780630669000175, -19.43551931299993], [29.783173189000024, -19.43690796999988], [29.785278141000106, -19.4414069099999], [29.78891543500015, -19.443678689999956], [29.79104552600012, -19.44603762299988], [29.786251236000055, -19.444980386999816], [29.78265214700008, -19.446866798999906], [29.784095042, -19.448986127999945], [29.778327738000144, -19.4522713529999], [29.768139069000085, -19.4550032919999]]]]}}, {"type": "Feature", "properties": {"GID_3": "ZWE.10.6.8_2", "GID_0": "ZWE", "COUNTRY": "Zimbabwe", "GID_1": "ZWE.10_1", "NAME_1": "Midlands", "NL_NAME_1": "NA", "GID_2": "ZWE.10.6_2", "NAME_2": "Gweru Urban", "NL_NAME_2": "NA", "NAME_3": "Ward 16", "VARNAME_3": "NA", "NL_NAME_3": "NA", "TYPE_3": "Ward", "ENGTYPE_3": "Ward", "CC_3": "NA", "HASC_3": "NA", "id": "ZWE.10.6.8_2", "name": "Ward 16"}, "geometry": {"type": "MultiPolygon", "coordinates": [[[[29.759394143000065, -19.437591951999934], [29.755342726000094, -19.437782597999956], [29.755019867000158, -19.43803579699994], [29.754610413000023, -19.438973116999875], [29.750799840000127, -19.441917382999975], [29.7494217200001, -19.443614271999934], [29.74933789400012, -19.44446398899987], [29.749276953000162, -19.446103378999908], [29.742625840000073, -19.446082033999915], [29.73843706200006, -19.442110556999864], [29.738272523000035, -19.442166506999968], [29.7460613880001, -19.433973702999936], [29.75086130700015, -19.425437758999976], [29.7570719630001, -19.430543393999983], [29.75419342400005, -19.4347184049999], [29.759394143000065, -19.437591951999934]]]]}}, {"type": "Feature", "properties": {"GID_3": "ZWE.10.6.9_2", "GID_0": "ZWE", "COUNTRY": "Zimbabwe", "GID_1": "ZWE.10_1", "NAME_1": "Midlands", "NL_NAME_1": "NA", "GID_2": "ZWE.10.6_2", "NAME_2": "Gweru Urban", "NL_NAME_2": "NA", "NAME_3": "Ward 17", "VARNAME_3": "NA", "NL_NAME_3": "NA", "TYPE_3": "Ward", "ENGTYPE_3": "Ward", "CC_3": "NA", "HASC_3": "NA", "id": "ZWE.10.6.9_2", "name": "Ward 17"}, "geometry": {"type": "MultiPolygon", "coordinates": [[[[29.748977740000157, -19.454152914999895], [29.74895715200006, -19.45477094299997], [29.745981631000177, -19.454974262999883], [29.740640319000192, -19.457865685999934], [29.73406180100011, -19.44903417399985], [29.733176667000066, -19.447526066999956], [29.738272523000035, -19.442166506999968], [29.73843706200006, -19.442110556999864], [29.742625840000073, -19.446082033999915], [29.749276953000162, -19.446103378999908], [29.748977740000157, -19.454152914999895]]]]}}, {"type": "Feature", "properties": {"GID_3": "ZWE.10.6.10_2", "GID_0": "ZWE", "COUNTRY": "Zimbabwe", "GID_1": "ZWE.10_1", "NAME_1": "Midlands", "NL_NAME_1": "NA", "GID_2": "ZWE.10.6_2", "NAME_2": "Gweru Urban", "NL_NAME_2": "NA", "NAME_3": "Ward 18", "VARNAME_3": "NA", "NL_NAME_3": "NA", "TYPE_3": "Ward", "ENGTYPE_3": "Ward", "CC_3": "NA", "HASC_3": "NA", "id": "ZWE.10.6.10_2", "name": "Ward 18"}, "geometry": {"type": "MultiPolygon", "coordinates": [[[[29.806156553999983, -19.4407662079999], [29.80831608799997, -19.440794840999956], [29.813854313000036, -19.443904827999972], [29.819278803000145, -19.446104021999872], [29.818489959000033, -19.448884966999913], [29.81880617799999, -19.44877842699998], [29.825805397000124, -19.45080391499988], [29.83238159800004, -19.453140648999977], [29.8342431480001, -19.455449293999948], [29.838895915000023, -19.46421922099995], [29.83940478300019, -19.464570869999875], [29.838545802999988, -19.468385947999877], [29.83706476800012, -19.46600482399998], [29.83163446700013, -19.464165641999955], [29.82398304300017, -19.458109107999917], [29.82328014500007, -19.459082153999873], [29.821751134000124, -19.465250947999948], [29.81577863200016, -19.464568020999934], [29.81238014800016, -19.46480703799989], [29.810651377000056, -19.46654082299989], [29.808579168000108, -19.46761087999988], [29.8037114, -19.470124381999938], [29.802315008000107, -19.470735673999968], [29.793356360000132, -19.46538076899992], [29.789141310000105, -19.467618241999958], [29.787664254000106, -19.46891345699993], [29.78454388800003, -19.466292372999874], [29.777305507, -19.466594974999964], [29.77530240800013, -19.46251404999998], [29.77260442400018, -19.463548526999944], [29.77089895600011, -19.460284954999906], [29.768139069000085, -19.4550032919999], [29.778327738000144, -19.4522713529999], [29.784095042, -19.448986127999945], [29.78265214700008, -19.446866798999906], [29.786251236000055, -19.444980386999816], [29.79104552600012, -19.44603762299988], [29.79124803700006, -19.44844495999996], [29.792420900000025, -19.450071792999893], [29.80087954700008, -19.449227442999927], [29.801282016000073, -19.445993512999962], [29.802119489, -19.445701247999864], [29.80702272600007, -19.443577035999965], [29.806156553999983, -19.4407662079999]]]]}}, {"type": "Feature", "properties": {"GID_3": "ZWE.10.6.11_2", "GID_0": "ZWE", "COUNTRY": "Zimbabwe", "GID_1": "ZWE.10_1", "NAME_1": "Midlands", "NL_NAME_1": "NA", "GID_2": "ZWE.10.6_2", "NAME_2": "Gweru Urban", "NL_NAME_2": "NA", "NAME_3": "Ward 2", "VARNAME_3": "NA", "NL_NAME_3": "NA", "TYPE_3": "Ward", "ENGTYPE_3": "Ward", "CC_3": "NA", "HASC_3": "NA", "id": "ZWE.10.6.11_2", "name": "Ward 2"}, "geometry": {"type": "MultiPolygon", "coordinates": [[[[29.819278803000145, -19.446104021999872], [29.822428272000025, -19.435000322999883], [29.825894050999977, -19.430982304999873], [29.84458420100009, -19.446139548999952], [29.85272900500007, -19.415621086999977], [29.869404091999968, -19.425827063999918], [29.87288741300017, -19.419287698999938], [29.873664737000183, -19.419833121999943], [29.882111938000037, -19.41126873299993], [29.88789021000008, -19.41389637799989], [29.902685352000162, -19.419335813999908], [29.906273248, -19.416232575999913], [29.918580903000077, -19.423103088999937], [29.91870290000014, -19.423105088999932], [29.900230431000182, -19.43151373799998], [29.92016987600016, -19.44753293899987], [29.911035140000024, -19.453604404999965], [29.89961942600013, -19.44452357399996], [29.89283929900006, -19.44457996699998], [29.88546027900003, -19.446634762999906], [29.884546688, -19.443590594999932], [29.881225090000157, -19.444153206999943], [29.876324619000172, -19.452693509999847], [29.87808498000004, -19.47326093299995], [29.86747862100009, -19.469147001999886], [29.866105144000073, -19.476611684999966], [29.870012022000026, -19.47906923499994], [29.869912586000112, -19.47926807799996], [29.865922278000028, -19.47781976899995], [29.865811576000112, -19.477618242999938], [29.845733189000157, -19.469193944999972], [29.845511845000146, -19.468790861999935], [29.83940478300019, -19.464570869999875], [29.838895915000023, -19.46421922099995], [29.8342431480001, -19.455449293999948], [29.83238159800004, -19.453140648999977], [29.825805397000124, -19.45080391499988], [29.81880617799999, -19.44877842699998], [29.818489959000033, -19.448884966999913], [29.819278803000145, -19.446104021999872]]]]}}, {"type": "Feature", "properties": {"GID_3": "ZWE.10.6.12_2", "GID_0": "ZWE", "COUNTRY": "Zimbabwe", "GID_1": "ZWE.10_1", "NAME_1": "Midlands", "NL_NAME_1": "NA", "GID_2": "ZWE.10.6_2", "NAME_2": "Gweru Urban", "NL_NAME_2": "NA", "NAME_3": "Ward 3", "VARNAME_3": "NA", "NL_NAME_3": "NA", "TYPE_3": "Ward", "ENGTYPE_3": "Ward", "CC_3": "NA", "HASC_3": "NA", "id": "ZWE.10.6.12_2", "name": "Ward 3"}, "geometry": {"type": "MultiPolygon", "coordinates": [[[[29.838545802999988, -19.468385947999877], [29.83940478300019, -19.464570869999875], [29.845511845000146, -19.468790861999935], [29.845733189000157, -19.469193944999972], [29.865811576000112, -19.477618242999938], [29.865922278000028, -19.47781976899995], [29.869912586000112, -19.47926807799996], [29.870012022000026, -19.47906923499994], [29.8713226160001, -19.4798936009999], [29.867145547000064, -19.48657947199996], [29.87273050100015, -19.492668298999888], [29.86913396800003, -19.495988024999917], [29.868464025000094, -19.497703688999934], [29.859705810000094, -19.495082186999923], [29.862896355000032, -19.49043864399988], [29.86117130700012, -19.48910042499989], [29.860909609000146, -19.489104563999888], [29.857531053, -19.4943301699999], [29.850009587000102, -19.494363569999905], [29.846996418000117, -19.49046962799997], [29.841124824000133, -19.48683934899998], [29.832792421000192, -19.483742362999976], [29.837746716000083, -19.471346782999944], [29.837348793000103, -19.469067158999962], [29.837346927000112, -19.469056468999952], [29.838545802999988, -19.468385947999877]]]]}}, {"type": "Feature", "properties": {"GID_3": "ZWE.10.6.13_2", "GID_0": "ZWE", "COUNTRY": "Zimbabwe", "GID_1": "ZWE.10_1", "NAME_1": "Midlands", "NL_NAME_1": "NA", "GID_2": "ZWE.10.6_2", "NAME_2": "Gweru Urban", "NL_NAME_2": "NA", "NAME_3": "Ward 4", "VARNAME_3": "NA", "NL_NAME_3": "NA", "TYPE_3": "Ward", "ENGTYPE_3": "Ward", "CC_3": "NA", "HASC_3": "NA", "id": "ZWE.10.6.13_2", "name": "Ward 4"}, "geometry": {"type": "MultiPolygon", "coordinates": [[[[29.75631749500019, -19.472961518999966], [29.75898679900007, -19.47636591099996], [29.764465671000096, -19.475971962999893], [29.779974913000103, -19.477037975999906], [29.777305507, -19.466594974999964], [29.78454388800003, -19.466292372999874], [29.787664254000106, -19.46891345699993], [29.789141310000105, -19.467618241999958], [29.793356360000132, -19.46538076899992], [29.802315008000107, -19.470735673999968], [29.8037114, -19.470124381999938], [29.808579168000108, -19.46761087999988], [29.810651377000056, -19.46654082299989], [29.81238014800016, -19.46480703799989], [29.81577863200016, -19.464568020999934], [29.821751134000124, -19.465250947999948], [29.82328014500007, -19.459082153999873], [29.82398304300017, -19.458109107999917], [29.83163446700013, -19.464165641999955], [29.83706476800012, -19.46600482399998], [29.838545802999988, -19.468385947999877], [29.837346927000112, -19.469056468999952], [29.837348793000103, -19.469067158999962], [29.837746716000083, -19.471346782999944], [29.832792421000192, -19.483742362999976], [29.827834715000165, -19.49595459199992], [29.826812153000105, -19.49846149799987], [29.824154162000184, -19.495616724999934], [29.815027973000156, -19.507041287999925], [29.786522059, -19.507279626999946], [29.78447880500005, -19.49935168999997], [29.76187397400014, -19.539971533999903], [29.750574769000025, -19.482116895999923], [29.74590115700005, -19.475585314999876], [29.75339230000003, -19.474123344999953], [29.75631749500019, -19.472961518999966]]]]}}, {"type": "Feature", "properties": {"GID_3": "ZWE.10.6.14_2", "GID_0": "ZWE", "COUNTRY": "Zimbabwe", "GID_1": "ZWE.10_1", "NAME_1": "Midlands", "NL_NAME_1": "NA", "GID_2": "ZWE.10.6_2", "NAME_2": "Gweru Urban", "NL_NAME_2": "NA", "NAME_3": "Ward 5", "VARNAME_3": "NA", "NL_NAME_3": "NA", "TYPE_3": "Ward", "ENGTYPE_3": "Ward", "CC_3": "NA", "HASC_3": "NA", "id": "ZWE.10.6.14_2", "name": "Ward 5"}, "geometry": {"type": "MultiPolygon", "coordinates": [[[[29.832792421000192, -19.483742362999976], [29.841124824000133, -19.48683934899998], [29.846996418000117, -19.49046962799997], [29.850009587000102, -19.494363569999905], [29.857531053, -19.4943301699999], [29.860909609000146, -19.489104563999888], [29.86117130700012, -19.48910042499989], [29.862896355000032, -19.49043864399988], [29.859705810000094, -19.495082186999923], [29.868464025000094, -19.497703688999934], [29.865327998000055, -19.505734358999973], [29.86334637200008, -19.50597753699992], [29.851772828000094, -19.506058831999894], [29.849190956000143, -19.49939130399997], [29.846801812000024, -19.49759940699994], [29.841167048999978, -19.50632745899992], [29.83398281900014, -19.506135297999947], [29.826812153000105, -19.49846149799987], [29.827834715000165, -19.49595459199992], [29.832792421000192, -19.483742362999976]]]]}}, {"type": "Feature", "properties": {"GID_3": "ZWE.10.6.15_2", "GID_0": "ZWE", "COUNTRY": "Zimbabwe", "GID_1": "ZWE.10_1", "NAME_1": "Midlands", "NL_NAME_1": "NA", "GID_2": "ZWE.10.6_2", "NAME_2": "Gweru Urban", "NL_NAME_2": "NA", "NAME_3": "Ward 6", "VARNAME_3": "NA", "NL_NAME_3": "NA", "TYPE_3": "Ward", "ENGTYPE_3": "Ward", "CC_3": "NA", "HASC_3": "NA", "id": "ZWE.10.6.15_2", "name": "Ward 6"}, "geometry": {"type": "MultiPolygon", "coordinates": [[[[29.786122173000138, -19.41655596199996], [29.787416879000148, -19.416905784999926], [29.787683771000047, -19.417212045999975], [29.787201212000184, -19.417684998999846], [29.787205446000144, -19.41793322199993], [29.787597317000177, -19.41789616699998], [29.787703357000055, -19.41836007899991], [29.787966547000167, -19.418449143999908], [29.788755056000127, -19.41865428099993], [29.789182947000086, -19.420727116999842], [29.789446818000158, -19.422771435999948], [29.789646733000097, -19.422985613999913], [29.790762276000123, -19.423185710999974], [29.79149283200013, -19.42382622799994], [29.791510686000038, -19.422956946999932], [29.791672600000084, -19.422861347999856], [29.791885775000083, -19.423851216999935], [29.792503571000054, -19.425548684999967], [29.792662927000094, -19.427216392999924], [29.793839658000024, -19.42716723899997], [29.79333851900003, -19.426554237999937], [29.793496720000064, -19.426241442999924], [29.79365438900004, -19.425897619999887], [29.794515775000093, -19.426536106999947], [29.79679396500012, -19.42777346799994], [29.79676870300017, -19.42820835899994], [29.798632173000158, -19.42814858399987], [29.798621538000077, -19.427528031999884], [29.799272380000104, -19.427331775999903], [29.799444930000163, -19.4278567209999], [29.80051769900018, -19.427467733999947], [29.800528341000188, -19.428088283999955], [29.800709287000075, -19.428302740999925], [29.80023206300018, -19.429086001999906], [29.800767533000055, -19.42979155699993], [29.80318727100007, -19.43164735399995], [29.806156553999983, -19.4407662079999], [29.80702272600007, -19.443577035999965], [29.802119489, -19.445701247999864], [29.797754993000012, -19.43841065499987], [29.79510825800014, -19.433989044999976], [29.791183574000172, -19.42829058199993], [29.790059880000058, -19.425700847999963], [29.7876972950001, -19.423347393999904], [29.785962336000125, -19.419432461999918], [29.784671445000185, -19.41686675999989], [29.78597948500004, -19.41714767799988], [29.786122173000138, -19.41655596199996]]]]}}, {"type": "Feature", "properties": {"GID_3": "ZWE.10.6.16_2", "GID_0": "ZWE", "COUNTRY": "Zimbabwe", "GID_1": "ZWE.10_1", "NAME_1": "Midlands", "NL_NAME_1": "NA", "GID_2": "ZWE.10.6_2", "NAME_2": "Gweru Urban", "NL_NAME_2": "NA", "NAME_3": "Ward 7", "VARNAME_3": "NA", "NL_NAME_3": "NA", "TYPE_3": "Ward", "ENGTYPE_3": "Ward", "CC_3": "NA", "HASC_3": "NA", "id": "ZWE.10.6.16_2", "name": "Ward 7"}, "geometry": {"type": "MultiPolygon", "coordinates": [[[[29.79104552600012, -19.44603762299988], [29.78891543500015, -19.443678689999956], [29.79119205300003, -19.44289878899997], [29.795793613000114, -19.44034501899995], [29.797754993000012, -19.43841065499987], [29.802119489, -19.445701247999864], [29.801282016000073, -19.445993512999962], [29.80087954700008, -19.449227442999927], [29.792420900000025, -19.450071792999893], [29.79124803700006, -19.44844495999996], [29.79104552600012, -19.44603762299988]]]]}}, {"type": "Feature", "properties": {"GID_3": "ZWE.10.6.17_2", "GID_0": "ZWE", "COUNTRY": "Zimbabwe", "GID_1": "ZWE.10_1", "NAME_1": "Midlands", "NL_NAME_1": "NA", "GID_2": "ZWE.10.6_2", "NAME_2": "Gweru Urban", "NL_NAME_2": "NA", "NAME_3": "Ward 8", "VARNAME_3": "NA", "NL_NAME_3": "NA", "TYPE_3": "Ward", "ENGTYPE_3": "Ward", "CC_3": "NA", "HASC_3": "NA", "id": "ZWE.10.6.17_2", "name": "Ward 8"}, "geometry": {"type": "MultiPolygon", "coordinates": [[[[29.78891543500015, -19.443678689999956], [29.785278141000106, -19.4414069099999], [29.783173189000024, -19.43690796999988], [29.780630669000175, -19.43551931299993], [29.77918170400011, -19.435100620999947], [29.782025329000078, -19.431692202999898], [29.774066140000116, -19.424982470999964], [29.780683671000133, -19.416010266999933], [29.784671445000185, -19.41686675999989], [29.785962336000125, -19.419432461999918], [29.7876972950001, -19.423347393999904], [29.790059880000058, -19.425700847999963], [29.791183574000172, -19.42829058199993], [29.79510825800014, -19.433989044999976], [29.797754993000012, -19.43841065499987], [29.795793613000114, -19.44034501899995], [29.79119205300003, -19.44289878899997], [29.78891543500015, -19.443678689999956]]]]}}, {"type": "Feature", "properties": {"GID_3": "ZWE.10.6.18_2", "GID_0": "ZWE", "COUNTRY": "Zimbabwe", "GID_1": "ZWE.10_1", "NAME_1": "Midlands", "NL_NAME_1": "NA", "GID_2": "ZWE.10.6_2", "NAME_2": "Gweru Urban", "NL_NAME_2": "NA", "NAME_3": "Ward 9", "VARNAME_3": "NA", "NL_NAME_3": "NA", "TYPE_3": "Ward", "ENGTYPE_3": "Ward", "CC_3": "NA", "HASC_3": "NA", "id": "ZWE.10.6.18_2", "name": "Ward 9"}, "geometry": {"type": "MultiPolygon", "coordinates": [[[[29.777305507, -19.466594974999964], [29.77393614800002, -19.466764531999956], [29.770067157000085, -19.468498528999874], [29.76245712499997, -19.469297578999942], [29.76052357100008, -19.468054570999925], [29.759896667000078, -19.46582712399993], [29.75992324900011, -19.46582909499989], [29.763861201000168, -19.464589658999955], [29.76963348000004, -19.46155303599994], [29.77089895600011, -19.460284954999906], [29.77260442400018, -19.463548526999944], [29.77530240800013, -19.46251404999998], [29.777305507, -19.466594974999964]]]]}}]}