{"type": "FeatureCollection", "features": [{"type": "Feature", "properties": {"GID_3": "ZWE.6.8.1_2", "GID_0": "ZWE", "COUNTRY": "Zimbabwe", "GID_1": "ZWE.6_1", "NAME_1": "Mashonaland West", "NL_NAME_1": "NA", "GID_2": "ZWE.6.8_2", "NAME_2": "Karoi", "NL_NAME_2": "NA", "NAME_3": "Ward 1", "VARNAME_3": "NA", "NL_NAME_3": "NA", "TYPE_3": "Ward", "ENGTYPE_3": "Ward", "CC_3": "NA", "HASC_3": "NA", "id": "ZWE.6.8.1_2", "name": "Ward 1"}, "geometry": {"type": "MultiPolygon", "coordinates": [[[[29.693335463000153, -16.79620727799994], [29.69369345300015, -16.79597825899998], [29.69405044299998, -16.79586224999997], [29.69440843300015, -16.795633231999943], [29.694885419000173, -16.795517221999944], [29.69524240900006, -16.795286203999922], [29.69548240299997, -16.795286202999932], [29.695721396000124, -16.795286202999932], [29.696077386000127, -16.795400211999947], [29.69655637300002, -16.795400211999947], [29.69691336300008, -16.795400211999947], [29.697153356000115, -16.79551522099996], [29.697391349000043, -16.795629228999815], [29.697510346000172, -16.795746238999982], [29.69763034300007, -16.79586024799994], [29.69763034300007, -16.795975256999952], [29.697750339000038, -16.795975256999952], [29.69775034000014, -16.796089265999967], [29.69775034000014, -16.796205274999977], [29.697870336000108, -16.79643429299989], [29.697988333000012, -16.796665310999913], [29.698109330000193, -16.79689432899994], [29.698347324000167, -16.797123346999967], [29.698467320000134, -16.797239356999967], [29.698467320000134, -16.797468374999937], [29.698467320000134, -16.797582383999952], [29.698467321000066, -16.79769939299996], [29.69846932100006, -16.797813401999974], [29.69846932100006, -16.798044419999883], [29.69846932100006, -16.798159429999885], [29.698828311000057, -16.798618465999937], [29.700737258, -16.79919050999996], [29.702408211000147, -16.799650545999896], [29.703005195000173, -16.799879562999934], [29.703484182000125, -16.799879562999934], [29.703602178000097, -16.799763553999924], [29.70372017500017, -16.799534535999896], [29.703761048000104, -16.79949485999998], [29.705184117000158, -16.8013358259999], [29.70697184700009, -16.80149657899989], [29.707049543000153, -16.802478391999955], [29.706552213, -16.803300502999946], [29.702809427000147, -16.80343888099992], [29.70119709200003, -16.803847757999904], [29.70077959100007, -16.803953630999956], [29.700261977000025, -16.8040848899999], [29.699616058000174, -16.80424868299997], [29.696987279000155, -16.80597616599988], [29.69653374, -16.80491650199997], [29.697543412000073, -16.80416612399995], [29.69840037400013, -16.801636345999896], [29.69793238200009, -16.80010679599991], [29.69583716800014, -16.80074855299989], [29.69574912000013, -16.799029730999962], [29.695427747999986, -16.798849660999906], [29.6948600340001, -16.799287095999944], [29.6942749750001, -16.798496200999978], [29.693605364, -16.79623214299994], [29.693335463000153, -16.79620727799994]]]]}}, {"type": "Feature", "properties": {"GID_3": "ZWE.6.8.2_2", "GID_0": "ZWE", "COUNTRY": "Zimbabwe", "GID_1": "ZWE.6_1", "NAME_1": "Mashonaland West", "NL_NAME_1": "NA", "GID_2": "ZWE.6.8_2", "NAME_2": "Karoi", "NL_NAME_2": "NA", "NAME_3": "Ward 10", "VARNAME_3": "NA", "NL_NAME_3": "NA", "TYPE_3": "Ward", "ENGTYPE_3": "Ward", "CC_3": "NA", "HASC_3": "NA", "id": "ZWE.6.8.2_2", "name": "Ward 10"}, "geometry": {"type": "MultiPolygon", "coordinates": [[[[29.703962393000154, -16.807385784999894], [29.71455073800007, -16.818804840999974], [29.714626320000093, -16.825725935999913], [29.709510064000085, -16.824431460999847], [29.70783485200019, -16.823232203999908], [29.70470029400019, -16.818857835999893], [29.70215018300013, -16.814380259999893], [29.703664304000085, -16.81322304199989], [29.70142092000009, -16.812107236999964], [29.701311098000076, -16.811521884999934], [29.7021206820001, -16.810756519999927], [29.703962393000154, -16.807385784999894]]]]}}, {"type": "Feature", "properties": {"GID_3": "ZWE.6.8.3_2", "GID_0": "ZWE", "COUNTRY": "Zimbabwe", "GID_1": "ZWE.6_1", "NAME_1": "Mashonaland West", "NL_NAME_1": "NA", "GID_2": "ZWE.6.8_2", "NAME_2": "Karoi", "NL_NAME_2": "NA", "NAME_3": "Ward 2", "VARNAME_3": "NA", "NL_NAME_3": "NA", "TYPE_3": "Ward", "ENGTYPE_3": "Ward", "CC_3": "NA", "HASC_3": "NA", "id": "ZWE.6.8.3_2", "name": "Ward 2"}, "geometry": {"type": "MultiPolygon", "coordinates": [[[[29.706552213, -16.803300502999946], [29.70667827200009, -16.803295840999965], [29.706979112000113, -16.804274715999895], [29.703962393000154, -16.807385784999894], [29.70304164400011, -16.807121471999892], [29.702442921, -16.807620763999978], [29.702144549000025, -16.805689721999897], [29.70125109700018, -16.80564003799998], [29.700905890000115, -16.804279933999965], [29.70077959100007, -16.803953630999956], [29.70119709200003, -16.803847757999904], [29.702809427000147, -16.80343888099992], [29.706552213, -16.803300502999946]]]]}}, {"type": "Feature", "properties": {"GID_3": "ZWE.6.8.4_2", "GID_0": "ZWE", "COUNTRY": "Zimbabwe", "GID_1": "ZWE.6_1", "NAME_1": "Mashonaland West", "NL_NAME_1": "NA", "GID_2": "ZWE.6.8_2", "NAME_2": "Karoi", "NL_NAME_2": "NA", "NAME_3": "Ward 3", "VARNAME_3": "NA", "NL_NAME_3": "NA", "TYPE_3": "Ward", "ENGTYPE_3": "Ward", "CC_3": "NA", "HASC_3": "NA", "id": "ZWE.6.8.4_2", "name": "Ward 3"}, "geometry": {"type": "MultiPolygon", "coordinates": [[[[29.696987279000155, -16.80597616599988], [29.699616058000174, -16.80424868299997], [29.700261977000025, -16.8040848899999], [29.70077959100007, -16.803953630999956], [29.700905890000115, -16.804279933999965], [29.70125109700018, -16.80564003799998], [29.702144549000025, -16.805689721999897], [29.702442921, -16.807620763999978], [29.70304164400011, -16.807121471999892], [29.703962393000154, -16.807385784999894], [29.7021206820001, -16.810756519999927], [29.699824030000116, -16.808437101999857], [29.696142612000187, -16.807396364999875], [29.69615421000009, -16.807089073999975], [29.695644065000067, -16.807090351999875], [29.695919991000153, -16.80667750899994], [29.696390679, -16.806368208999913], [29.696987279000155, -16.80597616599988]]]]}}, {"type": "Feature", "properties": {"GID_3": "ZWE.6.8.5_2", "GID_0": "ZWE", "COUNTRY": "Zimbabwe", "GID_1": "ZWE.6_1", "NAME_1": "Mashonaland West", "NL_NAME_1": "NA", "GID_2": "ZWE.6.8_2", "NAME_2": "Karoi", "NL_NAME_2": "NA", "NAME_3": "Ward 4", "VARNAME_3": "NA", "NL_NAME_3": "NA", "TYPE_3": "Ward", "ENGTYPE_3": "Ward", "CC_3": "NA", "HASC_3": "NA", "id": "ZWE.6.8.5_2", "name": "Ward 4"}, "geometry": {"type": "MultiPolygon", "coordinates": [[[[29.691664441000114, -16.79805635499997], [29.691786508000177, -16.797819406999906], [29.69202450100005, -16.797357369999872], [29.692383490000168, -16.797129350999853], [29.69273948000017, -16.796898332999945], [29.692978473000096, -16.796553304999975], [29.693335463000153, -16.79620727799994], [29.693605364, -16.79623214299994], [29.6942749750001, -16.798496200999978], [29.6948600340001, -16.799287095999944], [29.695427747999986, -16.798849660999906], [29.69574912000013, -16.799029730999962], [29.69583716800014, -16.80074855299989], [29.69793238200009, -16.80010679599991], [29.69840037400013, -16.801636345999896], [29.697543412000073, -16.80416612399995], [29.69653374, -16.80491650199997], [29.696987279000155, -16.80597616599988], [29.696390679, -16.806368208999913], [29.695959937000055, -16.80492402799996], [29.694876086000193, -16.804938238999966], [29.694412445000125, -16.80371576099992], [29.694184753000116, -16.801138777999938], [29.69373066700018, -16.800591877999977], [29.692582217, -16.80054549199997], [29.691664441000114, -16.79805635499997]]]]}}, {"type": "Feature", "properties": {"GID_3": "ZWE.6.8.6_2", "GID_0": "ZWE", "COUNTRY": "Zimbabwe", "GID_1": "ZWE.6_1", "NAME_1": "Mashonaland West", "NL_NAME_1": "NA", "GID_2": "ZWE.6.8_2", "NAME_2": "Karoi", "NL_NAME_2": "NA", "NAME_3": "Ward 5", "VARNAME_3": "NA", "NL_NAME_3": "NA", "TYPE_3": "Ward", "ENGTYPE_3": "Ward", "CC_3": "NA", "HASC_3": "NA", "id": "ZWE.6.8.6_2", "name": "Ward 5"}, "geometry": {"type": "MultiPolygon", "coordinates": [[[[29.69002575000013, -16.799933712999973], [29.69011955600007, -16.799888571999873], [29.69035754900017, -16.799658552999972], [29.690477545000135, -16.799658552999972], [29.69059654200015, -16.79954354399996], [29.690714538000123, -16.79919851699998], [29.690952532000097, -16.798969497999963], [29.69119152500008, -16.798624470999926], [29.691549514000087, -16.798279442999956], [29.691664441000114, -16.79805635499997], [29.692582217, -16.80054549199997], [29.69373066700018, -16.800591877999977], [29.694184753000116, -16.801138777999938], [29.694412445000125, -16.80371576099992], [29.694876086000193, -16.804938238999966], [29.695959937000055, -16.80492402799996], [29.696390679, -16.806368208999913], [29.695919991000153, -16.80667750899994], [29.695644065000067, -16.807090351999875], [29.694173390000117, -16.809290757999975], [29.6933861010001, -16.810468667999885], [29.693279860000075, -16.810626591999892], [29.68990796999998, -16.808890892999898], [29.69092896000012, -16.803288866999935], [29.69015005500006, -16.80231749199993], [29.69002575000013, -16.799933712999973]]]]}}, {"type": "Feature", "properties": {"GID_3": "ZWE.6.8.7_2", "GID_0": "ZWE", "COUNTRY": "Zimbabwe", "GID_1": "ZWE.6_1", "NAME_1": "Mashonaland West", "NL_NAME_1": "NA", "GID_2": "ZWE.6.8_2", "NAME_2": "Karoi", "NL_NAME_2": "NA", "NAME_3": "Ward 6", "VARNAME_3": "NA", "NL_NAME_3": "NA", "TYPE_3": "Ward", "ENGTYPE_3": "Ward", "CC_3": "NA", "HASC_3": "NA", "id": "ZWE.6.8.7_2", "name": "Ward 6"}, "geometry": {"type": "MultiPolygon", "coordinates": [[[[29.7021206820001, -16.810756519999927], [29.701311098000076, -16.811521884999934], [29.70142092000009, -16.812107236999964], [29.701449055000012, -16.81225720099991], [29.695539022000162, -16.809201997999878], [29.69484376600019, -16.809641109999973], [29.694173390000117, -16.809290757999975], [29.695644065000067, -16.807090351999875], [29.69615421000009, -16.807089073999975], [29.696142612000187, -16.807396364999875], [29.699824030000116, -16.808437101999857], [29.7021206820001, -16.810756519999927]]]]}}, {"type": "Feature", "properties": {"GID_3": "ZWE.6.8.8_2", "GID_0": "ZWE", "COUNTRY": "Zimbabwe", "GID_1": "ZWE.6_1", "NAME_1": "Mashonaland West", "NL_NAME_1": "NA", "GID_2": "ZWE.6.8_2", "NAME_2": "Karoi", "NL_NAME_2": "NA", "NAME_3": "Ward 7", "VARNAME_3": "NA", "NL_NAME_3": "NA", "TYPE_3": "Ward", "ENGTYPE_3": "Ward", "CC_3": "NA", "HASC_3": "NA", "id": "ZWE.6.8.8_2", "name": "Ward 7"}, "geometry": {"type": "MultiPolygon", "coordinates": [[[[29.675593970000136, -16.83080956299989], [29.675486985000077, -16.830707024999924], [29.675367988000062, -16.830592015999912], [29.675247992000095, -16.830592015999912], [29.67500999800012, -16.830478006999897], [29.674531011, -16.830362998999817], [29.67381603100017, -16.830131980999965], [29.67357703800002, -16.83001797199995], [29.673457041000177, -16.83001797199995], [29.673337045000153, -16.829903962999936], [29.67309905100018, -16.829788953999923], [29.672740061000184, -16.8295579359999], [29.672383071000127, -16.829443926999886], [29.672143078000033, -16.829328917999874], [29.67190508400006, -16.829328917999874], [29.671666091000134, -16.82921490899986], [29.67142809700016, -16.82898589099983], [29.671187104000182, -16.82886988199982], [29.671069107000108, -16.828640863999965], [29.670949110000038, -16.828295836999928], [29.67082911400007, -16.8280668189999], [29.67082911400007, -16.827949808999904], [29.67082911300014, -16.827835799999946], [29.67082911300014, -16.82768758899988], [29.67082911300014, -16.82749077299991], [29.67106710600001, -16.827375763999896], [29.671424096000067, -16.827145744999882], [29.67166209000004, -16.82703073599987], [29.67166209000004, -16.82691672699997], [29.671782086, -16.82679971799996], [29.671782086, -16.826685708999946], [29.671662089000165, -16.826570699999934], [29.671662089000165, -16.826456689999816], [29.671662089000165, -16.826245172999904], [29.671662089000165, -16.82611166299995], [29.67166008900017, -16.825766635999912], [29.67178108500002, -16.8256516269999], [29.671899082000095, -16.825306598999873], [29.672137075000023, -16.82507558099985], [29.672376068000176, -16.82484656199989], [29.672734058000117, -16.824501534999968], [29.67285205400009, -16.82415650699994], [29.672971051000104, -16.823925488999976], [29.67309104700007, -16.82369647099995], [29.673089047000076, -16.823351442999922], [29.673089047000076, -16.82323643399991], [29.673089047000076, -16.822891406999872], [29.672969050000177, -16.822662388999845], [29.672969050000177, -16.82254637999995], [29.6728510530001, -16.82243237099982], [29.672730057000024, -16.822203351999974], [29.672610060000125, -16.821972333999952], [29.672490063000055, -16.82174331599998], [29.672252070000184, -16.821627306999915], [29.672133073000055, -16.821512297999902], [29.672013076000155, -16.821398288999944], [29.672013076000155, -16.821283279999932], [29.671655085999987, -16.820938252999895], [29.671535089000088, -16.820707234999816], [29.671414092000134, -16.82047821599997], [29.671414092000134, -16.820133188999932], [29.671414092000134, -16.819674152999937], [29.671414092000134, -16.819559143999925], [29.671533088000047, -16.819559142999935], [29.671533088000047, -16.81944513399992], [29.67177108200019, -16.81944513399992], [29.672248068000044, -16.819328124999913], [29.672606058000156, -16.81921411499991], [29.672965048000037, -16.81921411499991], [29.67320304100008, -16.8190971059999], [29.673322038000094, -16.818983096999887], [29.673560031000136, -16.81886908699994], [29.674037018000092, -16.818638068999917], [29.67451600400011, -16.818407049999905], [29.674751996999987, -16.81806202299998], [29.674871994000057, -16.81794701399997], [29.674871994000057, -16.817716994999955], [29.674871994000057, -16.817601985999943], [29.674751996999987, -16.817487976999814], [29.674514003000013, -16.817258958999957], [29.674273010000093, -16.817027940999935], [29.67379702300002, -16.816338886999972], [29.673556029000167, -16.815879849999874], [29.673318036000126, -16.815648831999965], [29.67307904200004, -16.815419813999938], [29.672959046000074, -16.8150747869999], [29.672839049000174, -16.814729759999864], [29.67283904800007, -16.81426972299988], [29.672837048000076, -16.813924695999958], [29.672717051, -16.81323564099995], [29.672717051, -16.812776604999897], [29.672717051, -16.812430576999873], [29.672715050000136, -16.81197154099982], [29.672715050000136, -16.811625512999967], [29.67283304700004, -16.811397494999937], [29.672954043000118, -16.81105146799996], [29.672954043000118, -16.810820448999948], [29.67319203600016, -16.810706439999933], [29.67343002900003, -16.81047542199991], [29.673787019000088, -16.810246402999894], [29.674264006000044, -16.81001638499987], [29.674501999000086, -16.809785365999858], [29.674860989000138, -16.809556347999887], [29.675217979000024, -16.809325328999876], [29.67533797500016, -16.809211319999974], [29.675455972000066, -16.808980301999952], [29.675575968000032, -16.80886529299994], [29.675693965000164, -16.808635273999982], [29.67581296100002, -16.80852026499997], [29.67581296100002, -16.808289246999948], [29.67593295800009, -16.807946219999906], [29.675930958000095, -16.80760119199988], [29.676050954000118, -16.80737017399997], [29.676168951000193, -16.80714115599983], [29.676407944000175, -16.806910136999875], [29.67688493000003, -16.806451099999947], [29.677240920000145, -16.805991063999954], [29.67771790600017, -16.805646035999928], [29.678194893000125, -16.805415016999916], [29.678432886000166, -16.805183998999894], [29.678553882000074, -16.804954980999867], [29.678791876000048, -16.80472496199991], [29.67902986900009, -16.804495943999882], [29.679266862000077, -16.80414991599997], [29.6797438480001, -16.803804888999935], [29.679981842000075, -16.803459860999965], [29.680220835000057, -16.803228842999943], [29.6804588280001, -16.803114833999928], [29.68081781800015, -16.802883814999916], [29.681173808000153, -16.80265479699989], [29.681650794000177, -16.80230976899992], [29.682009784, -16.802078749999907], [29.6822477770001, -16.801847731999885], [29.682486770000025, -16.80173372299987], [29.682724764, -16.80161871299987], [29.682842760000028, -16.80161871299987], [29.68308175300018, -16.801388694999844], [29.68320175000008, -16.80127368599983], [29.683439743000122, -16.801042666999876], [29.68379673300018, -16.800697639999953], [29.68403472600005, -16.800352611999926], [29.684273719000032, -16.800123593999956], [29.684511712000074, -16.799892574999944], [29.68486870200013, -16.799547547999907], [29.685106695, -16.79920251999988], [29.68546368500006, -16.79874248399983], [29.685701678000157, -16.798397455999975], [29.685821675, -16.798397455999975], [29.68641865800015, -16.798397455999975], [29.68677564799998, -16.798511463999887], [29.68701564200012, -16.798511463999887], [29.687134638000032, -16.7986264729999], [29.6872546350001, -16.7986264729999], [29.687372632000177, -16.798740481999914], [29.687612625000042, -16.79885749099992], [29.687731622000058, -16.798971499999936], [29.687851618000025, -16.79908550899995], [29.68808961200017, -16.799200517999964], [29.688806592000162, -16.799888572999976], [29.689045586000077, -16.800119590999884], [29.689165582000044, -16.800234599999897], [29.689165583000147, -16.800348608999855], [29.68928357900012, -16.800234599999897], [29.6895225720001, -16.800119589999895], [29.68988056200004, -16.800003580999885], [29.69002575000013, -16.799933712999973], [29.69015005500006, -16.80231749199993], [29.69092896000012, -16.803288866999935], [29.68990796999998, -16.808890892999898], [29.693279860000075, -16.810626591999892], [29.689612917000034, -16.816077146999874], [29.688345513000115, -16.816646585999933], [29.687094550000097, -16.818382935999978], [29.68529713100014, -16.817546445999938], [29.682184293000148, -16.822931364999874], [29.68290470700009, -16.824273374999905], [29.68155310600008, -16.82792824199987], [29.67991683400004, -16.829485310999928], [29.677318872, -16.830686344999947], [29.675593970000136, -16.83080956299989]]]]}}, {"type": "Feature", "properties": {"GID_3": "ZWE.6.8.9_2", "GID_0": "ZWE", "COUNTRY": "Zimbabwe", "GID_1": "ZWE.6_1", "NAME_1": "Mashonaland West", "NL_NAME_1": "NA", "GID_2": "ZWE.6.8_2", "NAME_2": "Karoi", "NL_NAME_2": "NA", "NAME_3": "Ward 8", "VARNAME_3": "NA", "NL_NAME_3": "NA", "TYPE_3": "Ward", "ENGTYPE_3": "Ward", "CC_3": "NA", "HASC_3": "NA", "id": "ZWE.6.8.9_2", "name": "Ward 8"}, "geometry": {"type": "MultiPolygon", "coordinates": [[[[29.714776035000114, -16.839423197999906], [29.70276734200013, -16.849173045999976], [29.7020395240001, -16.844127198999956], [29.697510660000034, -16.837077564999902], [29.68886409700002, -16.836295066999924], [29.686550005000072, -16.835995994999962], [29.685156716000165, -16.83305498699997], [29.685156716000165, -16.832999200999893], [29.68503871900009, -16.832999200999893], [29.68503871900009, -16.832885191999935], [29.68491772200008, -16.832770182999923], [29.684797726000113, -16.832770182999923], [29.684679729000038, -16.832654173999856], [29.684320738999986, -16.832540164999898], [29.683723755000187, -16.832425156999932], [29.683247769000047, -16.832425156999932], [29.683126772000094, -16.832425156999932], [29.68241179200004, -16.832427157999973], [29.68193280600002, -16.83231314899996], [29.681456819000175, -16.83231314899996], [29.681097829000123, -16.832427157999973], [29.68085983600008, -16.832427157999973], [29.680740839000123, -16.832543167999972], [29.680620842000053, -16.832658176999928], [29.679905862, -16.832658176999928], [29.678593899000077, -16.83266017799997], [29.67787591900003, -16.8326601789999], [29.67763792600016, -16.83254516999989], [29.67751792900009, -16.83242916099988], [29.677399932000185, -16.83242916099988], [29.677278936000107, -16.83231415199998], [29.677278936000107, -16.832200142999966], [29.677158939000037, -16.832200142999966], [29.677158939000037, -16.832086133999837], [29.677040942000133, -16.831971124999825], [29.676920946000166, -16.831971124999825], [29.676920946000166, -16.831855114999883], [29.676800949000096, -16.83162609699997], [29.67656195500018, -16.831512087999954], [29.67632396200014, -16.831281069999932], [29.675964972000088, -16.83105205199996], [29.675726978000114, -16.83093704299995], [29.675593970000136, -16.83080956299989], [29.677318872, -16.830686344999947], [29.67991683400004, -16.829485310999928], [29.68155310600008, -16.82792824199987], [29.68290470700009, -16.824273374999905], [29.682184293000148, -16.822931364999874], [29.68529713100014, -16.817546445999938], [29.687094550000097, -16.818382935999978], [29.688345513000115, -16.816646585999933], [29.689612917000034, -16.816077146999874], [29.693279860000075, -16.810626591999892], [29.6933861010001, -16.810468667999885], [29.694173390000117, -16.809290757999975], [29.69484376600019, -16.809641109999973], [29.695539022000162, -16.809201997999878], [29.701449055000012, -16.81225720099991], [29.70142092000009, -16.812107236999964], [29.703664304000085, -16.81322304199989], [29.70215018300013, -16.814380259999893], [29.70199102600003, -16.814501899999925], [29.701223310000103, -16.814327711999965], [29.69840303000018, -16.817817660999935], [29.69835144200016, -16.81867832399996], [29.70008167100002, -16.819269863999978], [29.70060132800012, -16.819938734999823], [29.700679014000173, -16.82092055199996], [29.706394654000064, -16.828216580999936], [29.705086156000164, -16.83038377599985], [29.714776035000114, -16.839423197999906]]]]}}, {"type": "Feature", "properties": {"GID_3": "ZWE.6.8.10_2", "GID_0": "ZWE", "COUNTRY": "Zimbabwe", "GID_1": "ZWE.6_1", "NAME_1": "Mashonaland West", "NL_NAME_1": "NA", "GID_2": "ZWE.6.8_2", "NAME_2": "Karoi", "NL_NAME_2": "NA", "NAME_3": "Ward 9", "VARNAME_3": "NA", "NL_NAME_3": "NA", "TYPE_3": "Ward", "ENGTYPE_3": "Ward", "CC_3": "NA", "HASC_3": "NA", "id": "ZWE.6.8.10_2", "name": "Ward 9"}, "geometry": {"type": "MultiPolygon", "coordinates": [[[[29.714626320000093, -16.825725935999913], [29.714776035000114, -16.839423197999906], [29.705086156000164, -16.83038377599985], [29.706394654000064, -16.828216580999936], [29.700679014000173, -16.82092055199996], [29.70060132800012, -16.819938734999823], [29.70008167100002, -16.819269863999978], [29.69835144200016, -16.81867832399996], [29.69840303000018, -16.817817660999935], [29.701223310000103, -16.814327711999965], [29.70199102600003, -16.814501899999925], [29.70215018300013, -16.814380259999893], [29.70470029400019, -16.818857835999893], [29.70783485200019, -16.823232203999908], [29.709510064000085, -16.824431460999847], [29.714626320000093, -16.825725935999913]]]]}}]}