{"type": "FeatureCollection", "features": [{"type": "Feature", "properties": {"GID_3": "ZWE.9.9.1_2", "GID_0": "ZWE", "COUNTRY": "Zimbabwe", "GID_1": "ZWE.9_1", "NAME_1": "Matabeleland South", "NL_NAME_1": "NA", "GID_2": "ZWE.9.9_2", "NAME_2": "Plumtree", "NL_NAME_2": "NA", "NAME_3": "Ward 1", "VARNAME_3": "NA", "NL_NAME_3": "NA", "TYPE_3": "Ward", "ENGTYPE_3": "Ward", "CC_3": "NA", "HASC_3": "NA", "id": "ZWE.9.9.1_2", "name": "Ward 1"}, "geometry": {"type": "MultiPolygon", "coordinates": [[[[27.867688589000124, -20.525891171999888], [27.843533363000063, -20.561590811999963], [27.83200523200003, -20.576647857999944], [27.824355219000097, -20.586102260999894], [27.818989952000152, -20.59305577699996], [27.79464344000013, -20.570926774999975], [27.786253671000054, -20.563764252999874], [27.78584868200005, -20.563409226999966], [27.805415848000052, -20.540072628999894], [27.815596237000136, -20.515042548999872], [27.8082215, -20.51322650799989], [27.80830151400005, -20.505990571999916], [27.80978139400014, -20.50309526699982], [27.809878899000125, -20.502025922999962], [27.809770368000102, -20.50099640899998], [27.80973227900006, -20.50099767099988], [27.80946944200008, -20.498085351999976], [27.81117178500017, -20.493319412999824], [27.811427612999978, -20.490986093999936], [27.814267902000097, -20.49451303699982], [27.822428852000144, -20.49764018499991], [27.867688589000124, -20.525891171999888]]]]}}, {"type": "Feature", "properties": {"GID_3": "ZWE.9.9.2_2", "GID_0": "ZWE", "COUNTRY": "Zimbabwe", "GID_1": "ZWE.9_1", "NAME_1": "Matabeleland South", "NL_NAME_1": "NA", "GID_2": "ZWE.9.9_2", "NAME_2": "Plumtree", "NL_NAME_2": "NA", "NAME_3": "Ward 2", "VARNAME_3": "NA", "NL_NAME_3": "NA", "TYPE_3": "Ward", "ENGTYPE_3": "Ward", "CC_3": "NA", "HASC_3": "NA", "id": "ZWE.9.9.2_2", "name": "Ward 2"}, "geometry": {"type": "MultiPolygon", "coordinates": [[[[27.78584868200005, -20.563409226999966], [27.77305711100007, -20.554397421999965], [27.780950902000143, -20.528854327999966], [27.78914164600019, -20.530414925999935], [27.800372912000057, -20.50862848399987], [27.8082215, -20.51322650799989], [27.815596237000136, -20.515042548999872], [27.805415848000052, -20.540072628999894], [27.78584868200005, -20.563409226999966]]]]}}, {"type": "Feature", "properties": {"GID_3": "ZWE.9.9.3_2", "GID_0": "ZWE", "COUNTRY": "Zimbabwe", "GID_1": "ZWE.9_1", "NAME_1": "Matabeleland South", "NL_NAME_1": "NA", "GID_2": "ZWE.9.9_2", "NAME_2": "Plumtree", "NL_NAME_2": "NA", "NAME_3": "Ward 3", "VARNAME_3": "NA", "NL_NAME_3": "NA", "TYPE_3": "Ward", "ENGTYPE_3": "Ward", "CC_3": "NA", "HASC_3": "NA", "id": "ZWE.9.9.3_2", "name": "Ward 3"}, "geometry": {"type": "MultiPolygon", "coordinates": [[[[27.780950902000143, -20.528854327999966], [27.780861089999974, -20.528829064999968], [27.767938351000055, -20.525193504999834], [27.76870069400013, -20.524503608999964], [27.769655715000056, -20.516060620999838], [27.78439118600005, -20.504077895999956], [27.803816927000184, -20.490381177999893], [27.803957621999984, -20.490281959999948], [27.807894377000025, -20.48864064099996], [27.80878317500003, -20.489025192999975], [27.808778850000124, -20.48904001199986], [27.804132700000082, -20.493298282999945], [27.80216998500015, -20.499893964999956], [27.8007876800001, -20.502911363999942], [27.80070997000007, -20.507638811999982], [27.800372912000057, -20.50862848399987], [27.78914164600019, -20.530414925999935], [27.780950902000143, -20.528854327999966]]]]}}, {"type": "Feature", "properties": {"GID_3": "ZWE.9.9.4_2", "GID_0": "ZWE", "COUNTRY": "Zimbabwe", "GID_1": "ZWE.9_1", "NAME_1": "Matabeleland South", "NL_NAME_1": "NA", "GID_2": "ZWE.9.9_2", "NAME_2": "Plumtree", "NL_NAME_2": "NA", "NAME_3": "Ward 4", "VARNAME_3": "NA", "NL_NAME_3": "NA", "TYPE_3": "Ward", "ENGTYPE_3": "Ward", "CC_3": "NA", "HASC_3": "NA", "id": "ZWE.9.9.4_2", "name": "Ward 4"}, "geometry": {"type": "MultiPolygon", "coordinates": [[[[27.811427612999978, -20.490986093999936], [27.81117178500017, -20.493319412999824], [27.80946944200008, -20.498085351999976], [27.80973227900006, -20.50099767099988], [27.809770368000102, -20.50099640899998], [27.809878899000125, -20.502025922999962], [27.80978139400014, -20.50309526699982], [27.80830151400005, -20.505990571999916], [27.8082215, -20.51322650799989], [27.800372912000057, -20.50862848399987], [27.80070997000007, -20.507638811999982], [27.8007876800001, -20.502911363999942], [27.80216998500015, -20.499893964999956], [27.804132700000082, -20.493298282999945], [27.808778850000124, -20.48904001199986], [27.811427612999978, -20.490986093999936]]]]}}, {"type": "Feature", "properties": {"GID_3": "ZWE.9.9.5_2", "GID_0": "ZWE", "COUNTRY": "Zimbabwe", "GID_1": "ZWE.9_1", "NAME_1": "Matabeleland South", "NL_NAME_1": "NA", "GID_2": "ZWE.9.9_2", "NAME_2": "Plumtree", "NL_NAME_2": "NA", "NAME_3": "Ward 5", "VARNAME_3": "NA", "NL_NAME_3": "NA", "TYPE_3": "Ward", "ENGTYPE_3": "Ward", "CC_3": "NA", "HASC_3": "NA", "id": "ZWE.9.9.5_2", "name": "Ward 5"}, "geometry": {"type": "MultiPolygon", "coordinates": [[[[27.72379339200012, -20.51276553399987], [27.724771363000116, -20.512029477999874], [27.727505336000092, -20.512093188999927], [27.72811767000013, -20.501316389999886], [27.72987297300017, -20.481325709999908], [27.72993206500007, -20.47932223399988], [27.73119342100017, -20.468985666999856], [27.73117785000005, -20.46569707999987], [27.744559116000175, -20.466919204999954], [27.750573582000072, -20.46798955499986], [27.77482622100007, -20.4717032559999], [27.78115143500014, -20.464278674999946], [27.78535740600006, -20.467682488999856], [27.78841352600017, -20.4705353249999], [27.796109533000163, -20.476577575999954], [27.799045545000126, -20.47966009499993], [27.801870732000168, -20.484807064999927], [27.803816927000184, -20.490381177999893], [27.78439118600005, -20.504077895999956], [27.769655715000056, -20.516060620999838], [27.76870069400013, -20.524503608999964], [27.767938351000055, -20.525193504999834], [27.72379339200012, -20.51276553399987]]]]}}, {"type": "Feature", "properties": {"GID_3": "ZWE.9.9.6_2", "GID_0": "ZWE", "COUNTRY": "Zimbabwe", "GID_1": "ZWE.9_1", "NAME_1": "Matabeleland South", "NL_NAME_1": "NA", "GID_2": "ZWE.9.9_2", "NAME_2": "Plumtree", "NL_NAME_2": "NA", "NAME_3": "Ward 6", "VARNAME_3": "NA", "NL_NAME_3": "NA", "TYPE_3": "Ward", "ENGTYPE_3": "Ward", "CC_3": "NA", "HASC_3": "NA", "id": "ZWE.9.9.6_2", "name": "Ward 6"}, "geometry": {"type": "MultiPolygon", "coordinates": [[[[27.831368221, -20.422920746999864], [27.83144121900017, -20.422994751999966], [27.831679212000097, -20.422784736999972], [27.83169821200005, -20.42280373799997], [27.831713211000135, -20.42281973899992], [27.83186620700019, -20.422975750999967], [27.836325086000045, -20.42793911499996], [27.849666721000062, -20.441442105999954], [27.86326213800004, -20.456905136999865], [27.86684449600017, -20.45932046599995], [27.87005293500016, -20.477338204999853], [27.86546167400013, -20.492791560999933], [27.864796879000096, -20.493424685999912], [27.928546303000076, -20.488247697999952], [27.905193874000076, -20.515581434999888], [27.867688589000124, -20.525891171999888], [27.822428852000144, -20.49764018499991], [27.814267902000097, -20.49451303699982], [27.811427612999978, -20.490986093999936], [27.808778850000124, -20.48904001199986], [27.80878317500003, -20.489025192999975], [27.807894377000025, -20.48864064099996], [27.803957621999984, -20.490281959999948], [27.803816927000184, -20.490381177999893], [27.801870732000168, -20.484807064999927], [27.799045545000126, -20.47966009499993], [27.796109533000163, -20.476577575999954], [27.78841352600017, -20.4705353249999], [27.78535740600006, -20.467682488999856], [27.78115143500014, -20.464278674999946], [27.78314983900009, -20.46193274199993], [27.788375071000075, -20.456296762999955], [27.791505293000057, -20.451990735999914], [27.792204071000185, -20.451657414999886], [27.79535108100015, -20.450652637999895], [27.796032132000107, -20.45029190299988], [27.79849463800008, -20.44898754199994], [27.809658684999988, -20.440682480999897], [27.827453904000038, -20.428383683999982], [27.831288224000048, -20.422975750999967], [27.831328221999968, -20.422948748999943], [27.831368221, -20.422920746999864]]]]}}]}