{"type": "FeatureCollection", "features": [{"type": "Feature", "properties": {"GID_3": "ZWE.3.7.1_2", "GID_0": "ZWE", "COUNTRY": "Zimbabwe", "GID_1": "ZWE.3_1", "NAME_1": "Manicaland", "NL_NAME_1": "NA", "GID_2": "ZWE.3.7_2", "NAME_2": "Mutare Urban", "NL_NAME_2": "NA", "NAME_3": "Ward 1", "VARNAME_3": "NA", "NL_NAME_3": "NA", "TYPE_3": "Ward", "ENGTYPE_3": "Ward", "CC_3": "NA", "HASC_3": "NA", "id": "ZWE.3.7.1_2", "name": "Ward 1"}, "geometry": {"type": "MultiPolygon", "coordinates": [[[[32.64746448000017, -18.985361841999918], [32.64705121700018, -18.984995450999975], [32.645327986000154, -18.983975001999966], [32.64528929800014, -18.98279711099991], [32.64613986100011, -18.982972972999903], [32.64766329500003, -18.982957296999928], [32.647956094000165, -18.982815869999968], [32.64862127400016, -18.98249457399993], [32.65125787300008, -18.982518140999844], [32.65154774200016, -18.984005225999965], [32.65371193900006, -18.985811714999954], [32.65385400800005, -18.987905765999926], [32.653066214000035, -18.99106318399987], [32.650199153000074, -18.993142656999964], [32.64924271300015, -18.991492406999953], [32.65118808800008, -18.990625950999913], [32.65107746200016, -18.988849220999896], [32.65035362800012, -18.98873908799993], [32.65062273100011, -18.987615673999983], [32.64898529300018, -18.987032487999954], [32.64746448000017, -18.985361841999918]]]]}}, {"type": "Feature", "properties": {"GID_3": "ZWE.3.7.2_2", "GID_0": "ZWE", "COUNTRY": "Zimbabwe", "GID_1": "ZWE.3_1", "NAME_1": "Manicaland", "NL_NAME_1": "NA", "GID_2": "ZWE.3.7_2", "NAME_2": "Mutare Urban", "NL_NAME_2": "NA", "NAME_3": "Ward 10", "VARNAME_3": "NA", "NL_NAME_3": "NA", "TYPE_3": "Ward", "ENGTYPE_3": "Ward", "CC_3": "NA", "HASC_3": "NA", "id": "ZWE.3.7.2_2", "name": "Ward 10"}, "geometry": {"type": "MultiPolygon", "coordinates": [[[[32.650199153000074, -18.993142656999964], [32.653066214000035, -18.99106318399987], [32.65385400800005, -18.987905765999926], [32.65371193900006, -18.985811714999954], [32.65154774200016, -18.984005225999965], [32.65125787300008, -18.982518140999844], [32.64862127400016, -18.98249457399993], [32.647956094000165, -18.982815869999968], [32.64766329500003, -18.982957296999928], [32.64613986100011, -18.982972972999903], [32.64528929800014, -18.98279711099991], [32.64184719800011, -18.982085382999912], [32.642831467000065, -18.982153009999934], [32.64478056900009, -18.9809528319999], [32.64524827800011, -18.980664829999967], [32.64966818800008, -18.97989079199988], [32.65031914300005, -18.97938672299989], [32.65399206600006, -18.978799006999964], [32.65434743400016, -18.976945311999884], [32.656468815000096, -18.977849660999937], [32.658656719000135, -18.97759356199998], [32.658620118000044, -18.976385679999964], [32.65620046100008, -18.975377788999936], [32.65881638299999, -18.97162063299993], [32.66359460100011, -18.974862601999973], [32.66414311000011, -18.974027416999945], [32.66543051300016, -18.974810181999885], [32.67032790400009, -18.968449059999898], [32.67336420800012, -18.969829208999954], [32.67528178599997, -18.971022602999938], [32.670049943000095, -18.979907686999923], [32.670283686000175, -18.980223993999914], [32.66937348100009, -18.981211695999946], [32.670581457000026, -18.982698032999963], [32.6716706630001, -18.985004105999906], [32.67210284600003, -18.98692255499992], [32.665846816000055, -18.99792685899996], [32.666776213000105, -18.999083468999913], [32.66387752600019, -18.998741953999968], [32.662002430000086, -18.99799201299993], [32.66201791100008, -18.999998867999977], [32.66068644800009, -19.001594457999943], [32.65412310500017, -19.007062611999913], [32.65187233800003, -19.008469697999885], [32.64724281700006, -19.008479506999834], [32.644821588000184, -19.00802891199993], [32.642221797000104, -19.006500932999927], [32.631727777000094, -19.005205777999947], [32.63163548000017, -19.005117609999957], [32.63122097700011, -19.00472164499996], [32.63300114700013, -19.00351737799997], [32.632892368000114, -19.00349671799995], [32.639257013000076, -18.999845608999976], [32.64739335100006, -18.995177601999956], [32.64867333600017, -18.994249287999878], [32.648759454000015, -18.994186828999943], [32.650199153000074, -18.993142656999964]]]]}}, {"type": "Feature", "properties": {"GID_3": "ZWE.3.7.3_2", "GID_0": "ZWE", "COUNTRY": "Zimbabwe", "GID_1": "ZWE.3_1", "NAME_1": "Manicaland", "NL_NAME_1": "NA", "GID_2": "ZWE.3.7_2", "NAME_2": "Mutare Urban", "NL_NAME_2": "NA", "NAME_3": "Ward 11", "VARNAME_3": "NA", "NL_NAME_3": "NA", "TYPE_3": "Ward", "ENGTYPE_3": "Ward", "CC_3": "NA", "HASC_3": "NA", "id": "ZWE.3.7.3_2", "name": "Ward 11"}, "geometry": {"type": "MultiPolygon", "coordinates": [[[[32.70183881100007, -18.94789020099995], [32.7042503350001, -18.96021842899995], [32.70537185700016, -18.965957639999885], [32.70754241900016, -18.977058409999927], [32.707832337000184, -18.978540419999945], [32.70812582000002, -18.982314908999967], [32.70004909800002, -18.983475752999937], [32.701421869, -18.98712309299998], [32.70540137400002, -18.990045565999935], [32.70160212100018, -18.99307444099992], [32.69808200500006, -19.001277434999963], [32.69935414800011, -19.023152783999933], [32.69740842800002, -19.02314960899986], [32.69660691400014, -19.022722985999906], [32.691660143000036, -19.0200898409999], [32.68836304000018, -19.018744366999954], [32.69093447900002, -19.016764174999878], [32.68899189399997, -19.01511582699993], [32.677540674, -19.011806030999935], [32.66826100900005, -19.003769808999948], [32.66718917600008, -18.999243887999967], [32.666776213000105, -18.999083468999913], [32.665846816000055, -18.99792685899996], [32.67210284600003, -18.98692255499992], [32.6716706630001, -18.985004105999906], [32.670581457000026, -18.982698032999963], [32.66937348100009, -18.981211695999946], [32.670283686000175, -18.980223993999914], [32.670049943000095, -18.979907686999923], [32.67528178599997, -18.971022602999938], [32.67336420800012, -18.969829208999954], [32.680486617000156, -18.958772256999907], [32.68275313800018, -18.960721123999974], [32.683535527000174, -18.96005351599996], [32.68349436700015, -18.961168354999927], [32.68408210400003, -18.960165938999864], [32.684589905000166, -18.960129639999877], [32.68545861500013, -18.95507685699988], [32.6861606330001, -18.95559833799996], [32.68667401000005, -18.954780032999906], [32.68710255200017, -18.95421173699998], [32.69124530800008, -18.952620643999865], [32.69453298800016, -18.94872389899996], [32.69490354500016, -18.946148532999928], [32.69592296100012, -18.943920381999874], [32.699919125, -18.942172746999972], [32.70183881100007, -18.94789020099995]]]]}}, {"type": "Feature", "properties": {"GID_3": "ZWE.3.7.4_2", "GID_0": "ZWE", "COUNTRY": "Zimbabwe", "GID_1": "ZWE.3_1", "NAME_1": "Manicaland", "NL_NAME_1": "NA", "GID_2": "ZWE.3.7_2", "NAME_2": "Mutare Urban", "NL_NAME_2": "NA", "NAME_3": "Ward 12", "VARNAME_3": "NA", "NL_NAME_3": "NA", "TYPE_3": "Ward", "ENGTYPE_3": "Ward", "CC_3": "NA", "HASC_3": "NA", "id": "ZWE.3.7.4_2", "name": "Ward 12"}, "geometry": {"type": "MultiPolygon", "coordinates": [[[[32.67336420800012, -18.969829208999954], [32.67032790400009, -18.968449059999898], [32.66543051300016, -18.974810181999885], [32.66414311000011, -18.974027416999945], [32.66359460100011, -18.974862601999973], [32.65881638299999, -18.97162063299993], [32.65620046100008, -18.975377788999936], [32.658620118000044, -18.976385679999964], [32.658656719000135, -18.97759356199998], [32.656468815000096, -18.977849660999937], [32.65434743400016, -18.976945311999884], [32.65399206600006, -18.978799006999964], [32.65031914300005, -18.97938672299989], [32.64966818800008, -18.97989079199988], [32.64524827800011, -18.980664829999967], [32.64478056900009, -18.9809528319999], [32.641888523000034, -18.979780839999933], [32.6420508920001, -18.97952231599993], [32.6416828830001, -18.978930718999948], [32.644757286000186, -18.977457554999887], [32.64676152800013, -18.97732989499991], [32.647431352000126, -18.976666666999904], [32.64752303400007, -18.976673877999872], [32.647939578000035, -18.975754213999835], [32.64690596300005, -18.97437156199993], [32.64567437200003, -18.968583484999897], [32.64623478700014, -18.964968475999967], [32.64471715800005, -18.963782126999945], [32.64403330600015, -18.960427720999917], [32.634312605000105, -18.9670815099999], [32.620304345000136, -18.944555032999972], [32.62702774000013, -18.943684272999974], [32.637299084000176, -18.940934354999968], [32.64018348900004, -18.93982639899997], [32.65301698400003, -18.936522685999932], [32.660989757000095, -18.934682543999884], [32.69171988400012, -18.93304341199996], [32.6918038820001, -18.933045411999956], [32.69196787700008, -18.933129417999908], [32.69866968700006, -18.934771541999964], [32.698334697, -18.936009636999927], [32.69979464900001, -18.94180197499992], [32.699919125, -18.942172746999972], [32.69592296100012, -18.943920381999874], [32.69490354500016, -18.946148532999928], [32.69453298800016, -18.94872389899996], [32.69124530800008, -18.952620643999865], [32.68710255200017, -18.95421173699998], [32.68667401000005, -18.954780032999906], [32.6861606330001, -18.95559833799996], [32.68545861500013, -18.95507685699988], [32.684589905000166, -18.960129639999877], [32.68408210400003, -18.960165938999864], [32.68349436700015, -18.961168354999927], [32.683535527000174, -18.96005351599996], [32.68275313800018, -18.960721123999974], [32.680486617000156, -18.958772256999907], [32.67336420800012, -18.969829208999954]]]]}}, {"type": "Feature", "properties": {"GID_3": "ZWE.3.7.5_2", "GID_0": "ZWE", "COUNTRY": "Zimbabwe", "GID_1": "ZWE.3_1", "NAME_1": "Manicaland", "NL_NAME_1": "NA", "GID_2": "ZWE.3.7_2", "NAME_2": "Mutare Urban", "NL_NAME_2": "NA", "NAME_3": "Ward 13", "VARNAME_3": "NA", "NL_NAME_3": "NA", "TYPE_3": "Ward", "ENGTYPE_3": "Ward", "CC_3": "NA", "HASC_3": "NA", "id": "ZWE.3.7.5_2", "name": "Ward 13"}, "geometry": {"type": "MultiPolygon", "coordinates": [[[[32.632892368000114, -19.00349671799995], [32.63300114700013, -19.00351737799997], [32.63122097700011, -19.00472164499996], [32.63163548000017, -19.005117609999957], [32.63237979000013, -19.009702059999825], [32.63223585000014, -19.01003176599994], [32.628767943000184, -19.010147005999954], [32.62658570700006, -19.009653929999843], [32.6215846500001, -19.006222987999934], [32.618376739000155, -19.00499469099998], [32.61806997000008, -19.005147551999926], [32.60636611300009, -19.001421461999826], [32.59774897400001, -18.99867749499998], [32.58650236300019, -18.9950954869999], [32.522818542000095, -18.974796689999835], [32.52193168000008, -18.97316582699989], [32.521852718000105, -18.972694480999962], [32.528314533000184, -18.969095204999974], [32.52856952600007, -18.96909320499998], [32.52874152100014, -18.969011197999976], [32.52890951600011, -18.969011197999976], [32.529080512000064, -18.96900919799998], [32.52925250699997, -18.96900919799998], [32.52950849900003, -18.96892719199991], [32.52967649500005, -18.96892519199986], [32.529931487000056, -18.968843184999912], [32.530187480000166, -18.968761178999955], [32.530530470000144, -18.968760178999958], [32.530786463000084, -18.968678171999954], [32.53112545300007, -18.968514159999927], [32.53146544400005, -18.968512159999875], [32.53197642900011, -18.96851015899989], [32.532231422000166, -18.968428152999934], [32.532403417000126, -18.96842615299994], [32.532827405000035, -18.968424152999944], [32.532998400000054, -18.96834214599994], [32.53317039500013, -18.96834214599994], [32.53325439300016, -18.96834214599994], [32.53359338300015, -18.968340145999946], [32.53384937600009, -18.96833814599995], [32.53419236600007, -18.968418151999913], [32.53461935400003, -18.96841615099993], [32.53495934400013, -18.968494156999895], [32.53572632300006, -18.968493156999898], [32.535981315000186, -18.96857116299998], [32.536237308000125, -18.96857116299998], [32.53666429600014, -18.96856916299987], [32.53692028900008, -18.968649168999946], [32.537175282000135, -18.96872717499997], [32.53743127399997, -18.96880718099993], [32.53785826200016, -18.968887186999893], [32.538285250000115, -18.96904819899993], [32.538713238000184, -18.969126204999952], [32.53905222800017, -18.969206210999914], [32.53939521900003, -18.969366222999952], [32.53973520900013, -18.969444228999976], [32.54007819900005, -18.969606240999894], [32.540505187000065, -18.969767252999873], [32.541017173000114, -18.969925264999915], [32.54144416100013, -18.970085276999896], [32.54187114900009, -18.97016528299997], [32.542298137000046, -18.9704063019999], [32.542638127000146, -18.970486307999977], [32.54349210300012, -18.97080633199988], [32.543748095000126, -18.970886337999957], [32.54409108599998, -18.97096434399998], [32.54434707900015, -18.97104534999994], [32.544774066, -18.971123355999907], [32.54511405699998, -18.971123355999907], [32.54545304699997, -18.971283367999945], [32.54571304000007, -18.97128136799995], [32.54588003500015, -18.97136137399997], [32.546052030000055, -18.97136137399997], [32.546224025000186, -18.97144137999993], [32.54639202100003, -18.971439379999936], [32.54664701299998, -18.971439379999936], [32.550404907000086, -18.972313445999873], [32.55065990000014, -18.97239345199995], [32.550999890000185, -18.972391450999964], [32.55133888000017, -18.97238945099997], [32.55176586800013, -18.972387450999975], [32.552109858, -18.97238545099998], [32.552448849000086, -18.972384450999982], [32.55278883900013, -18.972382449999827], [32.55313182900011, -18.972380449999946], [32.55381081000007, -18.972376449999956], [32.5541538, -18.972376449999956], [32.55440979300016, -18.97237444899997], [32.554749783000034, -18.972372448999977], [32.55500477600009, -18.972290442999963], [32.55952164800004, -18.97178140299991], [32.55977364100005, -18.971699395999963], [32.56002863300017, -18.97161738999995], [32.56020062800013, -18.971615389999954], [32.56037162400003, -18.97153338399994], [32.56062761600009, -18.97153338399994], [32.56079561200016, -18.97145137699988], [32.561138602000085, -18.97136737099993], [32.56139059500009, -18.971285363999982], [32.56173358500001, -18.97120335799997], [32.56198957800018, -18.971039345999884], [32.56215757300009, -18.9710373449999], [32.56598346300012, -18.968586156999947], [32.558071684000026, -18.953542008999875], [32.5579836870001, -18.9533799969999], [32.5579836870001, -18.953297989999953], [32.5580376850001, -18.952837954999893], [32.55884666200018, -18.95292396199983], [32.55910965500016, -18.952949962999924], [32.57204123900004, -18.95079823899988], [32.620304345000136, -18.944555032999972], [32.634312605000105, -18.9670815099999], [32.631755924, -18.967890471999965], [32.62727553300016, -18.96829897999993], [32.62040525400005, -18.967452814999888], [32.61065519700003, -18.969215897999902], [32.60802654700012, -18.97123144699998], [32.604371750000155, -18.97282020499989], [32.596068760000094, -18.96921935499995], [32.59435382700002, -18.96932437399994], [32.59493344300006, -18.98176124899993], [32.59580253600012, -18.981908521999912], [32.59385417599998, -18.983934559999966], [32.59220000800008, -18.98921745699994], [32.59547110600005, -18.991798765999874], [32.596153221000066, -18.993395490999944], [32.598556191000114, -18.992530590999934], [32.60354625300016, -18.99348398899997], [32.60373345100004, -18.994144599999913], [32.604609370000105, -18.994400260999953], [32.60487322800009, -18.995633506999923], [32.60612880600007, -18.99650631299994], [32.61009326400017, -18.996079645999885], [32.61058785000006, -18.99644324099995], [32.611959728000045, -18.996482378999815], [32.61594742700004, -18.993562729999894], [32.616786083000136, -18.99345570299994], [32.61795216500019, -18.9926404979999], [32.622179598000116, -18.99925970299995], [32.622623695000186, -19.001546152999936], [32.632892368000114, -19.00349671799995]]]]}}, {"type": "Feature", "properties": {"GID_3": "ZWE.3.7.6_2", "GID_0": "ZWE", "COUNTRY": "Zimbabwe", "GID_1": "ZWE.3_1", "NAME_1": "Manicaland", "NL_NAME_1": "NA", "GID_2": "ZWE.3.7_2", "NAME_2": "Mutare Urban", "NL_NAME_2": "NA", "NAME_3": "Ward 14", "VARNAME_3": "NA", "NL_NAME_3": "NA", "TYPE_3": "Ward", "ENGTYPE_3": "Ward", "CC_3": "NA", "HASC_3": "NA", "id": "ZWE.3.7.6_2", "name": "Ward 14"}, "geometry": {"type": "MultiPolygon", "coordinates": [[[[32.634312605000105, -18.9670815099999], [32.64403330600015, -18.960427720999917], [32.64471715800005, -18.963782126999945], [32.64623478700014, -18.964968475999967], [32.64567437200003, -18.968583484999897], [32.64690596300005, -18.97437156199993], [32.647939578000035, -18.975754213999835], [32.64752303400007, -18.976673877999872], [32.647431352000126, -18.976666666999904], [32.64676152800013, -18.97732989499991], [32.644757286000186, -18.977457554999887], [32.6416828830001, -18.978930718999948], [32.640865883000174, -18.97761732299989], [32.64068194300006, -18.97732161999994], [32.634312605000105, -18.9670815099999]]]]}}, {"type": "Feature", "properties": {"GID_3": "ZWE.3.7.7_2", "GID_0": "ZWE", "COUNTRY": "Zimbabwe", "GID_1": "ZWE.3_1", "NAME_1": "Manicaland", "NL_NAME_1": "NA", "GID_2": "ZWE.3.7_2", "NAME_2": "Mutare Urban", "NL_NAME_2": "NA", "NAME_3": "Ward 15", "VARNAME_3": "NA", "NL_NAME_3": "NA", "TYPE_3": "Ward", "ENGTYPE_3": "Ward", "CC_3": "NA", "HASC_3": "NA", "id": "ZWE.3.7.7_2", "name": "Ward 15"}, "geometry": {"type": "MultiPolygon", "coordinates": [[[[32.58657841700011, -19.034560642999963], [32.56385961200016, -19.047267917999932], [32.555713997000055, -19.048870276999935], [32.556330185000036, -19.047394325999903], [32.557345035000026, -19.045762985999943], [32.55765200700017, -19.04432215399993], [32.558464219000086, -19.04288253099992], [32.55937949300011, -19.040674312999897], [32.56090354800017, -19.037506490999817], [32.56283498900001, -19.03309025899989], [32.566081103000045, -19.0281965719999], [32.5679048, -19.02627874999996], [32.57023191600018, -19.02503481399998], [32.57144832100005, -19.02349996199996], [32.57244168800008, -19.02008975599989], [32.57397786200016, -19.018781078999893], [32.57443511100007, -19.019802750999872], [32.57535628900007, -19.019221658999925], [32.57612676600013, -19.017619597999897], [32.576280047000125, -19.017619948999936], [32.577508872000124, -19.016602142999886], [32.58088030300007, -19.01690142299998], [32.58275003500006, -19.01620577599988], [32.592642802000114, -19.013721437999948], [32.59718748600011, -19.01366850799991], [32.5974202970001, -19.01367787499987], [32.59744180900009, -19.014222370999903], [32.60032756300012, -19.015904748999958], [32.600512790000096, -19.01702506399988], [32.60109649600008, -19.017553464999935], [32.601895103000174, -19.020436872999937], [32.60158740600019, -19.0209100699999], [32.60285291000008, -19.02446031199986], [32.603059743000074, -19.026119264999977], [32.60346345500005, -19.02698493899993], [32.60443918700014, -19.030259186999956], [32.59388217600019, -19.030337209999914], [32.58652127300019, -19.034433561999947], [32.58657841700011, -19.034560642999963]]]]}}, {"type": "Feature", "properties": {"GID_3": "ZWE.3.7.8_2", "GID_0": "ZWE", "COUNTRY": "Zimbabwe", "GID_1": "ZWE.3_1", "NAME_1": "Manicaland", "NL_NAME_1": "NA", "GID_2": "ZWE.3.7_2", "NAME_2": "Mutare Urban", "NL_NAME_2": "NA", "NAME_3": "Ward 16", "VARNAME_3": "NA", "NL_NAME_3": "NA", "TYPE_3": "Ward", "ENGTYPE_3": "Ward", "CC_3": "NA", "HASC_3": "NA", "id": "ZWE.3.7.8_2", "name": "Ward 16"}, "geometry": {"type": "MultiPolygon", "coordinates": [[[[32.6416828830001, -18.978930718999948], [32.6420508920001, -18.97952231599993], [32.641888523000034, -18.979780839999933], [32.64046494400014, -18.97920391599996], [32.6389788780001, -18.97916476899985], [32.636348054, -18.979848475999916], [32.63093838700013, -18.97918517299985], [32.62937547100017, -18.979435839999894], [32.62651249400017, -18.981677927999954], [32.62349050200004, -18.98189036599996], [32.62158770100007, -18.980762566999886], [32.61332109900019, -18.979657822999968], [32.60996986000009, -18.978744407999955], [32.60871447800014, -18.97783537299989], [32.60539472300019, -18.973263812999903], [32.604371750000155, -18.97282020499989], [32.60802654700012, -18.97123144699998], [32.61065519700003, -18.969215897999902], [32.62040525400005, -18.967452814999888], [32.62727553300016, -18.96829897999993], [32.631755924, -18.967890471999965], [32.634312605000105, -18.9670815099999], [32.64068194300006, -18.97732161999994], [32.640865883000174, -18.97761732299989], [32.6416828830001, -18.978930718999948]]]]}}, {"type": "Feature", "properties": {"GID_3": "ZWE.3.7.9_2", "GID_0": "ZWE", "COUNTRY": "Zimbabwe", "GID_1": "ZWE.3_1", "NAME_1": "Manicaland", "NL_NAME_1": "NA", "GID_2": "ZWE.3.7_2", "NAME_2": "Mutare Urban", "NL_NAME_2": "NA", "NAME_3": "Ward 17", "VARNAME_3": "NA", "NL_NAME_3": "NA", "TYPE_3": "Ward", "ENGTYPE_3": "Ward", "CC_3": "NA", "HASC_3": "NA", "id": "ZWE.3.7.9_2", "name": "Ward 17"}, "geometry": {"type": "MultiPolygon", "coordinates": [[[[32.64478056900009, -18.9809528319999], [32.642831467000065, -18.982153009999934], [32.64184719800011, -18.982085382999912], [32.64171838200008, -18.982076531999894], [32.641622994000045, -18.981017188999886], [32.640099179000174, -18.98121863199998], [32.639632844, -18.980102821999935], [32.63806964100007, -18.980294796999885], [32.63635165100004, -18.982369663999975], [32.63498394200013, -18.98262711599989], [32.63185993900004, -18.982212132999905], [32.63197483700009, -18.983252936999975], [32.63105719800012, -18.984051021999903], [32.630957866000074, -18.984812673999954], [32.63011627500015, -18.985610006999934], [32.630614376000096, -18.987175625999896], [32.63059136200013, -18.988755023999943], [32.63006340400017, -18.989496981999935], [32.62852132300003, -18.990444167999897], [32.6274036210001, -18.990606801999945], [32.624467789000164, -18.989873656999862], [32.62393410300007, -18.990345762999937], [32.62180618300005, -18.992228108999882], [32.620496842000136, -18.99254131699996], [32.618309624000176, -18.992388164999966], [32.617967309, -18.99262980799989], [32.61795216500019, -18.9926404979999], [32.616786083000136, -18.99345570299994], [32.61594742700004, -18.993562729999894], [32.611959728000045, -18.996482378999815], [32.61058785000006, -18.99644324099995], [32.61009326400017, -18.996079645999885], [32.60612880600007, -18.99650631299994], [32.60487322800009, -18.995633506999923], [32.604609370000105, -18.994400260999953], [32.60373345100004, -18.994144599999913], [32.60354625300016, -18.99348398899997], [32.598556191000114, -18.992530590999934], [32.596153221000066, -18.993395490999944], [32.59547110600005, -18.991798765999874], [32.59220000800008, -18.98921745699994], [32.59385417599998, -18.983934559999966], [32.59580253600012, -18.981908521999912], [32.59493344300006, -18.98176124899993], [32.59435382700002, -18.96932437399994], [32.596068760000094, -18.96921935499995], [32.604371750000155, -18.97282020499989], [32.60539472300019, -18.973263812999903], [32.60871447800014, -18.97783537299989], [32.60996986000009, -18.978744407999955], [32.61332109900019, -18.979657822999968], [32.62158770100007, -18.980762566999886], [32.62349050200004, -18.98189036599996], [32.62651249400017, -18.981677927999954], [32.62937547100017, -18.979435839999894], [32.63093838700013, -18.97918517299985], [32.636348054, -18.979848475999916], [32.6389788780001, -18.97916476899985], [32.64046494400014, -18.97920391599996], [32.641888523000034, -18.979780839999933], [32.64478056900009, -18.9809528319999]]]]}}, {"type": "Feature", "properties": {"GID_3": "ZWE.3.7.10_2", "GID_0": "ZWE", "COUNTRY": "Zimbabwe", "GID_1": "ZWE.3_1", "NAME_1": "Manicaland", "NL_NAME_1": "NA", "GID_2": "ZWE.3.7_2", "NAME_2": "Mutare Urban", "NL_NAME_2": "NA", "NAME_3": "Ward 18", "VARNAME_3": "NA", "NL_NAME_3": "NA", "TYPE_3": "Ward", "ENGTYPE_3": "Ward", "CC_3": "NA", "HASC_3": "NA", "id": "ZWE.3.7.10_2", "name": "Ward 18"}, "geometry": {"type": "MultiPolygon", "coordinates": [[[[32.61806997000008, -19.005147551999926], [32.618376739000155, -19.00499469099998], [32.6215846500001, -19.006222987999934], [32.626098052000145, -19.03009722299987], [32.60443918700014, -19.030259186999956], [32.60346345500005, -19.02698493899993], [32.603059743000074, -19.026119264999977], [32.60285291000008, -19.02446031199986], [32.60158740600019, -19.0209100699999], [32.601895103000174, -19.020436872999937], [32.60109649600008, -19.017553464999935], [32.60196583500016, -19.018340425999952], [32.60231132600006, -19.018086013999948], [32.60250162900007, -19.01863318499983], [32.60357417400007, -19.018817741999896], [32.60479836700006, -19.019695182999953], [32.605374298000186, -19.019222552999906], [32.60732754300005, -19.019700572999966], [32.60858111400012, -19.01956787099988], [32.60863077800013, -19.019573976999936], [32.615141066000035, -19.013833856999895], [32.61631631700004, -19.01230954999994], [32.61806997000008, -19.005147551999926]]]]}}, {"type": "Feature", "properties": {"GID_3": "ZWE.3.7.11_2", "GID_0": "ZWE", "COUNTRY": "Zimbabwe", "GID_1": "ZWE.3_1", "NAME_1": "Manicaland", "NL_NAME_1": "NA", "GID_2": "ZWE.3.7_2", "NAME_2": "Mutare Urban", "NL_NAME_2": "NA", "NAME_3": "Ward 19", "VARNAME_3": "NA", "NL_NAME_3": "NA", "TYPE_3": "Ward", "ENGTYPE_3": "Ward", "CC_3": "NA", "HASC_3": "NA", "id": "ZWE.3.7.11_2", "name": "Ward 19"}, "geometry": {"type": "MultiPolygon", "coordinates": [[[[32.63163548000017, -19.005117609999957], [32.631727777000094, -19.005205777999947], [32.642221797000104, -19.006500932999927], [32.644821588000184, -19.00802891199993], [32.64724281700006, -19.008479506999834], [32.65187233800003, -19.008469697999885], [32.65412310500017, -19.007062611999913], [32.66068644800009, -19.001594457999943], [32.66201791100008, -18.999998867999977], [32.662002430000086, -18.99799201299993], [32.66387752600019, -18.998741953999968], [32.666776213000105, -18.999083468999913], [32.66718917600008, -18.999243887999967], [32.66826100900005, -19.003769808999948], [32.677540674, -19.011806030999935], [32.68899189399997, -19.01511582699993], [32.69093447900002, -19.016764174999878], [32.68836304000018, -19.018744366999954], [32.68747056100017, -19.019431620999967], [32.685488128000145, -19.038963661999958], [32.68656146700005, -19.043078198999922], [32.68893372200017, -19.046372378999934], [32.67377696800003, -19.057244880999974], [32.66736005800004, -19.046760525999957], [32.66725935500011, -19.046529439999972], [32.66173314100013, -19.0500186779999], [32.649773883000194, -19.05043378299996], [32.64410474600004, -19.04881910499995], [32.64150441200013, -19.046043812999983], [32.64334847000015, -19.044006139999965], [32.63584568100009, -19.039763201999904], [32.633693054000105, -19.04267500799989], [32.626098052000145, -19.03009722299987], [32.6215846500001, -19.006222987999934], [32.62658570700006, -19.009653929999843], [32.628767943000184, -19.010147005999954], [32.63223585000014, -19.01003176599994], [32.63237979000013, -19.009702059999825], [32.63163548000017, -19.005117609999957]]]]}}, {"type": "Feature", "properties": {"GID_3": "ZWE.3.7.12_2", "GID_0": "ZWE", "COUNTRY": "Zimbabwe", "GID_1": "ZWE.3_1", "NAME_1": "Manicaland", "NL_NAME_1": "NA", "GID_2": "ZWE.3.7_2", "NAME_2": "Mutare Urban", "NL_NAME_2": "NA", "NAME_3": "Ward 2", "VARNAME_3": "NA", "NL_NAME_3": "NA", "TYPE_3": "Ward", "ENGTYPE_3": "Ward", "CC_3": "NA", "HASC_3": "NA", "id": "ZWE.3.7.12_2", "name": "Ward 2"}, "geometry": {"type": "MultiPolygon", "coordinates": [[[[32.64746448000017, -18.985361841999918], [32.64898529300018, -18.987032487999954], [32.65062273100011, -18.987615673999983], [32.65035362800012, -18.98873908799993], [32.65107746200016, -18.988849220999896], [32.65118808800008, -18.990625950999913], [32.64924271300015, -18.991492406999953], [32.650199153000074, -18.993142656999964], [32.648759454000015, -18.994186828999943], [32.648083420000034, -18.99372625099994], [32.648359160000155, -18.99349955999992], [32.647667189000174, -18.992311493999864], [32.64545432000011, -18.993503699999906], [32.64480238100009, -18.991343189999952], [32.64412980700007, -18.98911423999982], [32.643955499000185, -18.988465958999825], [32.644023321000134, -18.988456849999977], [32.64604955200019, -18.988339099999962], [32.64582188700007, -18.987514758999907], [32.646128108000084, -18.986591980999947], [32.64746448000017, -18.985361841999918]]]]}}, {"type": "Feature", "properties": {"GID_3": "ZWE.3.7.13_2", "GID_0": "ZWE", "COUNTRY": "Zimbabwe", "GID_1": "ZWE.3_1", "NAME_1": "Manicaland", "NL_NAME_1": "NA", "GID_2": "ZWE.3.7_2", "NAME_2": "Mutare Urban", "NL_NAME_2": "NA", "NAME_3": "Ward 3", "VARNAME_3": "NA", "NL_NAME_3": "NA", "TYPE_3": "Ward", "ENGTYPE_3": "Ward", "CC_3": "NA", "HASC_3": "NA", "id": "ZWE.3.7.13_2", "name": "Ward 3"}, "geometry": {"type": "MultiPolygon", "coordinates": [[[[32.648759454000015, -18.994186828999943], [32.64867333600017, -18.994249287999878], [32.64739335100006, -18.995177601999956], [32.639257013000076, -18.999845608999976], [32.632892368000114, -19.00349671799995], [32.622623695000186, -19.001546152999936], [32.622179598000116, -18.99925970299995], [32.61795216500019, -18.9926404979999], [32.617967309, -18.99262980799989], [32.618309624000176, -18.992388164999966], [32.620496842000136, -18.99254131699996], [32.62180618300005, -18.992228108999882], [32.62393410300007, -18.990345762999937], [32.62490647300007, -18.992094633999955], [32.62657925400015, -18.99366526199998], [32.6271122010001, -18.994165652999982], [32.62947315100007, -18.99500427099997], [32.63575200499997, -18.995023405999973], [32.6355279230001, -18.99292014699995], [32.63670931300015, -18.99292246999994], [32.636707897000065, -18.99357506599995], [32.63926185900016, -18.993290017999982], [32.64480238100009, -18.991343189999952], [32.64545432000011, -18.993503699999906], [32.647667189000174, -18.992311493999864], [32.648359160000155, -18.99349955999992], [32.648083420000034, -18.99372625099994], [32.648759454000015, -18.994186828999943]]]]}}, {"type": "Feature", "properties": {"GID_3": "ZWE.3.7.14_2", "GID_0": "ZWE", "COUNTRY": "Zimbabwe", "GID_1": "ZWE.3_1", "NAME_1": "Manicaland", "NL_NAME_1": "NA", "GID_2": "ZWE.3.7_2", "NAME_2": "Mutare Urban", "NL_NAME_2": "NA", "NAME_3": "Ward 4", "VARNAME_3": "NA", "NL_NAME_3": "NA", "TYPE_3": "Ward", "ENGTYPE_3": "Ward", "CC_3": "NA", "HASC_3": "NA", "id": "ZWE.3.7.14_2", "name": "Ward 4"}, "geometry": {"type": "MultiPolygon", "coordinates": [[[[32.643955499000185, -18.988465958999825], [32.64412980700007, -18.98911423999982], [32.64480238100009, -18.991343189999952], [32.63926185900016, -18.993290017999982], [32.636707897000065, -18.99357506599995], [32.63670931300015, -18.99292246999994], [32.6355279230001, -18.99292014699995], [32.63575200499997, -18.995023405999973], [32.62947315100007, -18.99500427099997], [32.6271122010001, -18.994165652999982], [32.62657925400015, -18.99366526199998], [32.62966488200004, -18.991825778999896], [32.63054238700005, -18.991559376999874], [32.631370090000075, -18.992284240999936], [32.63531097800018, -18.991503088999934], [32.63503784100004, -18.989990376999913], [32.63918470500016, -18.989801267999894], [32.639252254000155, -18.99052461399998], [32.64022032500003, -18.990263510999966], [32.639877473000126, -18.98901365699993], [32.643955499000185, -18.988465958999825]]]]}}, {"type": "Feature", "properties": {"GID_3": "ZWE.3.7.15_2", "GID_0": "ZWE", "COUNTRY": "Zimbabwe", "GID_1": "ZWE.3_1", "NAME_1": "Manicaland", "NL_NAME_1": "NA", "GID_2": "ZWE.3.7_2", "NAME_2": "Mutare Urban", "NL_NAME_2": "NA", "NAME_3": "Ward 5", "VARNAME_3": "NA", "NL_NAME_3": "NA", "TYPE_3": "Ward", "ENGTYPE_3": "Ward", "CC_3": "NA", "HASC_3": "NA", "id": "ZWE.3.7.15_2", "name": "Ward 5"}, "geometry": {"type": "MultiPolygon", "coordinates": [[[[32.64528929800014, -18.98279711099991], [32.645327986000154, -18.983975001999966], [32.64705121700018, -18.984995450999975], [32.64746448000017, -18.985361841999918], [32.646128108000084, -18.986591980999947], [32.64582188700007, -18.987514758999907], [32.64604955200019, -18.988339099999962], [32.644023321000134, -18.988456849999977], [32.643955499000185, -18.988465958999825], [32.639877473000126, -18.98901365699993], [32.64022032500003, -18.990263510999966], [32.639252254000155, -18.99052461399998], [32.63918470500016, -18.989801267999894], [32.63503784100004, -18.989990376999913], [32.63531097800018, -18.991503088999934], [32.631370090000075, -18.992284240999936], [32.63054238700005, -18.991559376999874], [32.62966488200004, -18.991825778999896], [32.62657925400015, -18.99366526199998], [32.62490647300007, -18.992094633999955], [32.62393410300007, -18.990345762999937], [32.624467789000164, -18.989873656999862], [32.6274036210001, -18.990606801999945], [32.62852132300003, -18.990444167999897], [32.63006340400017, -18.989496981999935], [32.63059136200013, -18.988755023999943], [32.630614376000096, -18.987175625999896], [32.63011627500015, -18.985610006999934], [32.630957866000074, -18.984812673999954], [32.63105719800012, -18.984051021999903], [32.63197483700009, -18.983252936999975], [32.63185993900004, -18.982212132999905], [32.63498394200013, -18.98262711599989], [32.63635165100004, -18.982369663999975], [32.63806964100007, -18.980294796999885], [32.639632844, -18.980102821999935], [32.640099179000174, -18.98121863199998], [32.641622994000045, -18.981017188999886], [32.64171838200008, -18.982076531999894], [32.64184719800011, -18.982085382999912], [32.64528929800014, -18.98279711099991]]]]}}, {"type": "Feature", "properties": {"GID_3": "ZWE.3.7.16_2", "GID_0": "ZWE", "COUNTRY": "Zimbabwe", "GID_1": "ZWE.3_1", "NAME_1": "Manicaland", "NL_NAME_1": "NA", "GID_2": "ZWE.3.7_2", "NAME_2": "Mutare Urban", "NL_NAME_2": "NA", "NAME_3": "Ward 6", "VARNAME_3": "NA", "NL_NAME_3": "NA", "TYPE_3": "Ward", "ENGTYPE_3": "Ward", "CC_3": "NA", "HASC_3": "NA", "id": "ZWE.3.7.16_2", "name": "Ward 6"}, "geometry": {"type": "MultiPolygon", "coordinates": [[[[32.58650236300019, -18.9950954869999], [32.59774897400001, -18.99867749499998], [32.59772878900003, -18.99873742899996], [32.59661748000019, -19.002300353999885], [32.59549484200005, -19.003363417999935], [32.59206013600004, -19.00328484099998], [32.591984772000046, -19.00356881199997], [32.593327131000024, -19.004282111999885], [32.59295135400009, -19.005275766999944], [32.595635776000165, -19.006844411999907], [32.59488831900006, -19.01028797399988], [32.594876275000104, -19.010322428999928], [32.592119226000136, -19.009678063999957], [32.58981233900016, -19.00640538199997], [32.58817163900011, -19.00554932299997], [32.58511166300008, -19.004903174999868], [32.58586681800011, -19.001495218999878], [32.585502259000066, -18.99794268299985], [32.58625158000012, -18.996878844999912], [32.58650236300019, -18.9950954869999]]]]}}, {"type": "Feature", "properties": {"GID_3": "ZWE.3.7.17_2", "GID_0": "ZWE", "COUNTRY": "Zimbabwe", "GID_1": "ZWE.3_1", "NAME_1": "Manicaland", "NL_NAME_1": "NA", "GID_2": "ZWE.3.7_2", "NAME_2": "Mutare Urban", "NL_NAME_2": "NA", "NAME_3": "Ward 7", "VARNAME_3": "NA", "NL_NAME_3": "NA", "TYPE_3": "Ward", "ENGTYPE_3": "Ward", "CC_3": "NA", "HASC_3": "NA", "id": "ZWE.3.7.17_2", "name": "Ward 7"}, "geometry": {"type": "MultiPolygon", "coordinates": [[[[32.52193168000008, -18.97316582699989], [32.522818542000095, -18.974796689999835], [32.58650236300019, -18.9950954869999], [32.58625158000012, -18.996878844999912], [32.585502259000066, -18.99794268299985], [32.58586681800011, -19.001495218999878], [32.58511166300008, -19.004903174999868], [32.58817163900011, -19.00554932299997], [32.58981233900016, -19.00640538199997], [32.592119226000136, -19.009678063999957], [32.594876275000104, -19.010322428999928], [32.594256568000105, -19.012095184999964], [32.592642802000114, -19.013721437999948], [32.58275003500006, -19.01620577599988], [32.58088030300007, -19.01690142299998], [32.577508872000124, -19.016602142999886], [32.576280047000125, -19.017619948999936], [32.57612676600013, -19.017619597999897], [32.57535628900007, -19.019221658999925], [32.57443511100007, -19.019802750999872], [32.57397786200016, -19.018781078999893], [32.57244168800008, -19.02008975599989], [32.57144832100005, -19.02349996199996], [32.57023191600018, -19.02503481399998], [32.5679048, -19.02627874999996], [32.566081103000045, -19.0281965719999], [32.56283498900001, -19.03309025899989], [32.56090354800017, -19.037506490999817], [32.55937949300011, -19.040674312999897], [32.558464219000086, -19.04288253099992], [32.55765200700017, -19.04432215399993], [32.557345035000026, -19.045762985999943], [32.556330185000036, -19.047394325999903], [32.555713997000055, -19.048870276999935], [32.53283149200007, -19.053369493999867], [32.53292242400016, -19.052864600999897], [32.52810055000015, -19.010471365999877], [32.52805855100013, -19.010165342999983], [32.52654059200006, -18.999716544999956], [32.52631959800004, -18.999516529999937], [32.52631959800004, -18.999354516999972], [32.52193168000008, -18.97316582699989]]]]}}, {"type": "Feature", "properties": {"GID_3": "ZWE.3.7.18_2", "GID_0": "ZWE", "COUNTRY": "Zimbabwe", "GID_1": "ZWE.3_1", "NAME_1": "Manicaland", "NL_NAME_1": "NA", "GID_2": "ZWE.3.7_2", "NAME_2": "Mutare Urban", "NL_NAME_2": "NA", "NAME_3": "Ward 8", "VARNAME_3": "NA", "NL_NAME_3": "NA", "TYPE_3": "Ward", "ENGTYPE_3": "Ward", "CC_3": "NA", "HASC_3": "NA", "id": "ZWE.3.7.18_2", "name": "Ward 8"}, "geometry": {"type": "MultiPolygon", "coordinates": [[[[32.59774897400001, -18.99867749499998], [32.60636611300009, -19.001421461999826], [32.60624827600003, -19.001672427999893], [32.603772934000176, -19.00778688299988], [32.603620390000174, -19.009136209999895], [32.60182382000005, -19.010979244999874], [32.601971817000106, -19.011547838999945], [32.60017554300015, -19.013248787999828], [32.599054214000034, -19.01374360099993], [32.5974202970001, -19.01367787499987], [32.59718748600011, -19.01366850799991], [32.592642802000114, -19.013721437999948], [32.594256568000105, -19.012095184999964], [32.594876275000104, -19.010322428999928], [32.59488831900006, -19.01028797399988], [32.595635776000165, -19.006844411999907], [32.59295135400009, -19.005275766999944], [32.593327131000024, -19.004282111999885], [32.591984772000046, -19.00356881199997], [32.59206013600004, -19.00328484099998], [32.59549484200005, -19.003363417999935], [32.59661748000019, -19.002300353999885], [32.59772878900003, -18.99873742899996], [32.59774897400001, -18.99867749499998]]]]}}, {"type": "Feature", "properties": {"GID_3": "ZWE.3.7.19_2", "GID_0": "ZWE", "COUNTRY": "Zimbabwe", "GID_1": "ZWE.3_1", "NAME_1": "Manicaland", "NL_NAME_1": "NA", "GID_2": "ZWE.3.7_2", "NAME_2": "Mutare Urban", "NL_NAME_2": "NA", "NAME_3": "Ward 9", "VARNAME_3": "NA", "NL_NAME_3": "NA", "TYPE_3": "Ward", "ENGTYPE_3": "Ward", "CC_3": "NA", "HASC_3": "NA", "id": "ZWE.3.7.19_2", "name": "Ward 9"}, "geometry": {"type": "MultiPolygon", "coordinates": [[[[32.60636611300009, -19.001421461999826], [32.61806997000008, -19.005147551999926], [32.61631631700004, -19.01230954999994], [32.615141066000035, -19.013833856999895], [32.60863077800013, -19.019573976999936], [32.60858111400012, -19.01956787099988], [32.60732754300005, -19.019700572999966], [32.605374298000186, -19.019222552999906], [32.60479836700006, -19.019695182999953], [32.60357417400007, -19.018817741999896], [32.60250162900007, -19.01863318499983], [32.60231132600006, -19.018086013999948], [32.60196583500016, -19.018340425999952], [32.60109649600008, -19.017553464999935], [32.600512790000096, -19.01702506399988], [32.60032756300012, -19.015904748999958], [32.59744180900009, -19.014222370999903], [32.5974202970001, -19.01367787499987], [32.599054214000034, -19.01374360099993], [32.60017554300015, -19.013248787999828], [32.601971817000106, -19.011547838999945], [32.60182382000005, -19.010979244999874], [32.603620390000174, -19.009136209999895], [32.603772934000176, -19.00778688299988], [32.60624827600003, -19.001672427999893], [32.60636611300009, -19.001421461999826]]]]}}]}