{"type": "FeatureCollection", "features": [{"type": "Feature", "properties": {"GID_3": "ZWE.3.10.1_2", "GID_0": "ZWE", "COUNTRY": "Zimbabwe", "GID_1": "ZWE.3_1", "NAME_1": "Manicaland", "NL_NAME_1": "NA", "GID_2": "ZWE.3.10_2", "NAME_2": "Rusape", "NL_NAME_2": "NA", "NAME_3": "Ward 1", "VARNAME_3": "NA", "NL_NAME_3": "NA", "TYPE_3": "Ward", "ENGTYPE_3": "Ward", "CC_3": "NA", "HASC_3": "NA", "id": "ZWE.3.10.1_2", "name": "Ward 1"}, "geometry": {"type": "MultiPolygon", "coordinates": [[[[32.13127224400006, -18.549664848999953], [32.13025502400012, -18.549272442999893], [32.12942691600017, -18.54972878799998], [32.12913510400017, -18.552718274999904], [32.128139519000115, -18.553569447999962], [32.127981289, -18.553686856999946], [32.12431790800002, -18.556022603999907], [32.123954432000176, -18.555982373999882], [32.123265527000115, -18.556364615999883], [32.12249875600014, -18.55616833199997], [32.12248247800005, -18.556178573999944], [32.12304720700013, -18.553866221999954], [32.12430602500001, -18.55209943099993], [32.12462350200008, -18.551252931999898], [32.12457361400004, -18.55024270399997], [32.12429474500016, -18.549460891999956], [32.12330284600006, -18.5478567049999], [32.12244954199997, -18.54878743699993], [32.11704539300007, -18.545807099999877], [32.11872702200003, -18.543115984999872], [32.11873217200008, -18.54310647899996], [32.119513452000035, -18.54166422099985], [32.12023362900004, -18.53956169099996], [32.120629998000084, -18.53840447899995], [32.12121682900005, -18.536691176999966], [32.124371801000166, -18.536001805999945], [32.124384656000075, -18.53599899699998], [32.125953402000164, -18.542271832999916], [32.126435629000184, -18.543175600999916], [32.126776501000165, -18.543683236999925], [32.126792497000054, -18.543699456999946], [32.13064410200013, -18.54606864999994], [32.13065901500005, -18.546054095999978], [32.13302923900005, -18.548269792999974], [32.13256287300004, -18.548630098999865], [32.131304887, -18.549636656999837], [32.13127224400006, -18.549664848999953]]]]}}, {"type": "Feature", "properties": {"GID_3": "ZWE.3.10.2_2", "GID_0": "ZWE", "COUNTRY": "Zimbabwe", "GID_1": "ZWE.3_1", "NAME_1": "Manicaland", "NL_NAME_1": "NA", "GID_2": "ZWE.3.10_2", "NAME_2": "Rusape", "NL_NAME_2": "NA", "NAME_3": "Ward 10", "VARNAME_3": "NA", "NL_NAME_3": "NA", "TYPE_3": "Ward", "ENGTYPE_3": "Ward", "CC_3": "NA", "HASC_3": "NA", "id": "ZWE.3.10.2_2", "name": "Ward 10"}, "geometry": {"type": "MultiPolygon", "coordinates": [[[[32.13540920200006, -18.511645987999827], [32.144370200000026, -18.52827834199985], [32.13775026000013, -18.528840408999883], [32.13569676800006, -18.52900967399995], [32.12867498300005, -18.53072481299995], [32.12825479700007, -18.529054394999946], [32.12333770500004, -18.529726042999982], [32.124371801000166, -18.536001805999945], [32.12121682900005, -18.536691176999966], [32.120629998000084, -18.53840447899995], [32.11958728200011, -18.53833540799991], [32.11835768100008, -18.53779969099992], [32.11759099900007, -18.53760338999996], [32.1171137660001, -18.537840797999934], [32.11560100500009, -18.53737119199991], [32.11456917400005, -18.537665074999893], [32.113690443999985, -18.537651318999906], [32.113348678000136, -18.53782595399997], [32.112538821000044, -18.537745816999973], [32.11258079300012, -18.537172855999927], [32.11267204800015, -18.536690373999875], [32.11303746900006, -18.53634519299993], [32.11308482400017, -18.535796597999934], [32.11308897100008, -18.53574855199986], [32.113097777000064, -18.535724435999896], [32.11244074700011, -18.532343324999943], [32.11225708899997, -18.53135669999989], [32.11291054400016, -18.529634515999874], [32.11303801100013, -18.528420972999925], [32.113584573000026, -18.528201907999915], [32.113777344000084, -18.52761580899994], [32.11352029600016, -18.527069192999818], [32.11352877500002, -18.526238244999888], [32.113814136000144, -18.525896442999965], [32.114807330000076, -18.52524584599996], [32.11602153200016, -18.52482754199997], [32.11678907300018, -18.524118215999977], [32.117391695000094, -18.52276874399996], [32.11817642500017, -18.522067456999935], [32.1186876320001, -18.521183618999828], [32.11985172900006, -18.52060494099993], [32.12053047300009, -18.51998371499991], [32.121072063000156, -18.51989062299998], [32.12151765500005, -18.519449582999982], [32.12293526600001, -18.518831779999914], [32.12354624900007, -18.51907630999989], [32.12502769400015, -18.518358079999814], [32.12545185400006, -18.517977354999914], [32.12547929900012, -18.51767499099998], [32.125486906000106, -18.517591178999965], [32.12588959400006, -18.51554376999991], [32.125892298999986, -18.515530019999915], [32.12581683500014, -18.51532156299993], [32.125916061, -18.513867440999945], [32.12630044100018, -18.513003133999916], [32.12649441700006, -18.512218512999937], [32.12782720600012, -18.511660701999972], [32.12783944800009, -18.51165902999992], [32.12892042200019, -18.51113455799998], [32.13032828900003, -18.51064820499994], [32.13085811700017, -18.510086379999905], [32.131202180000116, -18.509317075999945], [32.13155404800011, -18.509076724999943], [32.132732207000174, -18.509003647999975], [32.13364264000012, -18.5094539829999], [32.13426299300016, -18.509518276999927], [32.13540920200006, -18.511645987999827]]]]}}, {"type": "Feature", "properties": {"GID_3": "ZWE.3.10.3_2", "GID_0": "ZWE", "COUNTRY": "Zimbabwe", "GID_1": "ZWE.3_1", "NAME_1": "Manicaland", "NL_NAME_1": "NA", "GID_2": "ZWE.3.10_2", "NAME_2": "Rusape", "NL_NAME_2": "NA", "NAME_3": "Ward 2", "VARNAME_3": "NA", "NL_NAME_3": "NA", "TYPE_3": "Ward", "ENGTYPE_3": "Ward", "CC_3": "NA", "HASC_3": "NA", "id": "ZWE.3.10.3_2", "name": "Ward 2"}, "geometry": {"type": "MultiPolygon", "coordinates": [[[[32.11252751200004, -18.537900185999888], [32.112538821000044, -18.537745816999973], [32.113348678000136, -18.53782595399997], [32.113690443999985, -18.537651318999906], [32.11456917400005, -18.537665074999893], [32.11560100500009, -18.53737119199991], [32.1171137660001, -18.537840797999934], [32.11759099900007, -18.53760338999996], [32.11835768100008, -18.53779969099992], [32.11958728200011, -18.53833540799991], [32.120629998000084, -18.53840447899995], [32.12023362900004, -18.53956169099996], [32.12002305800013, -18.539594312999895], [32.11973633000002, -18.540354224999817], [32.11894281400009, -18.54144903399998], [32.11720090800003, -18.540352026999813], [32.11252751200004, -18.537900185999888]]]]}}, {"type": "Feature", "properties": {"GID_3": "ZWE.3.10.4_2", "GID_0": "ZWE", "COUNTRY": "Zimbabwe", "GID_1": "ZWE.3_1", "NAME_1": "Manicaland", "NL_NAME_1": "NA", "GID_2": "ZWE.3.10_2", "NAME_2": "Rusape", "NL_NAME_2": "NA", "NAME_3": "Ward 3", "VARNAME_3": "NA", "NL_NAME_3": "NA", "TYPE_3": "Ward", "ENGTYPE_3": "Ward", "CC_3": "NA", "HASC_3": "NA", "id": "ZWE.3.10.4_2", "name": "Ward 3"}, "geometry": {"type": "MultiPolygon", "coordinates": [[[[32.111824916000046, -18.540209642999912], [32.11239396000019, -18.53972326199994], [32.11252751200004, -18.537900185999888], [32.11720090800003, -18.540352026999813], [32.11894281400009, -18.54144903399998], [32.11973633000002, -18.540354224999817], [32.12002305800013, -18.539594312999895], [32.12023362900004, -18.53956169099996], [32.119513452000035, -18.54166422099985], [32.11873217200008, -18.54310647899996], [32.11644007800015, -18.541928582999958], [32.11621790100014, -18.54191790799996], [32.11576002700008, -18.542561378999892], [32.115296413000124, -18.542356850999965], [32.11510339800003, -18.542567938999923], [32.111824916000046, -18.540209642999912]]]]}}, {"type": "Feature", "properties": {"GID_3": "ZWE.3.10.5_2", "GID_0": "ZWE", "COUNTRY": "Zimbabwe", "GID_1": "ZWE.3_1", "NAME_1": "Manicaland", "NL_NAME_1": "NA", "GID_2": "ZWE.3.10_2", "NAME_2": "Rusape", "NL_NAME_2": "NA", "NAME_3": "Ward 4", "VARNAME_3": "NA", "NL_NAME_3": "NA", "TYPE_3": "Ward", "ENGTYPE_3": "Ward", "CC_3": "NA", "HASC_3": "NA", "id": "ZWE.3.10.5_2", "name": "Ward 4"}, "geometry": {"type": "MultiPolygon", "coordinates": [[[[32.10624381700018, -18.545653365999954], [32.10614830700007, -18.545482698999933], [32.106046385000184, -18.545452027999886], [32.10527229000019, -18.544137945999978], [32.10559854000019, -18.543561329999875], [32.106095907, -18.543101156999967], [32.10765099400015, -18.543204870999944], [32.10827032100019, -18.543457097999863], [32.10897549400016, -18.54347010099997], [32.10955603500014, -18.542968219999977], [32.109980147000044, -18.542890759999977], [32.11070197100008, -18.54199800999993], [32.11108736000011, -18.54170110699988], [32.11138607200013, -18.54058473399988], [32.111824916000046, -18.540209642999912], [32.11510339800003, -18.542567938999923], [32.115296413000124, -18.542356850999965], [32.11576002700008, -18.542561378999892], [32.11621790100014, -18.54191790799996], [32.11644007800015, -18.541928582999958], [32.11873217200008, -18.54310647899996], [32.11872702200003, -18.543115984999872], [32.11704539300007, -18.545807099999877], [32.11703211500003, -18.5458276949999], [32.11104021400013, -18.545279576999917], [32.10694348200008, -18.54536139199996], [32.10624381700018, -18.545653365999954]]]]}}, {"type": "Feature", "properties": {"GID_3": "ZWE.3.10.6_2", "GID_0": "ZWE", "COUNTRY": "Zimbabwe", "GID_1": "ZWE.3_1", "NAME_1": "Manicaland", "NL_NAME_1": "NA", "GID_2": "ZWE.3.10_2", "NAME_2": "Rusape", "NL_NAME_2": "NA", "NAME_3": "Ward 5", "VARNAME_3": "NA", "NL_NAME_3": "NA", "TYPE_3": "Ward", "ENGTYPE_3": "Ward", "CC_3": "NA", "HASC_3": "NA", "id": "ZWE.3.10.6_2", "name": "Ward 5"}, "geometry": {"type": "MultiPolygon", "coordinates": [[[[32.11469611000007, -18.556674251999937], [32.113444812000125, -18.55661779199994], [32.10900492100018, -18.555633283999953], [32.108976742000095, -18.555437088999952], [32.108029954000074, -18.54884492899987], [32.10624381700018, -18.545653365999954], [32.10694348200008, -18.54536139199996], [32.11104021400013, -18.545279576999917], [32.11703211500003, -18.5458276949999], [32.11584380800019, -18.547670866999965], [32.11469611000007, -18.556674251999937]]]]}}, {"type": "Feature", "properties": {"GID_3": "ZWE.3.10.7_2", "GID_0": "ZWE", "COUNTRY": "Zimbabwe", "GID_1": "ZWE.3_1", "NAME_1": "Manicaland", "NL_NAME_1": "NA", "GID_2": "ZWE.3.10_2", "NAME_2": "Rusape", "NL_NAME_2": "NA", "NAME_3": "Ward 6", "VARNAME_3": "NA", "NL_NAME_3": "NA", "TYPE_3": "Ward", "ENGTYPE_3": "Ward", "CC_3": "NA", "HASC_3": "NA", "id": "ZWE.3.10.7_2", "name": "Ward 6"}, "geometry": {"type": "MultiPolygon", "coordinates": [[[[32.12248247800005, -18.556178573999944], [32.121769045000065, -18.556627467999874], [32.12132736300015, -18.55607649299992], [32.12068103100012, -18.55603493899997], [32.11991110500003, -18.556455335999942], [32.119063127000175, -18.556335746999878], [32.11841620200005, -18.55640981499988], [32.11821198400003, -18.556832845999907], [32.11469611000007, -18.556674251999937], [32.11584380800019, -18.547670866999965], [32.11703211500003, -18.5458276949999], [32.11704539300007, -18.545807099999877], [32.12244954199997, -18.54878743699993], [32.12330284600006, -18.5478567049999], [32.12429474500016, -18.549460891999956], [32.12457361400004, -18.55024270399997], [32.12462350200008, -18.551252931999898], [32.12430602500001, -18.55209943099993], [32.12304720700013, -18.553866221999954], [32.12248247800005, -18.556178573999944]]]]}}, {"type": "Feature", "properties": {"GID_3": "ZWE.3.10.8_2", "GID_0": "ZWE", "COUNTRY": "Zimbabwe", "GID_1": "ZWE.3_1", "NAME_1": "Manicaland", "NL_NAME_1": "NA", "GID_2": "ZWE.3.10_2", "NAME_2": "Rusape", "NL_NAME_2": "NA", "NAME_3": "Ward 7", "VARNAME_3": "NA", "NL_NAME_3": "NA", "TYPE_3": "Ward", "ENGTYPE_3": "Ward", "CC_3": "NA", "HASC_3": "NA", "id": "ZWE.3.10.8_2", "name": "Ward 7"}, "geometry": {"type": "MultiPolygon", "coordinates": [[[[32.13065901500005, -18.546054095999978], [32.13064410200013, -18.54606864999994], [32.126792497000054, -18.543699456999946], [32.126776501000165, -18.543683236999925], [32.126435629000184, -18.543175600999916], [32.125953402000164, -18.542271832999916], [32.124384656000075, -18.53599899699998], [32.124371801000166, -18.536001805999945], [32.12333770500004, -18.529726042999982], [32.12825479700007, -18.529054394999946], [32.12867498300005, -18.53072481299995], [32.12906933000005, -18.53273928199991], [32.12772743800008, -18.53287369499992], [32.12835305700003, -18.534479458999897], [32.130714954000155, -18.540803773999983], [32.13243644100004, -18.54431935399998], [32.13065901500005, -18.546054095999978]]]]}}, {"type": "Feature", "properties": {"GID_3": "ZWE.3.10.9_2", "GID_0": "ZWE", "COUNTRY": "Zimbabwe", "GID_1": "ZWE.3_1", "NAME_1": "Manicaland", "NL_NAME_1": "NA", "GID_2": "ZWE.3.10_2", "NAME_2": "Rusape", "NL_NAME_2": "NA", "NAME_3": "Ward 8", "VARNAME_3": "NA", "NL_NAME_3": "NA", "TYPE_3": "Ward", "ENGTYPE_3": "Ward", "CC_3": "NA", "HASC_3": "NA", "id": "ZWE.3.10.9_2", "name": "Ward 8"}, "geometry": {"type": "MultiPolygon", "coordinates": [[[[32.13302923900005, -18.548269792999974], [32.13065901500005, -18.546054095999978], [32.13243644100004, -18.54431935399998], [32.130714954000155, -18.540803773999983], [32.12835305700003, -18.534479458999897], [32.12772743800008, -18.53287369499992], [32.12906933000005, -18.53273928199991], [32.12867498300005, -18.53072481299995], [32.13569676800006, -18.52900967399995], [32.13775026000013, -18.528840408999883], [32.13813107400006, -18.533926669999914], [32.13920739800011, -18.533847214999923], [32.139444797000124, -18.535002822999957], [32.13833941200005, -18.534997784999973], [32.138350679000155, -18.53841818099994], [32.14063525800009, -18.538414527999976], [32.14151833799997, -18.543518021999944], [32.14076382700017, -18.544077003999973], [32.14049591800011, -18.544596017999936], [32.13801526700013, -18.545969546999913], [32.13637594200014, -18.546608831999947], [32.13569750300019, -18.546690089999913], [32.13390999000018, -18.547483336999903], [32.133894392000116, -18.547503264999875], [32.133493821000116, -18.547836066999878], [32.13302923900005, -18.548269792999974]]]]}}, {"type": "Feature", "properties": {"GID_3": "ZWE.3.10.10_2", "GID_0": "ZWE", "COUNTRY": "Zimbabwe", "GID_1": "ZWE.3_1", "NAME_1": "Manicaland", "NL_NAME_1": "NA", "GID_2": "ZWE.3.10_2", "NAME_2": "Rusape", "NL_NAME_2": "NA", "NAME_3": "Ward 9", "VARNAME_3": "NA", "NL_NAME_3": "NA", "TYPE_3": "Ward", "ENGTYPE_3": "Ward", "CC_3": "NA", "HASC_3": "NA", "id": "ZWE.3.10.10_2", "name": "Ward 9"}, "geometry": {"type": "MultiPolygon", "coordinates": [[[[32.144370200000026, -18.52827834199985], [32.152247558000056, -18.542896477999932], [32.16242550100014, -18.561880979999955], [32.143610326000044, -18.55442385599997], [32.131509386000175, -18.549756327999944], [32.13127224400006, -18.549664848999953], [32.131304887, -18.549636656999837], [32.13256287300004, -18.548630098999865], [32.13302923900005, -18.548269792999974], [32.133493821000116, -18.547836066999878], [32.133894392000116, -18.547503264999875], [32.13390999000018, -18.547483336999903], [32.13569750300019, -18.546690089999913], [32.13637594200014, -18.546608831999947], [32.13801526700013, -18.545969546999913], [32.14049591800011, -18.544596017999936], [32.14076382700017, -18.544077003999973], [32.14151833799997, -18.543518021999944], [32.14063525800009, -18.538414527999976], [32.138350679000155, -18.53841818099994], [32.13833941200005, -18.534997784999973], [32.139444797000124, -18.535002822999957], [32.13920739800011, -18.533847214999923], [32.13813107400006, -18.533926669999914], [32.13775026000013, -18.528840408999883], [32.144370200000026, -18.52827834199985]]]]}}]}