{"type": "FeatureCollection", "features": [{"type": "Feature", "properties": {"GID_3": "ZWE.10.12.1_2", "GID_0": "ZWE", "COUNTRY": "Zimbabwe", "GID_1": "ZWE.10_1", "NAME_1": "Midlands", "NL_NAME_1": "NA", "GID_2": "ZWE.10.12_2", "NAME_2": "Shurugwi Town", "NL_NAME_2": "NA", "NAME_3": "Ward 1", "VARNAME_3": "NA", "NL_NAME_3": "NA", "TYPE_3": "Ward", "ENGTYPE_3": "Ward", "CC_3": "NA", "HASC_3": "NA", "id": "ZWE.10.12.1_2", "name": "Ward 1"}, "geometry": {"type": "MultiPolygon", "coordinates": [[[[29.984338595000054, -19.662701202999813], [29.97878653300006, -19.66361411899993], [29.975079340000036, -19.66391007599998], [29.97283079700003, -19.662774853999963], [29.97198043900005, -19.65692659499996], [29.969727965000175, -19.65160851999991], [29.96975328800005, -19.65159249599992], [29.966397409000137, -19.64406698599987], [29.986422901000026, -19.625175165999963], [30.003736514000025, -19.62412355299989], [30.01147486900004, -19.63403548899987], [30.010665169000163, -19.647329270999876], [29.99714239600013, -19.64682369899998], [29.984338595000054, -19.662701202999813]]]]}}, {"type": "Feature", "properties": {"GID_3": "ZWE.10.12.2_2", "GID_0": "ZWE", "COUNTRY": "Zimbabwe", "GID_1": "ZWE.10_1", "NAME_1": "Midlands", "NL_NAME_1": "NA", "GID_2": "ZWE.10.12_2", "NAME_2": "Shurugwi Town", "NL_NAME_2": "NA", "NAME_3": "Ward 10", "VARNAME_3": "NA", "NL_NAME_3": "NA", "TYPE_3": "Ward", "ENGTYPE_3": "Ward", "CC_3": "NA", "HASC_3": "NA", "id": "ZWE.10.12.2_2", "name": "Ward 10"}, "geometry": {"type": "MultiPolygon", "coordinates": [[[[29.983525241999985, -19.685082070999954], [29.98797415500013, -19.665220138999928], [29.997157534000166, -19.66659124699987], [30.0023602, -19.666856046999953], [30.001976716000115, -19.672841909999875], [30.00509380400007, -19.67407942799997], [29.999344748000112, -19.677197389999947], [29.99907836200009, -19.682829567999818], [29.997006694000106, -19.687371962999975], [29.983525241999985, -19.685082070999954]]]]}}, {"type": "Feature", "properties": {"GID_3": "ZWE.10.12.3_2", "GID_0": "ZWE", "COUNTRY": "Zimbabwe", "GID_1": "ZWE.10_1", "NAME_1": "Midlands", "NL_NAME_1": "NA", "GID_2": "ZWE.10.12_2", "NAME_2": "Shurugwi Town", "NL_NAME_2": "NA", "NAME_3": "Ward 11", "VARNAME_3": "NA", "NL_NAME_3": "NA", "TYPE_3": "Ward", "ENGTYPE_3": "Ward", "CC_3": "NA", "HASC_3": "NA", "id": "ZWE.10.12.3_2", "name": "Ward 11"}, "geometry": {"type": "MultiPolygon", "coordinates": [[[[29.975079340000036, -19.66391007599998], [29.97878653300006, -19.66361411899993], [29.984338595000054, -19.662701202999813], [29.98797415500013, -19.665220138999928], [29.983525241999985, -19.685082070999954], [29.978198200000122, -19.68481885299991], [29.9776161960001, -19.70018773199996], [29.97237035700016, -19.699816663999968], [29.971905847000073, -19.719393623999906], [29.965224907000106, -19.719621590999964], [29.964384253000162, -19.722227330999885], [29.95223458300012, -19.72149921999994], [29.952093091000165, -19.69275890599988], [29.95480657400003, -19.686300021999898], [29.96426452700001, -19.68907515499984], [29.963681839000117, -19.67759456099992], [29.972592914000188, -19.670881360999942], [29.975079340000036, -19.66391007599998]]]]}}, {"type": "Feature", "properties": {"GID_3": "ZWE.10.12.4_2", "GID_0": "ZWE", "COUNTRY": "Zimbabwe", "GID_1": "ZWE.10_1", "NAME_1": "Midlands", "NL_NAME_1": "NA", "GID_2": "ZWE.10.12_2", "NAME_2": "Shurugwi Town", "NL_NAME_2": "NA", "NAME_3": "Ward 12", "VARNAME_3": "NA", "NL_NAME_3": "NA", "TYPE_3": "Ward", "ENGTYPE_3": "Ward", "CC_3": "NA", "HASC_3": "NA", "id": "ZWE.10.12.4_2", "name": "Ward 12"}, "geometry": {"type": "MultiPolygon", "coordinates": [[[[29.969727965000175, -19.65160851999991], [29.97198043900005, -19.65692659499996], [29.97283079700003, -19.662774853999963], [29.975079340000036, -19.66391007599998], [29.972592914000188, -19.670881360999942], [29.963681839000117, -19.67759456099992], [29.96426452700001, -19.68907515499984], [29.95480657400003, -19.686300021999898], [29.952093091000165, -19.69275890599988], [29.927723585000138, -19.691519463999953], [29.927685288000077, -19.682609081999942], [29.947580926000114, -19.680875708999963], [29.947507267000162, -19.68086255999998], [29.954951046000076, -19.66810559299995], [29.961841842000013, -19.65713576099995], [29.962070879000066, -19.656453373999966], [29.969727965000175, -19.65160851999991]]]]}}, {"type": "Feature", "properties": {"GID_3": "ZWE.10.12.5_2", "GID_0": "ZWE", "COUNTRY": "Zimbabwe", "GID_1": "ZWE.10_1", "NAME_1": "Midlands", "NL_NAME_1": "NA", "GID_2": "ZWE.10.12_2", "NAME_2": "Shurugwi Town", "NL_NAME_2": "NA", "NAME_3": "Ward 13", "VARNAME_3": "NA", "NL_NAME_3": "NA", "TYPE_3": "Ward", "ENGTYPE_3": "Ward", "CC_3": "NA", "HASC_3": "NA", "id": "ZWE.10.12.5_2", "name": "Ward 13"}, "geometry": {"type": "MultiPolygon", "coordinates": [[[[30.01286573699997, -19.72182571999997], [30.02143247000015, -19.722074053999904], [30.048097190000135, -19.701617098999975], [30.0572263790001, -19.69461131099996], [30.056541176000167, -19.697043709999946], [30.056459178000125, -19.697121715999913], [30.05582819700004, -19.698954854999897], [30.05582819700004, -19.69903386099986], [30.055868196000063, -19.699111866999942], [30.055868196000063, -19.699189871999977], [30.055868196000063, -19.69922987599989], [30.055866196000068, -19.69930788099998], [30.055866196000068, -19.699540898999885], [30.055864197000176, -19.699774916999957], [30.055864197000176, -19.69985392299992], [30.05586219700001, -19.699971930999936], [30.05586219700001, -19.700049936999903], [30.055820198, -19.700125942999875], [30.05577819900003, -19.700244951999878], [30.055776200000082, -19.700360960999888], [30.05573420100012, -19.70047896999995], [30.05565220300008, -19.700595978999957], [30.055610205000164, -19.700673984999924], [30.055526207000128, -19.700789992999944], [30.05548420800011, -19.70090700199995], [30.05540221100017, -19.701025010999956], [30.055360212000153, -19.701141019999966], [30.055318213000135, -19.70125802899986], [30.05527621500005, -19.70137603799992], [30.055233216000147, -19.70149204599994], [30.055233216000147, -19.70157005199991], [30.05519121700013, -19.701649057999873], [30.05519121700013, -19.701805069999978], [30.05519121700013, -19.701843072999964], [30.05519121700013, -19.701883075999888], [30.055189217000134, -19.70192107899993], [30.055149218999986, -19.701961081999855], [30.05246530000005, -19.708509576999973], [30.050846347000174, -19.710184703999914], [30.050764349000133, -19.710184704999847], [30.05068035200003, -19.710222706999957], [30.050558355000135, -19.710222707999947], [30.05031036200012, -19.710300713999857], [30.050144367000144, -19.710338716999956], [30.04733644700019, -19.710916761999954], [30.047252450000087, -19.710954764999883], [30.047170452000046, -19.710954764999883], [30.047088455000107, -19.71099376799998], [30.04700445700007, -19.711033770999848], [30.04692245900003, -19.711109776999933], [30.046798463000073, -19.711149779999914], [30.04621148100017, -19.712669894999863], [30.046209481000176, -19.712787903999924], [30.046209481000176, -19.713022920999947], [30.04620748100018, -19.713138929999957], [30.04620748100018, -19.713255938999964], [30.046205481000015, -19.713411950999955], [30.046205481000015, -19.71352995999996], [30.0461634830001, -19.713686970999902], [30.046161483000105, -19.71384298299995], [30.046119484000087, -19.713997994999943], [30.04573249700013, -19.716302168999903], [30.04573249700013, -19.716340171999946], [30.04569049800017, -19.716340171999946], [30.04569049800017, -19.71638017499987], [30.045650499000146, -19.71638017499987], [30.045566501999986, -19.716456180999955], [30.04548450400017, -19.71649618399988], [30.045442505000153, -19.716575189999958], [30.044900521000045, -19.717315245999885], [30.04485852300013, -19.717431253999905], [30.044817524000052, -19.717509259999872], [30.04477652500009, -19.717547262999915], [30.041652616000192, -19.720858514999975], [30.039732674000106, -19.72444678599993], [30.039156690000084, -19.724091759999965], [30.0379987230001, -19.72447978999992], [30.037958724000077, -19.72447978999992], [30.03791672500006, -19.724519792999956], [30.03791672500006, -19.724557795999885], [30.037874727000144, -19.724635801999966], [30.037792729000103, -19.724673804999895], [30.037750730000084, -19.724673804999895], [30.037708731000066, -19.724713807999933], [30.037626734000128, -19.724789813999905], [30.03646476700004, -19.72560887599991], [30.03646476700004, -19.725646878999953], [30.036424769000064, -19.725646878999953], [30.036382770000046, -19.725684881999882], [30.036340771000084, -19.72572488499992], [30.036298772000066, -19.725762887999963], [30.036216775000128, -19.725802890999887], [30.036134777000086, -19.72584089399993], [30.03605077900005, -19.72587989699997], [30.03538779900009, -19.726540946999933], [30.035345800000073, -19.72658094999997], [30.035303801000055, -19.726659955999935], [30.035303801000055, -19.726735961999907], [30.03526180300014, -19.72685397099997], [30.03521980400012, -19.726970979999976], [30.03521980400012, -19.727010982999843], [30.035177805000103, -19.727088987999878], [30.035177805000103, -19.72712699099992], [30.035175805000108, -19.727243], [30.035175805000108, -19.727322005999895], [30.035133807000193, -19.727362008999933], [30.03508180900019, -19.729040135999867], [30.03508080900008, -19.72915814399994], [30.03508080900008, -19.729275152999946], [30.035078810000186, -19.729469167999923], [30.03507681000019, -19.72966618299995], [30.03507281000003, -19.730289229999926], [30.035030812000116, -19.730408238999928], [30.035030812000116, -19.73056424999993], [30.034988813000098, -19.730602252999972], [30.034988813000098, -19.73068025899994], [30.03494681400008, -19.730759264999904], [30.03490481500006, -19.730797267999947], [30.034862817000146, -19.73091527699995], [30.034820818000128, -19.73103128599996], [30.034736821000024, -19.73118829799995], [30.03461282400019, -19.7313423089999], [30.034528827000088, -19.731499320999944], [30.03444482900005, -19.73173333899996], [30.03440083100014, -19.731968356999857], [30.0343188330001, -19.732006358999968], [30.034359832, -19.732006358999968], [30.0336458540001, -19.733953506999967], [30.032520887000032, -19.73562863399991], [30.03243888900016, -19.735706638999886], [30.032396890000143, -19.735784644999967], [30.03231289300004, -19.735823647999894], [30.03227089400019, -19.735901653999974], [30.03223089500017, -19.735939656999903], [30.032146898000065, -19.73601766299987], [30.032104899000046, -19.736057665999965], [30.031274923000126, -19.736952733999885], [30.031232924000108, -19.737030739999852], [30.031190926000193, -19.737146748999862], [30.031148927000174, -19.73722475499983], [30.031148927000174, -19.737303760999964], [30.03114792700012, -19.73738176599994], [30.031105928000102, -19.737499774999947], [30.031105928999978, -19.737615783999956], [30.03110392900004, -19.737732792999964], [30.03110392900004, -19.73785080199991], [30.031337923000024, -19.739687939999953], [30.031335924000132, -19.73984195199995], [30.031293925000114, -19.739998963999938], [30.031293925000114, -19.740154974999882], [30.031251926000095, -19.740272983999887], [30.03120892800007, -19.740427995999937], [30.031126930000028, -19.74050600199996], [30.031126930000028, -19.740584007999928], [30.031084931000066, -19.740663013999892], [30.031042933000094, -19.740741019999973], [30.031000934000133, -19.74081902499995], [30.030662944000028, -19.741950110999937], [30.030620946000113, -19.742106122999928], [30.030618946000118, -19.742301136999913], [30.0305769470001, -19.742419145999918], [30.0305769470001, -19.742536154999982], [30.03053494800008, -19.742574157999968], [30.030532948000086, -19.742652163999935], [30.030492950000166, -19.74273016999996], [30.03049095000017, -19.742808175999926], [30.030448950999983, -19.742886181999836], [30.030407952000076, -19.74300318999991], [30.03036595400016, -19.743121198999916], [30.03028395600012, -19.743199204999883], [30.0302419570001, -19.743276210999966], [30.030199958000082, -19.743394219999857], [30.03011596100015, -19.743472225999938], [30.030075962000126, -19.743510228999867], [30.029991965000193, -19.743588234999834], [30.02990996700015, -19.74362723799993], [30.029867968000133, -19.743705243999898], [30.02978397100003, -19.74374324699994], [30.029701972999987, -19.74382125199992], [30.02961797500018, -19.743899257999885], [30.02949397900005, -19.744016266999893], [30.029369983000095, -19.744094272999973], [30.028777001000037, -19.74628043799993], [30.028777001000037, -19.74631844099997], [30.028777001000037, -19.74639644699994], [30.028693004000104, -19.74643444999998], [30.02865300500008, -19.746474452999962], [30.027575036000144, -19.74709650099993], [30.027493038000102, -19.74713450299987], [30.027451039000084, -19.74713450299987], [30.027369042000146, -19.747172505999913], [30.027285044000166, -19.74721250899995], [30.027163047999977, -19.747210508999956], [30.027079050000168, -19.74725051199988], [30.02695505400004, -19.747327517999963], [30.025834087000078, -19.74861261599989], [30.02575008900004, -19.74876962799982], [30.025666092000108, -19.748925639999925], [30.02562409300009, -19.749041647999945], [30.02558209400013, -19.749198659999877], [30.025498096999968, -19.74935467199998], [30.025456098000177, -19.749433677999946], [30.025456098000177, -19.749511683999913], [30.02541409900016, -19.749511683999913], [30.02512610800005, -19.7501297309999], [30.024962315000096, -19.750522873999955], [30.024946832000126, -19.75057379999987], [30.014462108000032, -19.785052198999892], [30.001838153000108, -19.785499278999964], [30.007246614000053, -19.776732351999954], [30.010147347000157, -19.772931752999966], [30.00812036500014, -19.770503786999882], [30.001244853, -19.773667691999947], [29.99413350800006, -19.784104424999896], [29.975273105000156, -19.782191891999958], [29.976316443000144, -19.738335785999936], [30.01286573699997, -19.72182571999997]]]]}}, {"type": "Feature", "properties": {"GID_3": "ZWE.10.12.6_2", "GID_0": "ZWE", "COUNTRY": "Zimbabwe", "GID_1": "ZWE.10_1", "NAME_1": "Midlands", "NL_NAME_1": "NA", "GID_2": "ZWE.10.12_2", "NAME_2": "Shurugwi Town", "NL_NAME_2": "NA", "NAME_3": "Ward 2", "VARNAME_3": "NA", "NL_NAME_3": "NA", "TYPE_3": "Ward", "ENGTYPE_3": "Ward", "CC_3": "NA", "HASC_3": "NA", "id": "ZWE.10.12.6_2", "name": "Ward 2"}, "geometry": {"type": "MultiPolygon", "coordinates": [[[[30.003736514000025, -19.62412355299989], [29.986422901000026, -19.625175165999963], [29.999961206000137, -19.61239983799993], [29.999692244000073, -19.61148865299998], [30.005475312000044, -19.61841200999993], [30.003736514000025, -19.62412355299989]]]]}}, {"type": "Feature", "properties": {"GID_3": "ZWE.10.12.7_2", "GID_0": "ZWE", "COUNTRY": "Zimbabwe", "GID_1": "ZWE.10_1", "NAME_1": "Midlands", "NL_NAME_1": "NA", "GID_2": "ZWE.10.12_2", "NAME_2": "Shurugwi Town", "NL_NAME_2": "NA", "NAME_3": "Ward 3", "VARNAME_3": "NA", "NL_NAME_3": "NA", "TYPE_3": "Ward", "ENGTYPE_3": "Ward", "CC_3": "NA", "HASC_3": "NA", "id": "ZWE.10.12.7_2", "name": "Ward 3"}, "geometry": {"type": "MultiPolygon", "coordinates": [[[[30.005475312000044, -19.61841200999993], [29.999692244000073, -19.61148865299998], [29.998377083000037, -19.607032970999967], [30.013094808, -19.604504264999946], [30.013330396000185, -19.61915482899991], [30.005475312000044, -19.61841200999993]]]]}}, {"type": "Feature", "properties": {"GID_3": "ZWE.10.12.8_2", "GID_0": "ZWE", "COUNTRY": "Zimbabwe", "GID_1": "ZWE.10_1", "NAME_1": "Midlands", "NL_NAME_1": "NA", "GID_2": "ZWE.10.12_2", "NAME_2": "Shurugwi Town", "NL_NAME_2": "NA", "NAME_3": "Ward 4", "VARNAME_3": "NA", "NL_NAME_3": "NA", "TYPE_3": "Ward", "ENGTYPE_3": "Ward", "CC_3": "NA", "HASC_3": "NA", "id": "ZWE.10.12.8_2", "name": "Ward 4"}, "geometry": {"type": "MultiPolygon", "coordinates": [[[[30.01147486900004, -19.63403548899987], [30.003736514000025, -19.62412355299989], [30.005475312000044, -19.61841200999993], [30.013330396000185, -19.61915482899991], [30.013094808, -19.604504264999946], [30.03170781400013, -19.60130450099996], [30.031730184000025, -19.601315178999926], [30.031407702000024, -19.62831676199994], [30.011847319000083, -19.62792070799992], [30.01147486900004, -19.63403548899987]]]]}}, {"type": "Feature", "properties": {"GID_3": "ZWE.10.12.9_2", "GID_0": "ZWE", "COUNTRY": "Zimbabwe", "GID_1": "ZWE.10_1", "NAME_1": "Midlands", "NL_NAME_1": "NA", "GID_2": "ZWE.10.12_2", "NAME_2": "Shurugwi Town", "NL_NAME_2": "NA", "NAME_3": "Ward 5", "VARNAME_3": "NA", "NL_NAME_3": "NA", "TYPE_3": "Ward", "ENGTYPE_3": "Ward", "CC_3": "NA", "HASC_3": "NA", "id": "ZWE.10.12.9_2", "name": "Ward 5"}, "geometry": {"type": "MultiPolygon", "coordinates": [[[[29.984338595000054, -19.662701202999813], [29.99714239600013, -19.64682369899998], [30.010665169000163, -19.647329270999876], [30.01147486900004, -19.63403548899987], [30.011847319000083, -19.62792070799992], [30.031407702000024, -19.62831676199994], [30.031226241000184, -19.643531232999976], [30.039372463000063, -19.64245570399987], [30.039487294000082, -19.648550304999958], [30.031570549000094, -19.648684066999976], [30.031437000000153, -19.654086473999882], [30.01272873200014, -19.653928227999927], [30.00842963500014, -19.65564169599986], [30.0023602, -19.666856046999953], [29.997157534000166, -19.66659124699987], [29.98797415500013, -19.665220138999928], [29.984338595000054, -19.662701202999813]]]]}}, {"type": "Feature", "properties": {"GID_3": "ZWE.10.12.10_2", "GID_0": "ZWE", "COUNTRY": "Zimbabwe", "GID_1": "ZWE.10_1", "NAME_1": "Midlands", "NL_NAME_1": "NA", "GID_2": "ZWE.10.12_2", "NAME_2": "Shurugwi Town", "NL_NAME_2": "NA", "NAME_3": "Ward 6", "VARNAME_3": "NA", "NL_NAME_3": "NA", "TYPE_3": "Ward", "ENGTYPE_3": "Ward", "CC_3": "NA", "HASC_3": "NA", "id": "ZWE.10.12.10_2", "name": "Ward 6"}, "geometry": {"type": "MultiPolygon", "coordinates": [[[[30.00509380400007, -19.67407942799997], [30.001976716000115, -19.672841909999875], [30.0023602, -19.666856046999953], [30.00842963500014, -19.65564169599986], [30.01272873200014, -19.653928227999927], [30.031437000000153, -19.654086473999882], [30.030994852000163, -19.671977726999955], [30.030098911000152, -19.672846901999947], [30.0160381930001, -19.680898731999946], [30.013559510000107, -19.67675130899994], [30.010055821000037, -19.674699733999944], [30.00509380400007, -19.67407942799997]]]]}}, {"type": "Feature", "properties": {"GID_3": "ZWE.10.12.11_2", "GID_0": "ZWE", "COUNTRY": "Zimbabwe", "GID_1": "ZWE.10_1", "NAME_1": "Midlands", "NL_NAME_1": "NA", "GID_2": "ZWE.10.12_2", "NAME_2": "Shurugwi Town", "NL_NAME_2": "NA", "NAME_3": "Ward 7", "VARNAME_3": "NA", "NL_NAME_3": "NA", "TYPE_3": "Ward", "ENGTYPE_3": "Ward", "CC_3": "NA", "HASC_3": "NA", "id": "ZWE.10.12.11_2", "name": "Ward 7"}, "geometry": {"type": "MultiPolygon", "coordinates": [[[[30.048097190000135, -19.701617098999975], [30.02143247000015, -19.722074053999904], [30.01286573699997, -19.72182571999997], [30.008903279000037, -19.721775088999948], [30.00509380400007, -19.67407942799997], [30.010055821000037, -19.674699733999944], [30.013559510000107, -19.67675130899994], [30.0160381930001, -19.680898731999946], [30.022648123000067, -19.681373296999936], [30.029992034000145, -19.68359425199992], [30.031317591000118, -19.688261518999923], [30.034395404000122, -19.693954292999933], [30.048097190000135, -19.701617098999975]]]]}}, {"type": "Feature", "properties": {"GID_3": "ZWE.10.12.12_2", "GID_0": "ZWE", "COUNTRY": "Zimbabwe", "GID_1": "ZWE.10_1", "NAME_1": "Midlands", "NL_NAME_1": "NA", "GID_2": "ZWE.10.12_2", "NAME_2": "Shurugwi Town", "NL_NAME_2": "NA", "NAME_3": "Ward 8", "VARNAME_3": "NA", "NL_NAME_3": "NA", "TYPE_3": "Ward", "ENGTYPE_3": "Ward", "CC_3": "NA", "HASC_3": "NA", "id": "ZWE.10.12.12_2", "name": "Ward 8"}, "geometry": {"type": "MultiPolygon", "coordinates": [[[[29.997006694000106, -19.687371962999975], [29.99907836200009, -19.682829567999818], [29.999344748000112, -19.677197389999947], [30.00509380400007, -19.67407942799997], [30.008903279000037, -19.721775088999948], [30.01286573699997, -19.72182571999997], [29.976316443000144, -19.738335785999936], [29.966692583, -19.733453967999935], [29.96450450500015, -19.722234533999938], [29.964384253000162, -19.722227330999885], [29.965224907000106, -19.719621590999964], [29.971905847000073, -19.719393623999906], [29.97237035700016, -19.699816663999968], [29.9776161960001, -19.70018773199996], [29.98234861400016, -19.70116427599993], [29.98653854200012, -19.700156558999936], [29.99137426900012, -19.699411091999877], [29.995919049000065, -19.69871035299991], [29.99659818200007, -19.695298917999935], [29.99446575800016, -19.69294296699985], [29.997006694000106, -19.687371962999975]]]]}}, {"type": "Feature", "properties": {"GID_3": "ZWE.10.12.13_2", "GID_0": "ZWE", "COUNTRY": "Zimbabwe", "GID_1": "ZWE.10_1", "NAME_1": "Midlands", "NL_NAME_1": "NA", "GID_2": "ZWE.10.12_2", "NAME_2": "Shurugwi Town", "NL_NAME_2": "NA", "NAME_3": "Ward 9", "VARNAME_3": "NA", "NL_NAME_3": "NA", "TYPE_3": "Ward", "ENGTYPE_3": "Ward", "CC_3": "NA", "HASC_3": "NA", "id": "ZWE.10.12.13_2", "name": "Ward 9"}, "geometry": {"type": "MultiPolygon", "coordinates": [[[[29.983525241999985, -19.685082070999954], [29.997006694000106, -19.687371962999975], [29.99446575800016, -19.69294296699985], [29.99659818200007, -19.695298917999935], [29.995919049000065, -19.69871035299991], [29.99137426900012, -19.699411091999877], [29.98653854200012, -19.700156558999936], [29.98234861400016, -19.70116427599993], [29.9776161960001, -19.70018773199996], [29.978198200000122, -19.68481885299991], [29.983525241999985, -19.685082070999954]]]]}}]}