{"type": "FeatureCollection", "features": [{"type": "Feature", "properties": {"GID_3": "ZWE.2.4.1_2", "GID_0": "ZWE", "COUNTRY": "Zimbabwe", "GID_1": "ZWE.2_1", "NAME_1": "Harare", "NL_NAME_1": "NA", "GID_2": "ZWE.2.4_2", "NAME_2": "Harare Rural", "NL_NAME_2": "NA", "NAME_3": "Ward 1", "VARNAME_3": "NA", "NL_NAME_3": "NA", "TYPE_3": "Ward", "ENGTYPE_3": "Ward", "CC_3": "NA", "HASC_3": "NA", "id": "ZWE.2.4.1_2", "name": "Ward 1"}, "geometry": {"type": "MultiPolygon", "coordinates": [[[[31.05610983300005, -17.979294356999844], [31.05448952200004, -17.97896904799984], [31.052509998, -17.97913234899994], [31.049868426000103, -17.98148707999991], [31.046682880000162, -17.981088655999883], [31.04552926000008, -17.981565495999973], [31.045271406000097, -17.981807129999936], [31.04502229400009, -17.982271651999895], [31.044750316000147, -17.98277880899991], [31.043786712000156, -17.983379669999977], [31.043178284000078, -17.983723491999854], [31.043014477000156, -17.983982457999957], [31.042434576, -17.98414054899996], [31.03955891400011, -17.984924469999896], [31.035375973000157, -17.98516795899991], [31.033710086000042, -17.98540941699997], [31.032204268000157, -17.984770426999944], [31.031527138000115, -17.98496402799998], [31.03017454400009, -17.986954227999888], [31.029622444000097, -17.987338113999954], [31.025970076000192, -17.98716729299997], [31.02487290500011, -17.987482675999956], [31.023779019000187, -17.989541100999872], [31.023196644000052, -17.991673572999957], [31.02269205400006, -17.99233435399998], [31.022581479000053, -17.993514922999964], [31.020845738000048, -17.996258019999914], [31.02064712000015, -17.99736974399997], [31.021176877000187, -17.999959066999907], [31.020636002000117, -18.002537448999817], [31.01677587300003, -18.00339145399994], [31.00949806800014, -18.00059923699996], [31.00720015400009, -17.99794716399998], [31.006175595000116, -17.997981169999946], [31.00457441800006, -17.99961302399987], [31.001227951000033, -17.99913301999993], [30.999959443000023, -17.999413293999964], [30.999654575000022, -17.997672004999856], [30.994989469000075, -17.99762377099995], [30.9931921000001, -17.996116875999974], [30.989873478000163, -17.99161763099994], [30.98806496600008, -17.991102766999973], [30.98862826400017, -17.98713987299982], [30.987357795000094, -17.984894265999912], [30.98631837199997, -17.98513151599991], [30.985512767000046, -17.98760360499989], [30.98290711599998, -17.988816728999893], [30.98032401100005, -17.988045687999886], [30.97931280100005, -17.985802737999848], [30.978022689000056, -17.985293191999972], [30.978042464, -17.983557081999948], [30.977284797000152, -17.981812860999923], [30.975231426000164, -17.980055108999977], [30.973955518000082, -17.97830546499989], [30.97110497500006, -17.978275654999948], [30.969792262000055, -17.979750177999904], [30.969476326, -17.980900928999972], [30.967796394000118, -17.981674187999943], [30.967785039000148, -17.98266624499996], [30.966748455000186, -17.982655373999933], [30.964430363000076, -17.981390825999938], [30.962357216000044, -17.981369044999894], [30.960543215000143, -17.981349967999904], [30.960321107000027, -17.978123070999914], [30.958512844000097, -17.977607952999847], [30.95566233900007, -17.97757791699985], [30.95307097500006, -17.977550574999896], [30.950997888000188, -17.977528676999952], [30.949451665000083, -17.976768204999928], [30.94765778700014, -17.97501293299996], [30.94718251600017, -17.97128727799992], [30.94173800599998, -17.971477612999934], [30.936581431000093, -17.969190453999886], [30.93350370700017, -17.96642924799994], [30.929890522000107, -17.965150524999842], [30.928350292, -17.963893885999937], [30.92422477800011, -17.96211351599993], [30.922175100000175, -17.9601072669999], [30.917517017000137, -17.959561254999926], [30.911554722000176, -17.959745212999962], [30.909202376000053, -17.961456139999882], [30.907615630000066, -17.964167438999937], [30.906579194000074, -17.96415625799989], [30.905542759000014, -17.96414507099996], [30.904261837000092, -17.962891056999922], [30.904276457000094, -17.96165103299984], [30.905583671000045, -17.960673001999908], [30.90716165000015, -17.958705733999864], [30.908200973000078, -17.95846890399997], [30.908992860000126, -17.95723725299996], [30.909004526000047, -17.956245229999922], [30.908238902000107, -17.95524483199995], [30.903289763000146, -17.957423755999912], [30.90173517200003, -17.957406953999964], [30.898169358000075, -17.952159615999847], [30.896105440000156, -17.951393149999944], [30.894592085000113, -17.949406657999873], [30.89451171400009, -17.949030243999914], [30.894085581000127, -17.946906612999953], [30.89229257600016, -17.945150910999928], [30.89052312400014, -17.941411170999913], [30.888733149000075, -17.939407441999947], [30.88848290500016, -17.93866061799997], [30.886869593000085, -17.936407075999966], [30.92522906000005, -17.917263442999968], [30.925406418000193, -17.91690012199996], [30.92586322000011, -17.91695147999991], [30.930061499000146, -17.91742343599998], [30.9338417190001, -17.91737748299994], [30.935546380000176, -17.917826385999945], [30.941843135000056, -17.918065458999934], [30.945800378000058, -17.918279626999947], [30.950457688000085, -17.920224292999933], [30.95392849800004, -17.92244937099997], [30.95983796500002, -17.926268010999934], [30.960277051000105, -17.927220381999973], [30.960996956000088, -17.92722793599995], [30.96190570800013, -17.92646202599991], [30.963383922000048, -17.923117265999906], [30.964481471, -17.921577873999922], [30.96566013400013, -17.92081476699991], [30.966050117000123, -17.920818847999897], [30.967063727000152, -17.921010543999955], [30.967202320000183, -17.921251400999893], [30.96805251300009, -17.922728908999943], [30.97177526100006, -17.92618384799988], [30.979670928000132, -17.927639936999924], [30.98019755900009, -17.92737903099993], [30.98522613600005, -17.919295296999962], [30.99095024700017, -17.922456346999866], [30.991730348000146, -17.920823635999966], [30.992215698000166, -17.919725867999887], [30.99779872000005, -17.919894837999948], [30.998978670000156, -17.921258716999887], [31.002336557000092, -17.92627865699984], [31.00569058000002, -17.932172128999923], [31.032001572000127, -17.921325327999966], [31.028008858000135, -17.908015730999978], [31.028558275000023, -17.907159666999974], [31.063918462000174, -17.899501451999924], [31.06401897600017, -17.90040934099983], [31.066575905000036, -17.899711498999977], [31.066399577000027, -17.898881842999913], [31.107714535000014, -17.88855882699994], [31.117003758000067, -17.891936565999913], [31.120656135000047, -17.88825534599988], [31.123595503000047, -17.888732236999886], [31.125008039000022, -17.888040986999897], [31.14291390400018, -17.902181008999946], [31.142591934, -17.903393937999965], [31.142038931000172, -17.90547717399994], [31.136123960000077, -17.928883753999912], [31.136322499000073, -17.94631411499995], [31.135019105000026, -17.94704579599994], [31.13630691100019, -17.947802354999908], [31.137322620000134, -17.949796621999894], [31.133946203000107, -17.950508393999826], [31.141631845000063, -17.95901633799997], [31.127337497000042, -17.962847947999933], [31.125219887000185, -17.967044574999875], [31.123115270000028, -17.970000979999895], [31.120500142000026, -17.972208220999903], [31.11865191300012, -17.97541511099996], [31.11654971100006, -17.978123385999936], [31.114952609000113, -17.982076852999853], [31.111795111000163, -17.986511226999937], [31.111779280000178, -17.987999439999953], [31.11615632000013, -17.99077071699992], [31.11562165000015, -17.99152159199997], [31.113524960000177, -17.994466035999892], [31.11353287200012, -17.993721928999946], [31.110162264000166, -17.99170459299995], [31.10836650400006, -17.98995064399992], [31.103217402000155, -17.98667552799992], [31.100625674000128, -17.986650144999885], [31.097774779000076, -17.986622183999884], [31.09053398700013, -17.98506262799998], [31.087683135000134, -17.985034520999875], [31.083809003000056, -17.98375596799997], [31.077850888000114, -17.983448917999965], [31.075253868000175, -17.983919261999972], [31.07266760900012, -17.983397448999938], [31.070075976, -17.983371662999957], [31.068002672999967, -17.983351008999932], [31.066461203000188, -17.98209535799998], [31.064927864000026, -17.980095610999967], [31.059245384000064, -17.97830242099991], [31.056400824000093, -17.978075261999948], [31.056358826000178, -17.978468292999878], [31.05610983300005, -17.979294356999844]]]]}}]}