{"type": "FeatureCollection", "features": [{"type": "Feature", "properties": {"GID_3": "ZWE.1.1.1_2", "GID_0": "ZWE", "COUNTRY": "Zimbabwe", "GID_1": "ZWE.1_1", "NAME_1": "Bulawayo", "NL_NAME_1": "NA", "GID_2": "ZWE.1.1_2", "NAME_2": "Bulawayo", "NL_NAME_2": "NA", "NAME_3": "Ward 1", "VARNAME_3": "NA", "NL_NAME_3": "NA", "TYPE_3": "Ward", "ENGTYPE_3": "Ward", "CC_3": "NA", "HASC_3": "NA", "id": "ZWE.1.1.1_2", "name": "Ward 1"}, "geometry": {"type": "MultiPolygon", "coordinates": [[[[28.590408841000055, -20.142143374999876], [28.59037029700005, -20.14229709599988], [28.589292968000166, -20.145959278999953], [28.58981252300009, -20.146058987999936], [28.5903691150001, -20.1461583599999], [28.59268374800007, -20.14676588899988], [28.59285146300016, -20.14678641899991], [28.593409696000094, -20.146863319999966], [28.59311847200013, -20.147817506999957], [28.592980319000162, -20.148476461999962], [28.59282929900013, -20.150246829999958], [28.592883074000042, -20.152950240999928], [28.592307598000048, -20.153391366999927], [28.59225488300018, -20.15511653099992], [28.591473084000086, -20.157176698999933], [28.59141854300009, -20.159230367999953], [28.59059657300014, -20.159922190999907], [28.590267289000053, -20.16182712099993], [28.58729587700003, -20.161122355999908], [28.586447733000057, -20.164197972999943], [28.585090911, -20.16466726099992], [28.58403852200007, -20.164936335999982], [28.58260553100007, -20.164831231999926], [28.581287879000115, -20.164502226999957], [28.579044215000124, -20.163941978999958], [28.57765854300004, -20.16304683999988], [28.575797168000122, -20.16131806199985], [28.575993429000107, -20.16044428099991], [28.572898298000098, -20.159535318999872], [28.573082826000075, -20.15899843899996], [28.57426455700005, -20.15473245599992], [28.576053820000084, -20.152808654999944], [28.576433777000148, -20.151245614999937], [28.578132657000026, -20.145716970999956], [28.581875134000143, -20.13983092999996], [28.590408841000055, -20.142143374999876]]]]}}, {"type": "Feature", "properties": {"GID_3": "ZWE.1.1.2_2", "GID_0": "ZWE", "COUNTRY": "Zimbabwe", "GID_1": "ZWE.1_1", "NAME_1": "Bulawayo", "NL_NAME_1": "NA", "GID_2": "ZWE.1.1_2", "NAME_2": "Bulawayo", "NL_NAME_2": "NA", "NAME_3": "Ward 10", "VARNAME_3": "NA", "NL_NAME_3": "NA", "TYPE_3": "Ward", "ENGTYPE_3": "Ward", "CC_3": "NA", "HASC_3": "NA", "id": "ZWE.1.1.2_2", "name": "Ward 10"}, "geometry": {"type": "MultiPolygon", "coordinates": [[[[28.537535547000118, -20.10922219999992], [28.539177772000187, -20.110238904999846], [28.540877250000108, -20.111397370999953], [28.546335581000108, -20.114930947999937], [28.54780376700006, -20.115874556999927], [28.549068104000128, -20.11678805999992], [28.549681588000112, -20.117069614999878], [28.552651353000044, -20.118892697999968], [28.55405742900001, -20.120410688999982], [28.554622013000028, -20.12155927299989], [28.55478132600018, -20.123056351999878], [28.554746894000175, -20.12406280799985], [28.554802461000065, -20.12519423899994], [28.554853055000137, -20.125822636999885], [28.55481613900008, -20.126577576999978], [28.555045074000134, -20.1272882479999], [28.555319634000114, -20.128124283999966], [28.555815259000155, -20.12887452299998], [28.556534441000167, -20.129790475999982], [28.55711426700003, -20.130078813999944], [28.55756097200009, -20.13053999099992], [28.558009744000117, -20.131039098999906], [28.558502483000098, -20.131495892999965], [28.559129608000035, -20.132077265999953], [28.56020261100008, -20.132864301999973], [28.560789115000148, -20.133823333999885], [28.56119769100019, -20.13474201599996], [28.561330232000046, -20.13565571099997], [28.558095472000105, -20.136187424999946], [28.554586985000128, -20.135842709999906], [28.54898638900005, -20.135011659999975], [28.543084002000057, -20.13414315899996], [28.542202414000144, -20.134026205999817], [28.540745992000097, -20.132920735999903], [28.538971597000057, -20.131639475999975], [28.53496021400008, -20.128819532999955], [28.53066145400004, -20.125690375999966], [28.53227405500013, -20.12528207899993], [28.53221514600017, -20.124382598999944], [28.533516961000146, -20.12418180499992], [28.53350680000011, -20.123139797999954], [28.533499412000026, -20.12238197399995], [28.53434347800004, -20.121522004999917], [28.53455675200007, -20.117683340999918], [28.53399368100014, -20.11650404099987], [28.534898481000027, -20.11673300599989], [28.535192841000082, -20.11606729199997], [28.53443476400014, -20.115458106999938], [28.536400974000117, -20.11141470499996], [28.536289605000036, -20.110278842999946], [28.537144234000152, -20.11050823599993], [28.537535547000118, -20.10922219999992]]]]}}, {"type": "Feature", "properties": {"GID_3": "ZWE.1.1.3_2", "GID_0": "ZWE", "COUNTRY": "Zimbabwe", "GID_1": "ZWE.1_1", "NAME_1": "Bulawayo", "NL_NAME_1": "NA", "GID_2": "ZWE.1.1_2", "NAME_2": "Bulawayo", "NL_NAME_2": "NA", "NAME_3": "Ward 11", "VARNAME_3": "NA", "NL_NAME_3": "NA", "TYPE_3": "Ward", "ENGTYPE_3": "Ward", "CC_3": "NA", "HASC_3": "NA", "id": "ZWE.1.1.3_2", "name": "Ward 11"}, "geometry": {"type": "MultiPolygon", "coordinates": [[[[28.537535547000118, -20.10922219999992], [28.537144234000152, -20.11050823599993], [28.536289605000036, -20.110278842999946], [28.536400974000117, -20.11141470499996], [28.53443476400014, -20.115458106999938], [28.535192841000082, -20.11606729199997], [28.534898481000027, -20.11673300599989], [28.53399368100014, -20.11650404099987], [28.53455675200007, -20.117683340999918], [28.53434347800004, -20.121522004999917], [28.533499412000026, -20.12238197399995], [28.53350680000011, -20.123139797999954], [28.533516961000146, -20.12418180499992], [28.53221514600017, -20.124382598999944], [28.53227405500013, -20.12528207899993], [28.53066145400004, -20.125690375999966], [28.52977663700011, -20.12504627099986], [28.52592934600017, -20.12233478099995], [28.525419963000047, -20.12222939499992], [28.522464388000174, -20.12092537899997], [28.52011859900017, -20.12080960999998], [28.520229191000055, -20.119131618999972], [28.518246271000123, -20.116391465999982], [28.519361080000124, -20.115424952999945], [28.52086261900007, -20.099796077999827], [28.52095865400014, -20.098463502999948], [28.521111146000123, -20.098526613999923], [28.53132863999997, -20.10532928899994], [28.532213545000104, -20.105871303999947], [28.535606652000126, -20.108051648999947], [28.536460036, -20.108586230999947], [28.537535547000118, -20.10922219999992]]]]}}, {"type": "Feature", "properties": {"GID_3": "ZWE.1.1.4_2", "GID_0": "ZWE", "COUNTRY": "Zimbabwe", "GID_1": "ZWE.1_1", "NAME_1": "Bulawayo", "NL_NAME_1": "NA", "GID_2": "ZWE.1.1_2", "NAME_2": "Bulawayo", "NL_NAME_2": "NA", "NAME_3": "Ward 12", "VARNAME_3": "NA", "NL_NAME_3": "NA", "TYPE_3": "Ward", "ENGTYPE_3": "Ward", "CC_3": "NA", "HASC_3": "NA", "id": "ZWE.1.1.4_2", "name": "Ward 12"}, "geometry": {"type": "MultiPolygon", "coordinates": [[[[28.53066145400004, -20.125690375999966], [28.53496021400008, -20.128819532999955], [28.538971597000057, -20.131639475999975], [28.540745992000097, -20.132920735999903], [28.542202414000144, -20.134026205999817], [28.541504442000132, -20.13541790599993], [28.541126062000103, -20.135964915999978], [28.53922600500016, -20.137871530999917], [28.538546371000052, -20.13844705799994], [28.537458641000114, -20.139336830999923], [28.53652442100008, -20.140100934999907], [28.53526015900013, -20.13967128199988], [28.534517593000146, -20.139418847999934], [28.53334409600012, -20.139100852999945], [28.531450624000115, -20.13888431099997], [28.530381685000066, -20.13889360099995], [28.528959454000073, -20.139216638999926], [28.52787065300015, -20.14000280299996], [28.52623585800012, -20.141872733999946], [28.52556383500007, -20.142387202999885], [28.525018160000116, -20.142650833999937], [28.52466485200017, -20.142964579999955], [28.524476502000027, -20.14332867899998], [28.524178011000117, -20.14364194899997], [28.52363057200006, -20.14372435799993], [28.523169176000067, -20.14411185499995], [28.522467947000052, -20.14471441099988], [28.522522485000138, -20.145584802999963], [28.520498997, -20.146103032999918], [28.51854464100012, -20.14662064499987], [28.516424932000177, -20.146725997999965], [28.51734318900003, -20.143867768999826], [28.518345145000183, -20.141045128999963], [28.520104749000097, -20.135666745999913], [28.52161640100013, -20.131953311999894], [28.524318797000035, -20.12613097999997], [28.525419963000047, -20.12222939499992], [28.52592934600017, -20.12233478099995], [28.52977663700011, -20.12504627099986], [28.53066145400004, -20.125690375999966]]]]}}, {"type": "Feature", "properties": {"GID_3": "ZWE.1.1.5_2", "GID_0": "ZWE", "COUNTRY": "Zimbabwe", "GID_1": "ZWE.1_1", "NAME_1": "Bulawayo", "NL_NAME_1": "NA", "GID_2": "ZWE.1.1_2", "NAME_2": "Bulawayo", "NL_NAME_2": "NA", "NAME_3": "Ward 13", "VARNAME_3": "NA", "NL_NAME_3": "NA", "TYPE_3": "Ward", "ENGTYPE_3": "Ward", "CC_3": "NA", "HASC_3": "NA", "id": "ZWE.1.1.5_2", "name": "Ward 13"}, "geometry": {"type": "MultiPolygon", "coordinates": [[[[28.516424932000177, -20.146725997999965], [28.51854464100012, -20.14662064499987], [28.520498997, -20.146103032999918], [28.522522485000138, -20.145584802999963], [28.522467947000052, -20.14471441099988], [28.523169176000067, -20.14411185499995], [28.52363057200006, -20.14372435799993], [28.524178011000117, -20.14364194899997], [28.524476502000027, -20.14332867899998], [28.52466485200017, -20.142964579999955], [28.525018160000116, -20.142650833999937], [28.52556383500007, -20.142387202999885], [28.52623585800012, -20.141872733999946], [28.52787065300015, -20.14000280299996], [28.528959454000073, -20.139216638999926], [28.530381685000066, -20.13889360099995], [28.531450624000115, -20.13888431099997], [28.53334409600012, -20.139100852999945], [28.534517593000146, -20.139418847999934], [28.53526015900013, -20.13967128199988], [28.53652442100008, -20.140100934999907], [28.53588002000015, -20.141478749999976], [28.53550312400006, -20.142181078999954], [28.535154140000145, -20.14293494499998], [28.534724947000086, -20.143896633999816], [28.534198091000178, -20.145009783999967], [28.533337879000044, -20.14670299799991], [28.532972840000127, -20.14780041699987], [28.53202472800001, -20.150115445999916], [28.53199362500004, -20.15362885399992], [28.532140512000183, -20.15584562899994], [28.52869795500004, -20.156053004999933], [28.52131630700012, -20.156793912999888], [28.51941657800006, -20.157874992999893], [28.51598850700003, -20.159590282999886], [28.516192271000193, -20.15799152099993], [28.516337979000184, -20.156866444999935], [28.516423346000067, -20.15597848399983], [28.516445518000126, -20.15503191799985], [28.5166449620001, -20.153912880999883], [28.516600226000094, -20.152523277999933], [28.516355635000025, -20.14989327899991], [28.516154068000162, -20.148475450999968], [28.516048719000025, -20.147293388999913], [28.516424932000177, -20.146725997999965]]]]}}, {"type": "Feature", "properties": {"GID_3": "ZWE.1.1.6_2", "GID_0": "ZWE", "COUNTRY": "Zimbabwe", "GID_1": "ZWE.1_1", "NAME_1": "Bulawayo", "NL_NAME_1": "NA", "GID_2": "ZWE.1.1_2", "NAME_2": "Bulawayo", "NL_NAME_2": "NA", "NAME_3": "Ward 14", "VARNAME_3": "NA", "NL_NAME_3": "NA", "TYPE_3": "Ward", "ENGTYPE_3": "Ward", "CC_3": "NA", "HASC_3": "NA", "id": "ZWE.1.1.6_2", "name": "Ward 14"}, "geometry": {"type": "MultiPolygon", "coordinates": [[[[28.52011859900017, -20.12080960999998], [28.522464388000174, -20.12092537899997], [28.525419963000047, -20.12222939499992], [28.524318797000035, -20.12613097999997], [28.52161640100013, -20.131953311999894], [28.520104749000097, -20.135666745999913], [28.518345145000183, -20.141045128999963], [28.51734318900003, -20.143867768999826], [28.516364256000145, -20.143466890999946], [28.511800788000187, -20.136865430999876], [28.51125103700008, -20.136025943999982], [28.5104009370001, -20.134933209999872], [28.509846699000093, -20.134271457999944], [28.509940281000183, -20.13273573799995], [28.51011977400003, -20.131685338999944], [28.5104516720001, -20.12958477299992], [28.510494675000018, -20.128570059999902], [28.510490904000164, -20.128177464999965], [28.51049487400013, -20.127812923999954], [28.510458822000032, -20.127286274999904], [28.51045151200009, -20.126525174999927], [28.510385315000065, -20.12608660999996], [28.510327089000043, -20.123622254999873], [28.513307072000146, -20.123593403999905], [28.514320604000147, -20.123192155999902], [28.514791091000063, -20.122944464999932], [28.51543364600002, -20.122708829999908], [28.51639146300016, -20.122353708999924], [28.51693384600003, -20.122132466999915], [28.52011859900017, -20.12080960999998]]]]}}, {"type": "Feature", "properties": {"GID_3": "ZWE.1.1.7_2", "GID_0": "ZWE", "COUNTRY": "Zimbabwe", "GID_1": "ZWE.1_1", "NAME_1": "Bulawayo", "NL_NAME_1": "NA", "GID_2": "ZWE.1.1_2", "NAME_2": "Bulawayo", "NL_NAME_2": "NA", "NAME_3": "Ward 15", "VARNAME_3": "NA", "NL_NAME_3": "NA", "TYPE_3": "Ward", "ENGTYPE_3": "Ward", "CC_3": "NA", "HASC_3": "NA", "id": "ZWE.1.1.7_2", "name": "Ward 15"}, "geometry": {"type": "MultiPolygon", "coordinates": [[[[28.52095865400014, -20.098463502999948], [28.52086261900007, -20.099796077999827], [28.519361080000124, -20.115424952999945], [28.518246271000123, -20.116391465999982], [28.513309764000155, -20.11219571999993], [28.509624017000135, -20.11609628799988], [28.506996052000034, -20.11383255499993], [28.505500580000103, -20.113185843999872], [28.50161367000004, -20.105629252999904], [28.499920434000046, -20.103753128999927], [28.49903294900008, -20.103408945999945], [28.498370603000183, -20.10227146099993], [28.498690477000025, -20.10165322199998], [28.49830524600003, -20.100293551999926], [28.497742675000097, -20.099858669999946], [28.49694864300011, -20.097904317999962], [28.496734604999972, -20.097564700999953], [28.49659381800018, -20.09720889199997], [28.496453031000158, -20.096853082999928], [28.49644593900007, -20.096106681999913], [28.496535414000107, -20.09524471499992], [28.49697216000004, -20.095326822999937], [28.497443108000084, -20.095367412999963], [28.497877570000128, -20.09536372499997], [28.499147369000127, -20.095290322999972], [28.499985765000076, -20.095118993999904], [28.50047763300006, -20.095060077999904], [28.50085364500012, -20.09500214499991], [28.501346816000137, -20.095080051999958], [28.501839466000035, -20.095103227999914], [28.502390305000063, -20.09515327299988], [28.502680990000044, -20.095260267999947], [28.503029342000104, -20.09533940299991], [28.503436406, -20.0955001399999], [28.503959589000033, -20.095687252999937], [28.504454593000162, -20.095956706999857], [28.50515287200011, -20.09627915999988], [28.506284313000037, -20.096762479999825], [28.506691646000036, -20.096950573999948], [28.506953896000084, -20.09711253799992], [28.50733200400009, -20.09727351299989], [28.507506837999983, -20.097381487999883], [28.50797288800004, -20.097651178999968], [28.508380225000053, -20.097839268999905], [28.50867091900011, -20.097946252999975], [28.509049030000085, -20.098107222999886], [28.509455845000048, -20.09824057999998], [28.509980355000096, -20.098564498999963], [28.510648377000166, -20.098750351999968], [28.511169740000014, -20.09874588699995], [28.511719280000193, -20.09865907799997], [28.512270395000087, -20.098736456999973], [28.513088245000063, -20.098622966999926], [28.513636731000133, -20.09842669099993], [28.514387703000125, -20.098201308999933], [28.514815939000187, -20.097962139999936], [28.516089493000038, -20.097447778999936], [28.51826102300015, -20.09734700499996], [28.52095865400014, -20.098463502999948]]]]}}, {"type": "Feature", "properties": {"GID_3": "ZWE.1.1.8_2", "GID_0": "ZWE", "COUNTRY": "Zimbabwe", "GID_1": "ZWE.1_1", "NAME_1": "Bulawayo", "NL_NAME_1": "NA", "GID_2": "ZWE.1.1_2", "NAME_2": "Bulawayo", "NL_NAME_2": "NA", "NAME_3": "Ward 16", "VARNAME_3": "NA", "NL_NAME_3": "NA", "TYPE_3": "Ward", "ENGTYPE_3": "Ward", "CC_3": "NA", "HASC_3": "NA", "id": "ZWE.1.1.8_2", "name": "Ward 16"}, "geometry": {"type": "MultiPolygon", "coordinates": [[[[28.518246271000123, -20.116391465999982], [28.520229191000055, -20.119131618999972], [28.52011859900017, -20.12080960999998], [28.51693384600003, -20.122132466999915], [28.51639146300016, -20.122353708999924], [28.51543364600002, -20.122708829999908], [28.514791091000063, -20.122944464999932], [28.514320604000147, -20.123192155999902], [28.513307072000146, -20.123593403999905], [28.510327089000043, -20.123622254999873], [28.50611199300016, -20.12357886899997], [28.505082267000034, -20.123587664999945], [28.50362772400001, -20.12282852499993], [28.50284800700007, -20.122495801999946], [28.500837683000043, -20.121725833999903], [28.50001294000009, -20.12112754799989], [28.498466873000154, -20.119853150999973], [28.497266433000107, -20.11868571199983], [28.49681775800002, -20.118215758999952], [28.496308852000027, -20.117691523999895], [28.49547540599997, -20.116746400999943], [28.493519926000033, -20.11460560699993], [28.48581463700009, -20.10547919499993], [28.484112284000048, -20.103478286999916], [28.484111284000107, -20.103426282999976], [28.48405728600011, -20.10342828299997], [28.480927371, -20.099764010999934], [28.47832394900007, -20.097039698999936], [28.487513422000063, -20.0886954529999], [28.48983789, -20.086576521999916], [28.49089046000006, -20.087322205999953], [28.49208149700013, -20.08827598599993], [28.492841015000067, -20.088953750999963], [28.49346117000016, -20.09020740899996], [28.493907294999985, -20.09143516999984], [28.494118344000128, -20.092309142999966], [28.49440150500004, -20.093049744999917], [28.49458074000006, -20.093622943999947], [28.49484582900004, -20.09408594499996], [28.495256000000154, -20.094575084999917], [28.495722543000113, -20.09489953999997], [28.496275720000142, -20.09519589199988], [28.496535414000107, -20.09524471499992], [28.49644593900007, -20.096106681999913], [28.496453031000158, -20.096853082999928], [28.49659381800018, -20.09720889199997], [28.496734604999972, -20.097564700999953], [28.49694864300011, -20.097904317999962], [28.497742675000097, -20.099858669999946], [28.49830524600003, -20.100293551999926], [28.498690477000025, -20.10165322199998], [28.498370603000183, -20.10227146099993], [28.49903294900008, -20.103408945999945], [28.499920434000046, -20.103753128999927], [28.50161367000004, -20.105629252999904], [28.505500580000103, -20.113185843999872], [28.506996052000034, -20.11383255499993], [28.509624017000135, -20.11609628799988], [28.513309764000155, -20.11219571999993], [28.518246271000123, -20.116391465999982]]]]}}, {"type": "Feature", "properties": {"GID_3": "ZWE.1.1.9_2", "GID_0": "ZWE", "COUNTRY": "Zimbabwe", "GID_1": "ZWE.1_1", "NAME_1": "Bulawayo", "NL_NAME_1": "NA", "GID_2": "ZWE.1.1_2", "NAME_2": "Bulawayo", "NL_NAME_2": "NA", "NAME_3": "Ward 17", "VARNAME_3": "NA", "NL_NAME_3": "NA", "TYPE_3": "Ward", "ENGTYPE_3": "Ward", "CC_3": "NA", "HASC_3": "NA", "id": "ZWE.1.1.9_2", "name": "Ward 17"}, "geometry": {"type": "MultiPolygon", "coordinates": [[[[28.48983789, -20.086576521999916], [28.487513422000063, -20.0886954529999], [28.47832394900007, -20.097039698999936], [28.480927371, -20.099764010999934], [28.48405728600011, -20.10342828299997], [28.484111284000107, -20.103426282999976], [28.484112284000048, -20.103478286999916], [28.48581463700009, -20.10547919499993], [28.493519926000033, -20.11460560699993], [28.491528087000177, -20.116779274999942], [28.486876223000024, -20.120965592999823], [28.485106402000042, -20.122375734999878], [28.485815275000164, -20.122973283999954], [28.485478435000175, -20.12504421099993], [28.48686712600005, -20.126523446999954], [28.4878862650001, -20.12661103599993], [28.488299018000077, -20.127184690999968], [28.488223140000173, -20.1299267469999], [28.489576482000075, -20.133041483999875], [28.49008789600009, -20.133277633999967], [28.490557062, -20.134427943999924], [28.491430356000137, -20.135238166999898], [28.492857320999974, -20.135370365999904], [28.494754596000064, -20.13708670299991], [28.494254864000084, -20.137763260999918], [28.493653027000107, -20.13873026199991], [28.492703374000143, -20.139858096999887], [28.49234575600002, -20.141499216999875], [28.491093330000126, -20.141385412999966], [28.489008904000173, -20.141506723999953], [28.487554179000142, -20.141733751999936], [28.48601951699999, -20.14195406099992], [28.484569915000122, -20.14188334399995], [28.48393272600009, -20.14182650799995], [28.48340529500007, -20.14176874499998], [28.482414404000053, -20.14163045399988], [28.481381302000045, -20.141493997999873], [28.48058986600006, -20.141376240999932], [28.479535986000087, -20.141364360999887], [28.479495453000027, -20.14064507099988], [28.47687652800016, -20.140550066999936], [28.476860651000152, -20.139904283999954], [28.468675423000093, -20.13954339199995], [28.468571765000036, -20.141586151999945], [28.46612283500008, -20.14123512799995], [28.465840847000038, -20.14512641899995], [28.465600768000115, -20.147051639999916], [28.46537606700008, -20.151839186999894], [28.462562457, -20.151715014999922], [28.459767366000108, -20.153582814999936], [28.457026671999984, -20.15711026599996], [28.45675647600001, -20.163210826999943], [28.431497022000144, -20.157736217999968], [28.430914979000192, -20.159857867999904], [28.43251447900019, -20.161393819999887], [28.436071691000166, -20.16177788499988], [28.437814788000082, -20.162525289999905], [28.438005758000088, -20.16546675299992], [28.43691315100017, -20.167127178999976], [28.438785191000136, -20.168557574999966], [28.440059674000167, -20.17040589699991], [28.44083882200016, -20.17189684199991], [28.441293273000042, -20.17375186699985], [28.442546789000176, -20.177742346999878], [28.397755644000085, -20.170218006999846], [28.38741462000013, -20.153894543999968], [28.428139476000126, -20.153620942999964], [28.415375109000138, -20.132490813999937], [28.396673262000036, -20.134589137999853], [28.404116011999974, -20.11874473599994], [28.41513961600009, -20.118450497999902], [28.408717237000133, -20.01817233299994], [28.408708132000186, -20.018030029999977], [28.420264233000182, -20.026043728999923], [28.423738014000094, -20.027832200999853], [28.425936630000137, -20.028153664999877], [28.43119905100008, -20.03017649499992], [28.435504643000172, -20.033889403999922], [28.43613769800004, -20.034215249999875], [28.44583766700015, -20.040628305999974], [28.45308695799997, -20.047809957999903], [28.458904491000055, -20.0551448839999], [28.468702360000066, -20.0705821009999], [28.471796419000043, -20.074649254999883], [28.487636193000185, -20.085080627999957], [28.48929707000019, -20.086193378999894], [28.48983789, -20.086576521999916]]]]}}, {"type": "Feature", "properties": {"GID_3": "ZWE.1.1.10_2", "GID_0": "ZWE", "COUNTRY": "Zimbabwe", "GID_1": "ZWE.1_1", "NAME_1": "Bulawayo", "NL_NAME_1": "NA", "GID_2": "ZWE.1.1_2", "NAME_2": "Bulawayo", "NL_NAME_2": "NA", "NAME_3": "Ward 18", "VARNAME_3": "NA", "NL_NAME_3": "NA", "TYPE_3": "Ward", "ENGTYPE_3": "Ward", "CC_3": "NA", "HASC_3": "NA", "id": "ZWE.1.1.10_2", "name": "Ward 18"}, "geometry": {"type": "MultiPolygon", "coordinates": [[[[28.51734318900003, -20.143867768999826], [28.516424932000177, -20.146725997999965], [28.515909866000186, -20.146920344999955], [28.51294526300012, -20.146885848999943], [28.507655684000042, -20.146376760999942], [28.505344779000097, -20.144274091999876], [28.503506963000063, -20.143223097999964], [28.50203242700013, -20.142841709999914], [28.50170576900007, -20.14279903199997], [28.500691587000176, -20.14266652299989], [28.498423586000058, -20.14229037799987], [28.49436728000012, -20.14168942999987], [28.49234575600002, -20.141499216999875], [28.492703374000143, -20.139858096999887], [28.493653027000107, -20.13873026199991], [28.494254864000084, -20.137763260999918], [28.494754596000064, -20.13708670299991], [28.49586354200011, -20.13558533999992], [28.496566266000173, -20.134521285999938], [28.497516676000146, -20.132733700999893], [28.497868028000084, -20.13220167199995], [28.499773616000027, -20.12913425299996], [28.500073123000163, -20.12850647099998], [28.50293429200002, -20.129540176999967], [28.508354118000113, -20.131137658999933], [28.51011977400003, -20.131685338999944], [28.509940281000183, -20.13273573799995], [28.509846699000093, -20.134271457999944], [28.5104009370001, -20.134933209999872], [28.51125103700008, -20.136025943999982], [28.511800788000187, -20.136865430999876], [28.516364256000145, -20.143466890999946], [28.51734318900003, -20.143867768999826]]]]}}, {"type": "Feature", "properties": {"GID_3": "ZWE.1.1.11_2", "GID_0": "ZWE", "COUNTRY": "Zimbabwe", "GID_1": "ZWE.1_1", "NAME_1": "Bulawayo", "NL_NAME_1": "NA", "GID_2": "ZWE.1.1_2", "NAME_2": "Bulawayo", "NL_NAME_2": "NA", "NAME_3": "Ward 19", "VARNAME_3": "NA", "NL_NAME_3": "NA", "TYPE_3": "Ward", "ENGTYPE_3": "Ward", "CC_3": "NA", "HASC_3": "NA", "id": "ZWE.1.1.11_2", "name": "Ward 19"}, "geometry": {"type": "MultiPolygon", "coordinates": [[[[28.465600768000115, -20.147051639999916], [28.465840847000038, -20.14512641899995], [28.46612283500008, -20.14123512799995], [28.468571765000036, -20.141586151999945], [28.468675423000093, -20.13954339199995], [28.476860651000152, -20.139904283999954], [28.47687652800016, -20.140550066999936], [28.479495453000027, -20.14064507099988], [28.479535986000087, -20.141364360999887], [28.48058986600006, -20.141376240999932], [28.481381302000045, -20.141493997999873], [28.482414404000053, -20.14163045399988], [28.48340529500007, -20.14176874499998], [28.48393272600009, -20.14182650799995], [28.484569915000122, -20.14188334399995], [28.48601951699999, -20.14195406099992], [28.487554179000142, -20.141733751999936], [28.489008904000173, -20.141506723999953], [28.491093330000126, -20.141385412999966], [28.49234575600002, -20.141499216999875], [28.49436728000012, -20.14168942999987], [28.498423586000058, -20.14229037799987], [28.500691587000176, -20.14266652299989], [28.50170576900007, -20.14279903199997], [28.499103919000106, -20.149772817999917], [28.498723096000106, -20.150696045999894], [28.499062402000106, -20.152226464999956], [28.486322411, -20.150985167999863], [28.485345494000114, -20.150686749999863], [28.483591107000166, -20.150578875999884], [28.481448850000106, -20.1506582479999], [28.480598342000064, -20.14999074199983], [28.478845695000075, -20.15006680499988], [28.47554132000016, -20.14758195199994], [28.472618167000178, -20.147483756999975], [28.465600768000115, -20.147051639999916]]]]}}, {"type": "Feature", "properties": {"GID_3": "ZWE.1.1.12_2", "GID_0": "ZWE", "COUNTRY": "Zimbabwe", "GID_1": "ZWE.1_1", "NAME_1": "Bulawayo", "NL_NAME_1": "NA", "GID_2": "ZWE.1.1_2", "NAME_2": "Bulawayo", "NL_NAME_2": "NA", "NAME_3": "Ward 2", "VARNAME_3": "NA", "NL_NAME_3": "NA", "TYPE_3": "Ward", "ENGTYPE_3": "Ward", "CC_3": "NA", "HASC_3": "NA", "id": "ZWE.1.1.12_2", "name": "Ward 2"}, "geometry": {"type": "MultiPolygon", "coordinates": [[[[28.590408841000055, -20.142143374999876], [28.581875134000143, -20.13983092999996], [28.58189598900003, -20.13979812799988], [28.582325542000092, -20.1391455829999], [28.581961171000046, -20.138150037999935], [28.581705308000153, -20.137102297999945], [28.58165753900016, -20.135334582999974], [28.582366423000053, -20.12253077899993], [28.580634587000077, -20.122386903999825], [28.57761228000004, -20.122127036999927], [28.574317932000156, -20.121805782999957], [28.570889162000128, -20.12161319399985], [28.557624632000056, -20.11838550799996], [28.55503997800008, -20.117770666999945], [28.55236233000005, -20.117109796999898], [28.550151205000134, -20.116523475999884], [28.54780376700006, -20.115874556999927], [28.546335581000108, -20.114930947999937], [28.540877250000108, -20.111397370999953], [28.539177772000187, -20.110238904999846], [28.537535547000118, -20.10922219999992], [28.536460036, -20.108586230999947], [28.535606652000126, -20.108051648999947], [28.532213545000104, -20.105871303999947], [28.53132863999997, -20.10532928899994], [28.535148841000137, -20.10272089599988], [28.53635822700005, -20.10107887899983], [28.537343129000135, -20.099443563999955], [28.537892532000058, -20.09819116799997], [28.538389938000023, -20.096843253999907], [28.538736523000182, -20.095736578999947], [28.538811189000114, -20.094239092999942], [28.53867956200014, -20.091217188999906], [28.538511417, -20.089683136999895], [28.53839593000015, -20.08793352899994], [28.538374852000175, -20.08577438899988], [28.53831631000014, -20.085007138999913], [28.538208125000153, -20.08438427699997], [28.53809853700011, -20.083617471999958], [28.538040934000094, -20.082946183999923], [28.533627778000152, -20.085863678999885], [28.522885208, -20.07186480099989], [28.520380770000088, -20.06866854599997], [28.51302417900007, -20.059239342999945], [28.51302542899998, -20.0592227489999], [28.512646615000108, -20.04296994799995], [28.53076483400008, -20.030471422999824], [28.533575504000112, -20.031545741999878], [28.53486574699997, -20.03383174599992], [28.536547711000082, -20.035781976999942], [28.538872807000075, -20.03581170399997], [28.539674045000083, -20.036703630999966], [28.540008073000024, -20.038448582999933], [28.54156604800005, -20.04108176899996], [28.54641992700016, -20.043097591999924], [28.5477011590001, -20.044434727999885], [28.548510324000176, -20.04612555799997], [28.54789392100008, -20.047928746999958], [28.546931430000086, -20.04932215599996], [28.548217127000157, -20.051108692999833], [28.549656466000158, -20.05239448499998], [28.55371288700013, -20.056503774999896], [28.554159474000016, -20.04433730599993], [28.571971559000076, -20.029028729999823], [28.573762010000166, -20.028093939999906], [28.57372054299998, -20.026709511999968], [28.577287175000038, -20.01948061999991], [28.587225959000136, -19.999769110999978], [28.60723984200007, -19.96147483799996], [28.61306722300003, -19.96846319899987], [28.623080806000132, -19.98041539699983], [28.63968018500003, -19.99997865499995], [28.643597552000074, -20.00415933399995], [28.64711202100017, -20.00569171899997], [28.657267799000067, -20.010417592999943], [28.671169237000072, -20.01630911799998], [28.66799239, -20.024039309999978], [28.6617845720001, -20.027964558999884], [28.65063854100009, -20.049132354999927], [28.650608569999974, -20.05228834499991], [28.64984377200011, -20.05812077199994], [28.648499311000023, -20.060375626999928], [28.648336354000094, -20.06060449799992], [28.64701574900016, -20.061719064999863], [28.64537454900011, -20.066213091999884], [28.643576014000075, -20.06865166999995], [28.64893436, -20.06834493499997], [28.65589098900017, -20.068103738999923], [28.646548831000075, -20.090419821999944], [28.646803196000064, -20.09298399999983], [28.63951179300011, -20.092089432999956], [28.636515079000162, -20.098899306999954], [28.63344264400007, -20.10402304099989], [28.631655285000022, -20.103576175999933], [28.630376024000157, -20.100914499999817], [28.628363362000073, -20.100683561999972], [28.62742, -20.101155674999973], [28.625633422000135, -20.100780031999875], [28.624903999000082, -20.09993122899988], [28.627088599000047, -20.09477795699985], [28.626510161000112, -20.09385647199997], [28.62514516400006, -20.094142020999982], [28.623617101000036, -20.091691426999887], [28.62166493900014, -20.089492869999958], [28.62045846899997, -20.090309953999906], [28.61959822500006, -20.090049181999916], [28.618482089000054, -20.09468083199988], [28.616944843000056, -20.1000514939999], [28.61265350399998, -20.103338528999927], [28.60983246100011, -20.10871381299995], [28.60538579300004, -20.11768550599993], [28.60153013300004, -20.12645872199994], [28.59908210000009, -20.126410479999947], [28.59919673600018, -20.127300155999933], [28.600191498000072, -20.129287113999908], [28.600162542000135, -20.131050153999865], [28.599626627000134, -20.132277890999944], [28.59862416800007, -20.132859891999942], [28.59744110400004, -20.13417091399998], [28.59667840200018, -20.134435291999978], [28.596159143000136, -20.135126540999977], [28.595124187000124, -20.137757892999844], [28.595318286000065, -20.13845888299994], [28.593822194000097, -20.1384372899999], [28.591648394000174, -20.137965020999843], [28.590925242000026, -20.140485120999813], [28.590846847000023, -20.14081876699987], [28.590528337000137, -20.141666793999946], [28.590408841000055, -20.142143374999876]]]]}}, {"type": "Feature", "properties": {"GID_3": "ZWE.1.1.13_2", "GID_0": "ZWE", "COUNTRY": "Zimbabwe", "GID_1": "ZWE.1_1", "NAME_1": "Bulawayo", "NL_NAME_1": "NA", "GID_2": "ZWE.1.1_2", "NAME_2": "Bulawayo", "NL_NAME_2": "NA", "NAME_3": "Ward 20", "VARNAME_3": "NA", "NL_NAME_3": "NA", "TYPE_3": "Ward", "ENGTYPE_3": "Ward", "CC_3": "NA", "HASC_3": "NA", "id": "ZWE.1.1.13_2", "name": "Ward 20"}, "geometry": {"type": "MultiPolygon", "coordinates": [[[[28.51598850700003, -20.159590282999886], [28.51941657800006, -20.157874992999893], [28.52131630700012, -20.156793912999888], [28.52869795500004, -20.156053004999933], [28.532140512000183, -20.15584562899994], [28.540630734000104, -20.154751383999894], [28.543226664000144, -20.154432905999954], [28.546945409999978, -20.1536609179999], [28.546514920000106, -20.15446319499995], [28.545335117000093, -20.158673049999948], [28.544291630000146, -20.162379637999948], [28.544213633000027, -20.163542724999957], [28.544238633000134, -20.16360572999986], [28.544242602, -20.163659763999874], [28.544330152000157, -20.16485160699989], [28.542740039000137, -20.166294513999844], [28.538786818000176, -20.16738772899987], [28.537554271000033, -20.167585631999884], [28.535812726000074, -20.168517967999946], [28.528635028000053, -20.17019176899987], [28.521331238000073, -20.171915217999924], [28.51989109699997, -20.172462588999906], [28.509817133000126, -20.17721387699993], [28.50913138100003, -20.177545043999885], [28.508225094000124, -20.177971035999974], [28.507686060000083, -20.178208001999963], [28.500705564000043, -20.181569963999948], [28.498227563000057, -20.181623600999956], [28.495555433000106, -20.18658715999993], [28.49582647699998, -20.18973786999993], [28.493279170000164, -20.190174897999952], [28.49273240200006, -20.190179541999896], [28.49212948200011, -20.19002976899992], [28.491304417000094, -20.189520460999972], [28.49037196900008, -20.189218583999946], [28.489877426000078, -20.1889646219999], [28.489110484000037, -20.188816227999894], [28.488235661000033, -20.18882363599988], [28.487582974000134, -20.189190577999966], [28.48671598400017, -20.19002400799991], [28.48573816300018, -20.19070347899998], [28.484537221000096, -20.190920149999897], [28.483338719000074, -20.191394946999935], [28.4809817310001, -20.19079524999995], [28.4905718870001, -20.172410114999934], [28.490614617000062, -20.172322740999903], [28.49177363700005, -20.172079864999887], [28.50047439800005, -20.167597907999948], [28.507584260000044, -20.166425511999932], [28.51254745300008, -20.161591214999874], [28.51598850700003, -20.159590282999886]]]]}}, {"type": "Feature", "properties": {"GID_3": "ZWE.1.1.14_2", "GID_0": "ZWE", "COUNTRY": "Zimbabwe", "GID_1": "ZWE.1_1", "NAME_1": "Bulawayo", "NL_NAME_1": "NA", "GID_2": "ZWE.1.1_2", "NAME_2": "Bulawayo", "NL_NAME_2": "NA", "NAME_3": "Ward 21", "VARNAME_3": "NA", "NL_NAME_3": "NA", "TYPE_3": "Ward", "ENGTYPE_3": "Ward", "CC_3": "NA", "HASC_3": "NA", "id": "ZWE.1.1.14_2", "name": "Ward 21"}, "geometry": {"type": "MultiPolygon", "coordinates": [[[[28.521331238000073, -20.171915217999924], [28.528635028000053, -20.17019176899987], [28.535812726000074, -20.168517967999946], [28.537554271000033, -20.167585631999884], [28.538786818000176, -20.16738772899987], [28.542740039000137, -20.166294513999844], [28.544330152000157, -20.16485160699989], [28.54441803700007, -20.16604799099997], [28.54517007700008, -20.167745846999935], [28.546591808000073, -20.16956406799983], [28.548140407, -20.17068675099989], [28.550954691000186, -20.171356368999966], [28.55302371500011, -20.171022474999972], [28.555176421000056, -20.169511141999976], [28.55177696600009, -20.172578112999872], [28.54481346000017, -20.179048901999977], [28.54429248200006, -20.17946578899995], [28.543978501000083, -20.179811333999908], [28.543568528000037, -20.18036178799997], [28.543257463000145, -20.181003853999982], [28.543001128000128, -20.18154977499995], [28.542749168000057, -20.182540478999954], [28.541856027000165, -20.182202339999947], [28.540912010000113, -20.182012916999895], [28.539497444000176, -20.181877033999967], [28.538932405000025, -20.182969323999828], [28.538316959999975, -20.184259751999946], [28.53723640400011, -20.186277559999894], [28.53599625200019, -20.187919415999943], [28.53377526200012, -20.185615843999926], [28.532294799000056, -20.184096584999907], [28.52703282100009, -20.178225015999942], [28.525474948000067, -20.17642040499993], [28.522477127000116, -20.17325183099996], [28.521331238000073, -20.171915217999924]]]]}}, {"type": "Feature", "properties": {"GID_3": "ZWE.1.1.15_2", "GID_0": "ZWE", "COUNTRY": "Zimbabwe", "GID_1": "ZWE.1_1", "NAME_1": "Bulawayo", "NL_NAME_1": "NA", "GID_2": "ZWE.1.1_2", "NAME_2": "Bulawayo", "NL_NAME_2": "NA", "NAME_3": "Ward 22", "VARNAME_3": "NA", "NL_NAME_3": "NA", "TYPE_3": "Ward", "ENGTYPE_3": "Ward", "CC_3": "NA", "HASC_3": "NA", "id": "ZWE.1.1.15_2", "name": "Ward 22"}, "geometry": {"type": "MultiPolygon", "coordinates": [[[[28.507686060000083, -20.178208001999963], [28.508225094000124, -20.177971035999974], [28.50913138100003, -20.177545043999885], [28.509817133000126, -20.17721387699993], [28.51989109699997, -20.172462588999906], [28.521331238000073, -20.171915217999924], [28.522477127000116, -20.17325183099996], [28.525474948000067, -20.17642040499993], [28.521911796000097, -20.179602706999958], [28.519936756000106, -20.18110459899998], [28.518980811000176, -20.18180374399992], [28.520276674000172, -20.18306523899986], [28.519512133999967, -20.183647590999897], [28.522622349000187, -20.18668120599989], [28.523067768000033, -20.18628341999994], [28.523811705000185, -20.1868830169999], [28.52433397100009, -20.187787553999954], [28.52562107900019, -20.188140014999817], [28.52556250400005, -20.18871626399988], [28.52476056300003, -20.188753523999935], [28.523338289000094, -20.19106580999994], [28.523281886000177, -20.191631285999847], [28.523440099000027, -20.192265690999932], [28.523161140000127, -20.192616760999954], [28.522927811000102, -20.193193032999943], [28.517263757000023, -20.19028373899988], [28.513990122000166, -20.18616641999995], [28.507686060000083, -20.178208001999963]]]]}}, {"type": "Feature", "properties": {"GID_3": "ZWE.1.1.16_2", "GID_0": "ZWE", "COUNTRY": "Zimbabwe", "GID_1": "ZWE.1_1", "NAME_1": "Bulawayo", "NL_NAME_1": "NA", "GID_2": "ZWE.1.1_2", "NAME_2": "Bulawayo", "NL_NAME_2": "NA", "NAME_3": "Ward 23", "VARNAME_3": "NA", "NL_NAME_3": "NA", "TYPE_3": "Ward", "ENGTYPE_3": "Ward", "CC_3": "NA", "HASC_3": "NA", "id": "ZWE.1.1.16_2", "name": "Ward 23"}, "geometry": {"type": "MultiPolygon", "coordinates": [[[[28.49582647699998, -20.18973786999993], [28.495555433000106, -20.18658715999993], [28.498227563000057, -20.181623600999956], [28.500705564000043, -20.181569963999948], [28.507686060000083, -20.178208001999963], [28.513990122000166, -20.18616641999995], [28.517263757000023, -20.19028373899988], [28.522927811000102, -20.193193032999943], [28.52243165600015, -20.19354598299998], [28.52252471100013, -20.194180953999933], [28.522248350000098, -20.19443495699994], [28.522036901999968, -20.194663346999903], [28.521761122999976, -20.195342529999948], [28.521115511000062, -20.195963387999882], [28.520578590000127, -20.196274052999854], [28.520363184000075, -20.19646049699992], [28.520060700999977, -20.196627185999944], [28.519519101000128, -20.196775431999924], [28.518976107000128, -20.196780126999897], [28.518605679000018, -20.196660274999942], [28.518126454000083, -20.196520852999925], [28.517463274000136, -20.197572537999974], [28.517030862000013, -20.197781360999954], [28.51653130500017, -20.19778567299994], [28.516072011000176, -20.197461492999935], [28.515611529000125, -20.197014267999975], [28.515155810000124, -20.197059214999967], [28.514831202000096, -20.197185067999897], [28.51440349500018, -20.19734520599991], [28.512931726000147, -20.200705609999886], [28.509746394000047, -20.197087902999954], [28.509608865000132, -20.196944924999855], [28.508175355000162, -20.195468277999964], [28.506777338000063, -20.194329553999978], [28.501042765000136, -20.190057140999897], [28.499941821000164, -20.189292077999937], [28.498410884000066, -20.189305134999927], [28.49582647699998, -20.18973786999993]]]]}}, {"type": "Feature", "properties": {"GID_3": "ZWE.1.1.17_2", "GID_0": "ZWE", "COUNTRY": "Zimbabwe", "GID_1": "ZWE.1_1", "NAME_1": "Bulawayo", "NL_NAME_1": "NA", "GID_2": "ZWE.1.1_2", "NAME_2": "Bulawayo", "NL_NAME_2": "NA", "NAME_3": "Ward 24", "VARNAME_3": "NA", "NL_NAME_3": "NA", "TYPE_3": "Ward", "ENGTYPE_3": "Ward", "CC_3": "NA", "HASC_3": "NA", "id": "ZWE.1.1.17_2", "name": "Ward 24"}, "geometry": {"type": "MultiPolygon", "coordinates": [[[[28.525474948000067, -20.17642040499993], [28.52703282100009, -20.178225015999942], [28.532294799000056, -20.184096584999907], [28.53377526200012, -20.185615843999926], [28.53599625200019, -20.187919415999943], [28.53585541100017, -20.187873490999948], [28.532861661000084, -20.19118560599992], [28.526469994000138, -20.202956496999946], [28.523171752999986, -20.206128244999945], [28.520293124000148, -20.208458372999928], [28.519794401000183, -20.206187083999907], [28.51881305200004, -20.205800015999955], [28.518385169999988, -20.204880750999905], [28.516974685000093, -20.203442562999953], [28.51310999599997, -20.200937734999968], [28.512931726000147, -20.200705609999886], [28.51440349500018, -20.19734520599991], [28.514831202000096, -20.197185067999897], [28.515155810000124, -20.197059214999967], [28.515611529000125, -20.197014267999975], [28.516072011000176, -20.197461492999935], [28.51653130500017, -20.19778567299994], [28.517030862000013, -20.197781360999954], [28.517463274000136, -20.197572537999974], [28.518126454000083, -20.196520852999925], [28.518605679000018, -20.196660274999942], [28.518976107000128, -20.196780126999897], [28.519519101000128, -20.196775431999924], [28.520060700999977, -20.196627185999944], [28.520363184000075, -20.19646049699992], [28.520578590000127, -20.196274052999854], [28.521115511000062, -20.195963387999882], [28.521761122999976, -20.195342529999948], [28.522036901999968, -20.194663346999903], [28.522248350000098, -20.19443495699994], [28.52252471100013, -20.194180953999933], [28.52243165600015, -20.19354598299998], [28.522927811000102, -20.193193032999943], [28.523161140000127, -20.192616760999954], [28.523440099000027, -20.192265690999932], [28.523281886000177, -20.191631285999847], [28.523338289000094, -20.19106580999994], [28.52476056300003, -20.188753523999935], [28.52556250400005, -20.18871626399988], [28.52562107900019, -20.188140014999817], [28.52433397100009, -20.187787553999954], [28.523811705000185, -20.1868830169999], [28.523067768000033, -20.18628341999994], [28.522622349000187, -20.18668120599989], [28.519512133999967, -20.183647590999897], [28.520276674000172, -20.18306523899986], [28.518980811000176, -20.18180374399992], [28.519936756000106, -20.18110459899998], [28.521911796000097, -20.179602706999958], [28.525474948000067, -20.17642040499993]]]]}}, {"type": "Feature", "properties": {"GID_3": "ZWE.1.1.18_2", "GID_0": "ZWE", "COUNTRY": "Zimbabwe", "GID_1": "ZWE.1_1", "NAME_1": "Bulawayo", "NL_NAME_1": "NA", "GID_2": "ZWE.1.1_2", "NAME_2": "Bulawayo", "NL_NAME_2": "NA", "NAME_3": "Ward 25", "VARNAME_3": "NA", "NL_NAME_3": "NA", "TYPE_3": "Ward", "ENGTYPE_3": "Ward", "CC_3": "NA", "HASC_3": "NA", "id": "ZWE.1.1.18_2", "name": "Ward 25"}, "geometry": {"type": "MultiPolygon", "coordinates": [[[[28.520293124000148, -20.208458372999928], [28.523171752999986, -20.206128244999945], [28.526469994000138, -20.202956496999946], [28.532861661000084, -20.19118560599992], [28.53585541100017, -20.187873490999948], [28.53599625200019, -20.187919415999943], [28.537319282000055, -20.18939059199988], [28.539205856000024, -20.190813798999955], [28.54083764100011, -20.191738569999927], [28.54189028900015, -20.192322433999834], [28.543100941000148, -20.19300375299997], [28.54394326700003, -20.19349060099995], [28.544994964000068, -20.193975603999945], [28.546100958000125, -20.194657820999964], [28.545848028000137, -20.195549686999982], [28.545542753, -20.1964420139999], [28.544668604000094, -20.197467457999835], [28.54305621000009, -20.198519538999903], [28.54165024800011, -20.19927324899993], [28.54046218800005, -20.2003343909999], [28.539751462000027, -20.202556855999944], [28.539639410000177, -20.202985379999973], [28.539485196000044, -20.20550280499998], [28.539510813000106, -20.206473347999975], [28.53905710000015, -20.208451833999902], [28.537920857000188, -20.2097434559999], [28.536948677000055, -20.21030427499994], [28.534746834000032, -20.211603592999893], [28.533157246000144, -20.21318138199996], [28.529284108000127, -20.217351833999885], [28.528254261000086, -20.218207459999974], [28.526853234000043, -20.216873736999958], [28.526456963000044, -20.215873730999817], [28.525684890000036, -20.215971663999937], [28.52529351900006, -20.21547333799998], [28.52330437200004, -20.21462398799997], [28.523726284000134, -20.213297594999915], [28.52304950900003, -20.21325785399989], [28.52211655000019, -20.211715151999897], [28.521292195000115, -20.211403013999927], [28.521233249000034, -20.210308847999897], [28.520846781000046, -20.210312194999972], [28.52050153400012, -20.20958539999998], [28.520880911000177, -20.20885233099989], [28.520467768000174, -20.208575426999914], [28.520293124000148, -20.208458372999928]]]]}}, {"type": "Feature", "properties": {"GID_3": "ZWE.1.1.19_2", "GID_0": "ZWE", "COUNTRY": "Zimbabwe", "GID_1": "ZWE.1_1", "NAME_1": "Bulawayo", "NL_NAME_1": "NA", "GID_2": "ZWE.1.1_2", "NAME_2": "Bulawayo", "NL_NAME_2": "NA", "NAME_3": "Ward 26", "VARNAME_3": "NA", "NL_NAME_3": "NA", "TYPE_3": "Ward", "ENGTYPE_3": "Ward", "CC_3": "NA", "HASC_3": "NA", "id": "ZWE.1.1.19_2", "name": "Ward 26"}, "geometry": {"type": "MultiPolygon", "coordinates": [[[[28.51310999599997, -20.200937734999968], [28.516974685000093, -20.203442562999953], [28.518385169999988, -20.204880750999905], [28.51881305200004, -20.205800015999955], [28.519794401000183, -20.206187083999907], [28.520293124000148, -20.208458372999928], [28.520467768000174, -20.208575426999914], [28.520880911000177, -20.20885233099989], [28.52050153400012, -20.20958539999998], [28.520846781000046, -20.210312194999972], [28.521233249000034, -20.210308847999897], [28.521292195000115, -20.211403013999927], [28.52211655000019, -20.211715151999897], [28.52304950900003, -20.21325785399989], [28.523726284000134, -20.213297594999915], [28.52330437200004, -20.21462398799997], [28.52529351900006, -20.21547333799998], [28.525684890000036, -20.215971663999937], [28.526456963000044, -20.215873730999817], [28.526853234000043, -20.216873736999958], [28.528254261000086, -20.218207459999974], [28.528292771000054, -20.218375536999872], [28.523037215000045, -20.22369526999995], [28.516945870000086, -20.229285791999928], [28.514308824000068, -20.231022640999925], [28.514169156000037, -20.231023845999857], [28.50969980300016, -20.231062353999846], [28.504959987000063, -20.232026032999897], [28.497987913000145, -20.2332723639999], [28.500864039000078, -20.22731442399987], [28.503873282000086, -20.22069604299992], [28.508942755000078, -20.210499913999968], [28.512636854000107, -20.202557], [28.51310999599997, -20.200937734999968]]]]}}, {"type": "Feature", "properties": {"GID_3": "ZWE.1.1.20_2", "GID_0": "ZWE", "COUNTRY": "Zimbabwe", "GID_1": "ZWE.1_1", "NAME_1": "Bulawayo", "NL_NAME_1": "NA", "GID_2": "ZWE.1.1_2", "NAME_2": "Bulawayo", "NL_NAME_2": "NA", "NAME_3": "Ward 27", "VARNAME_3": "NA", "NL_NAME_3": "NA", "TYPE_3": "Ward", "ENGTYPE_3": "Ward", "CC_3": "NA", "HASC_3": "NA", "id": "ZWE.1.1.20_2", "name": "Ward 27"}, "geometry": {"type": "MultiPolygon", "coordinates": [[[[28.516424932000177, -20.146725997999965], [28.516048719000025, -20.147293388999913], [28.516154068000162, -20.148475450999968], [28.516355635000025, -20.14989327899991], [28.516600226000094, -20.152523277999933], [28.5166449620001, -20.153912880999883], [28.516445518000126, -20.15503191799985], [28.516423346000067, -20.15597848399983], [28.516337979000184, -20.156866444999935], [28.516192271000193, -20.15799152099993], [28.51598850700003, -20.159590282999886], [28.51254745300008, -20.161591214999874], [28.507584260000044, -20.166425511999932], [28.50047439800005, -20.167597907999948], [28.49177363700005, -20.172079864999887], [28.490614617000062, -20.172322740999903], [28.491440223000154, -20.170739304999813], [28.456880208000143, -20.163234007999904], [28.45675647600001, -20.163210826999943], [28.457026671999984, -20.15711026599996], [28.459767366000108, -20.153582814999936], [28.462562457, -20.151715014999922], [28.46537606700008, -20.151839186999894], [28.465600768000115, -20.147051639999916], [28.472618167000178, -20.147483756999975], [28.47554132000016, -20.14758195199994], [28.478845695000075, -20.15006680499988], [28.480598342000064, -20.14999074199983], [28.481448850000106, -20.1506582479999], [28.483591107000166, -20.150578875999884], [28.485345494000114, -20.150686749999863], [28.486322411, -20.150985167999863], [28.499062402000106, -20.152226464999956], [28.498723096000106, -20.150696045999894], [28.499103919000106, -20.149772817999917], [28.50170576900007, -20.14279903199997], [28.50203242700013, -20.142841709999914], [28.503506963000063, -20.143223097999964], [28.505344779000097, -20.144274091999876], [28.507655684000042, -20.146376760999942], [28.51294526300012, -20.146885848999943], [28.515909866000186, -20.146920344999955], [28.516424932000177, -20.146725997999965]]]]}}, {"type": "Feature", "properties": {"GID_3": "ZWE.1.1.21_2", "GID_0": "ZWE", "COUNTRY": "Zimbabwe", "GID_1": "ZWE.1_1", "NAME_1": "Bulawayo", "NL_NAME_1": "NA", "GID_2": "ZWE.1.1_2", "NAME_2": "Bulawayo", "NL_NAME_2": "NA", "NAME_3": "Ward 28", "VARNAME_3": "NA", "NL_NAME_3": "NA", "TYPE_3": "Ward", "ENGTYPE_3": "Ward", "CC_3": "NA", "HASC_3": "NA", "id": "ZWE.1.1.21_2", "name": "Ward 28"}, "geometry": {"type": "MultiPolygon", "coordinates": [[[[28.53132863999997, -20.10532928899994], [28.521111146000123, -20.098526613999923], [28.52095865400014, -20.098463502999948], [28.51826102300015, -20.09734700499996], [28.516089493000038, -20.097447778999936], [28.514815939000187, -20.097962139999936], [28.514387703000125, -20.098201308999933], [28.513636731000133, -20.09842669099993], [28.513088245000063, -20.098622966999926], [28.512270395000087, -20.098736456999973], [28.511719280000193, -20.09865907799997], [28.511169740000014, -20.09874588699995], [28.510648377000166, -20.098750351999968], [28.509980355000096, -20.098564498999963], [28.509455845000048, -20.09824057999998], [28.509049030000085, -20.098107222999886], [28.50867091900011, -20.097946252999975], [28.508380225000053, -20.097839268999905], [28.50797288800004, -20.097651178999968], [28.507506837999983, -20.097381487999883], [28.50733200400009, -20.09727351299989], [28.506953896000084, -20.09711253799992], [28.506691646000036, -20.096950573999948], [28.506284313000037, -20.096762479999825], [28.50515287200011, -20.09627915999988], [28.504454593000162, -20.095956706999857], [28.503959589000033, -20.095687252999937], [28.503436406, -20.0955001399999], [28.503029342000104, -20.09533940299991], [28.502680990000044, -20.095260267999947], [28.502390305000063, -20.09515327299988], [28.501839466000035, -20.095103227999914], [28.501346816000137, -20.095080051999958], [28.50085364500012, -20.09500214499991], [28.50047763300006, -20.095060077999904], [28.499985765000076, -20.095118993999904], [28.499147369000127, -20.095290322999972], [28.497877570000128, -20.09536372499997], [28.497443108000084, -20.095367412999963], [28.49697216000004, -20.095326822999937], [28.496535414000107, -20.09524471499992], [28.496275720000142, -20.09519589199988], [28.495722543000113, -20.09489953999997], [28.495256000000154, -20.094575084999917], [28.49484582900004, -20.09408594499996], [28.49458074000006, -20.093622943999947], [28.49440150500004, -20.093049744999917], [28.494118344000128, -20.092309142999966], [28.493907294999985, -20.09143516999984], [28.49346117000016, -20.09020740899996], [28.492841015000067, -20.088953750999963], [28.49208149700013, -20.08827598599993], [28.49089046000006, -20.087322205999953], [28.48983789, -20.086576521999916], [28.48929707000019, -20.086193378999894], [28.487636193000185, -20.085080627999957], [28.471796419000043, -20.074649254999883], [28.468702360000066, -20.0705821009999], [28.500412199000152, -20.062438319999956], [28.51302417900007, -20.059239342999945], [28.520380770000088, -20.06866854599997], [28.522885208, -20.07186480099989], [28.533627778000152, -20.085863678999885], [28.538040934000094, -20.082946183999923], [28.53809853700011, -20.083617471999958], [28.538208125000153, -20.08438427699997], [28.53831631000014, -20.085007138999913], [28.538374852000175, -20.08577438899988], [28.53839593000015, -20.08793352899994], [28.538511417, -20.089683136999895], [28.53867956200014, -20.091217188999906], [28.538811189000114, -20.094239092999942], [28.538736523000182, -20.095736578999947], [28.538389938000023, -20.096843253999907], [28.537892532000058, -20.09819116799997], [28.537343129000135, -20.099443563999955], [28.53635822700005, -20.10107887899983], [28.535148841000137, -20.10272089599988], [28.53132863999997, -20.10532928899994]]]]}}, {"type": "Feature", "properties": {"GID_3": "ZWE.1.1.22_2", "GID_0": "ZWE", "COUNTRY": "Zimbabwe", "GID_1": "ZWE.1_1", "NAME_1": "Bulawayo", "NL_NAME_1": "NA", "GID_2": "ZWE.1.1_2", "NAME_2": "Bulawayo", "NL_NAME_2": "NA", "NAME_3": "Ward 29", "VARNAME_3": "NA", "NL_NAME_3": "NA", "TYPE_3": "Ward", "ENGTYPE_3": "Ward", "CC_3": "NA", "HASC_3": "NA", "id": "ZWE.1.1.22_2", "name": "Ward 29"}, "geometry": {"type": "MultiPolygon", "coordinates": [[[[28.510327089000043, -20.123622254999873], [28.510385315000065, -20.12608660999996], [28.51045151200009, -20.126525174999927], [28.510458822000032, -20.127286274999904], [28.51049487400013, -20.127812923999954], [28.510490904000164, -20.128177464999965], [28.510494675000018, -20.128570059999902], [28.5104516720001, -20.12958477299992], [28.51011977400003, -20.131685338999944], [28.508354118000113, -20.131137658999933], [28.50293429200002, -20.129540176999967], [28.500073123000163, -20.12850647099998], [28.499773616000027, -20.12913425299996], [28.497868028000084, -20.13220167199995], [28.497516676000146, -20.132733700999893], [28.496566266000173, -20.134521285999938], [28.49586354200011, -20.13558533999992], [28.494754596000064, -20.13708670299991], [28.492857320999974, -20.135370365999904], [28.491430356000137, -20.135238166999898], [28.490557062, -20.134427943999924], [28.49008789600009, -20.133277633999967], [28.489576482000075, -20.133041483999875], [28.488223140000173, -20.1299267469999], [28.488299018000077, -20.127184690999968], [28.4878862650001, -20.12661103599993], [28.48686712600005, -20.126523446999954], [28.485478435000175, -20.12504421099993], [28.485815275000164, -20.122973283999954], [28.485106402000042, -20.122375734999878], [28.486876223000024, -20.120965592999823], [28.491528087000177, -20.116779274999942], [28.493519926000033, -20.11460560699993], [28.49547540599997, -20.116746400999943], [28.496308852000027, -20.117691523999895], [28.49681775800002, -20.118215758999952], [28.497266433000107, -20.11868571199983], [28.498466873000154, -20.119853150999973], [28.50001294000009, -20.12112754799989], [28.500837683000043, -20.121725833999903], [28.50284800700007, -20.122495801999946], [28.50362772400001, -20.12282852499993], [28.505082267000034, -20.123587664999945], [28.50611199300016, -20.12357886899997], [28.510327089000043, -20.123622254999873]]]]}}, {"type": "Feature", "properties": {"GID_3": "ZWE.1.1.23_2", "GID_0": "ZWE", "COUNTRY": "Zimbabwe", "GID_1": "ZWE.1_1", "NAME_1": "Bulawayo", "NL_NAME_1": "NA", "GID_2": "ZWE.1.1_2", "NAME_2": "Bulawayo", "NL_NAME_2": "NA", "NAME_3": "Ward 3", "VARNAME_3": "NA", "NL_NAME_3": "NA", "TYPE_3": "Ward", "ENGTYPE_3": "Ward", "CC_3": "NA", "HASC_3": "NA", "id": "ZWE.1.1.23_2", "name": "Ward 3"}, "geometry": {"type": "MultiPolygon", "coordinates": [[[[28.59225488300018, -20.15511653099992], [28.592307598000048, -20.153391366999927], [28.592883074000042, -20.152950240999928], [28.59282929900013, -20.150246829999958], [28.592980319000162, -20.148476461999962], [28.59311847200013, -20.147817506999957], [28.593409696000094, -20.146863319999966], [28.59285146300016, -20.14678641899991], [28.59268374800007, -20.14676588899988], [28.5903691150001, -20.1461583599999], [28.58981252300009, -20.146058987999936], [28.589292968000166, -20.145959278999953], [28.59037029700005, -20.14229709599988], [28.590408841000055, -20.142143374999876], [28.590528337000137, -20.141666793999946], [28.590846847000023, -20.14081876699987], [28.590925242000026, -20.140485120999813], [28.591648394000174, -20.137965020999843], [28.593822194000097, -20.1384372899999], [28.595318286000065, -20.13845888299994], [28.595124187000124, -20.137757892999844], [28.596159143000136, -20.135126540999977], [28.59667840200018, -20.134435291999978], [28.59744110400004, -20.13417091399998], [28.59862416800007, -20.132859891999942], [28.599626627000134, -20.132277890999944], [28.600162542000135, -20.131050153999865], [28.600191498000072, -20.129287113999908], [28.59919673600018, -20.127300155999933], [28.59908210000009, -20.126410479999947], [28.60153013300004, -20.12645872199994], [28.60538579300004, -20.11768550599993], [28.60983246100011, -20.10871381299995], [28.61265350399998, -20.103338528999927], [28.616944843000056, -20.1000514939999], [28.618482089000054, -20.09468083199988], [28.61959822500006, -20.090049181999916], [28.62045846899997, -20.090309953999906], [28.62166493900014, -20.089492869999958], [28.623617101000036, -20.091691426999887], [28.62514516400006, -20.094142020999982], [28.626510161000112, -20.09385647199997], [28.627088599000047, -20.09477795699985], [28.624903999000082, -20.09993122899988], [28.625633422000135, -20.100780031999875], [28.62742, -20.101155674999973], [28.628363362000073, -20.100683561999972], [28.630376024000157, -20.100914499999817], [28.631655285000022, -20.103576175999933], [28.63344264400007, -20.10402304099989], [28.636515079000162, -20.098899306999954], [28.63951179300011, -20.092089432999956], [28.646803196000064, -20.09298399999983], [28.646548831000075, -20.090419821999944], [28.65589098900017, -20.068103738999923], [28.66244415200015, -20.06787627999995], [28.667915226000048, -20.067606167999884], [28.66098804300003, -20.084179091999943], [28.662000535000118, -20.085034142999916], [28.66044664300017, -20.08898027799995], [28.656631151000113, -20.089304324999944], [28.657479752000086, -20.100104904999966], [28.65119997300019, -20.11327063599998], [28.652433980000012, -20.113966459999972], [28.655419332000122, -20.111528111999917], [28.655581026, -20.111532081999883], [28.659217754000167, -20.111621331999913], [28.66100958600009, -20.112338043999955], [28.662993015000154, -20.112241789999928], [28.666166448000126, -20.113120878999894], [28.669006074000038, -20.113509559999898], [28.675337668000054, -20.113155878999976], [28.676541887000155, -20.11433427399993], [28.651756903000035, -20.151790449999964], [28.65125626800011, -20.15295051699985], [28.663923867000108, -20.163322741999878], [28.66326169900003, -20.165269923999972], [28.66446464900008, -20.166353312999888], [28.66935574200005, -20.169043878999958], [28.674556722000148, -20.167565177999904], [28.675175639000088, -20.168228305999946], [28.675149933000114, -20.16883674999997], [28.67425939800006, -20.169879167999966], [28.670927205000112, -20.171461762999968], [28.67032651200003, -20.172340148999922], [28.668659908000166, -20.17173121999997], [28.667600103000154, -20.171292877999974], [28.66734664700016, -20.171082883999816], [28.667017330000192, -20.170826409999904], [28.66570934800012, -20.170007711999915], [28.665077097000108, -20.16961250399993], [28.66489925600007, -20.1694253899999], [28.664595566000173, -20.169215866999878], [28.66436798800015, -20.16907642299998], [28.66403943100005, -20.168890733999888], [28.663634765000154, -20.168634964999967], [28.662649352000074, -20.16810148999997], [28.661814411000023, -20.167542986999933], [28.661460490000138, -20.167333932999952], [28.66075265300009, -20.166915821999908], [28.65859584500015, -20.165662196999904], [28.658014365000156, -20.165313681999976], [28.657686072000104, -20.16515157799995], [28.65728217300017, -20.164966584999945], [28.65665245400004, -20.164807316999884], [28.655722054000137, -20.164721675999886], [28.654191536000155, -20.164901269999916], [28.65358967300017, -20.165001325999867], [28.652583785000104, -20.16514624399997], [28.650928902000032, -20.16544497699988], [28.65041594400003, -20.165570801999934], [28.649964294000142, -20.16562223799997], [28.649438279000037, -20.165768768999953], [28.648611327000026, -20.165965316999973], [28.64693254400015, -20.16638223599989], [28.64655723900006, -20.16652734799993], [28.646106080000152, -20.166625968999824], [28.645479825999985, -20.166797025999927], [28.64499161000009, -20.166866670999923], [28.64366101800016, -20.166949905999957], [28.642179460000136, -20.167010940999944], [28.640971501000138, -20.16680981299993], [28.640629095, -20.16671650199993], [28.640296886000158, -20.166610734999892], [28.64013053800005, -20.166534524999975], [28.639449568000032, -20.166323142999886], [28.638569957000186, -20.166113606999886], [28.62851467800016, -20.163566057999958], [28.627983197000162, -20.16339990199998], [28.627568719000124, -20.163341527999933], [28.626755350000053, -20.163131318999945], [28.62205890100006, -20.161965649999956], [28.611326782000162, -20.159167523999884], [28.611061295000127, -20.159107744999915], [28.610862180000083, -20.159062910999864], [28.610679619, -20.159017924999944], [28.607848043000047, -20.158358126999815], [28.606537866000053, -20.15871362999991], [28.605505723000192, -20.158462202999885], [28.59831044400005, -20.15653349699994], [28.598061518000065, -20.15647354799995], [28.59781259300013, -20.156413597999858], [28.59225488300018, -20.15511653099992]]]]}}, {"type": "Feature", "properties": {"GID_3": "ZWE.1.1.24_2", "GID_0": "ZWE", "COUNTRY": "Zimbabwe", "GID_1": "ZWE.1_1", "NAME_1": "Bulawayo", "NL_NAME_1": "NA", "GID_2": "ZWE.1.1_2", "NAME_2": "Bulawayo", "NL_NAME_2": "NA", "NAME_3": "Ward 4", "VARNAME_3": "NA", "NL_NAME_3": "NA", "TYPE_3": "Ward", "ENGTYPE_3": "Ward", "CC_3": "NA", "HASC_3": "NA", "id": "ZWE.1.1.24_2", "name": "Ward 4"}, "geometry": {"type": "MultiPolygon", "coordinates": [[[[28.607848043000047, -20.158358126999815], [28.610679619, -20.159017924999944], [28.610862180000083, -20.159062910999864], [28.611061295000127, -20.159107744999915], [28.611326782000162, -20.159167523999884], [28.62205890100006, -20.161965649999956], [28.626755350000053, -20.163131318999945], [28.627568719000124, -20.163341527999933], [28.627983197000162, -20.16339990199998], [28.62851467800016, -20.163566057999958], [28.638569957000186, -20.166113606999886], [28.639449568000032, -20.166323142999886], [28.64013053800005, -20.166534524999975], [28.640296886000158, -20.166610734999892], [28.640629095, -20.16671650199993], [28.640971501000138, -20.16680981299993], [28.642179460000136, -20.167010940999944], [28.64366101800016, -20.166949905999957], [28.64499161000009, -20.166866670999923], [28.645479825999985, -20.166797025999927], [28.646106080000152, -20.166625968999824], [28.64655723900006, -20.16652734799993], [28.64693254400015, -20.16638223599989], [28.648611327000026, -20.165965316999973], [28.649438279000037, -20.165768768999953], [28.649964294000142, -20.16562223799997], [28.65041594400003, -20.165570801999934], [28.650928902000032, -20.16544497699988], [28.652583785000104, -20.16514624399997], [28.65358967300017, -20.165001325999867], [28.654191536000155, -20.164901269999916], [28.655722054000137, -20.164721675999886], [28.65665245400004, -20.164807316999884], [28.65728217300017, -20.164966584999945], [28.657686072000104, -20.16515157799995], [28.658014365000156, -20.165313681999976], [28.65859584500015, -20.165662196999904], [28.66075265300009, -20.166915821999908], [28.661460490000138, -20.167333932999952], [28.661814411000023, -20.167542986999933], [28.662649352000074, -20.16810148999997], [28.663634765000154, -20.168634964999967], [28.66403943100005, -20.168890733999888], [28.66436798800015, -20.16907642299998], [28.664595566000173, -20.169215866999878], [28.66489925600007, -20.1694253899999], [28.665077097000108, -20.16961250399993], [28.66570934800012, -20.170007711999915], [28.667017330000192, -20.170826409999904], [28.66734664700016, -20.171082883999816], [28.667600103000154, -20.171292877999974], [28.668659908000166, -20.17173121999997], [28.67032651200003, -20.172340148999922], [28.674543866000135, -20.174760400999958], [28.67695425300019, -20.176339476999885], [28.67438465700019, -20.179982746999883], [28.6756297500001, -20.181977942999936], [28.684329796000156, -20.18657659799993], [28.696496127000046, -20.19098995199988], [28.696783146000087, -20.202476506999858], [28.693170002999977, -20.20205300299989], [28.690722003000133, -20.208006468999884], [28.68873266700001, -20.210179146999906], [28.68882896000008, -20.210147810999956], [28.685844061000125, -20.21412975399994], [28.685341504000178, -20.215320557999974], [28.684567324000113, -20.220809061999944], [28.67429934900008, -20.21563751399998], [28.673586209, -20.215218573999948], [28.672915683000156, -20.215772341999866], [28.672784999000157, -20.21627767399991], [28.672338976000106, -20.219861841999943], [28.66633571200009, -20.22126541599988], [28.66569216400012, -20.221332342999915], [28.663153081000075, -20.221873386999903], [28.663612428000192, -20.222659693999958], [28.664512194, -20.225479288999907], [28.665070057000094, -20.23330754799997], [28.662493518000133, -20.23640338299998], [28.650554465000027, -20.226604870999893], [28.64091031200013, -20.22642094799994], [28.638015073000076, -20.229884349999963], [28.635973305999983, -20.22871739699997], [28.635007269000084, -20.228756809999936], [28.634200260000057, -20.229770529999882], [28.627121182000167, -20.23056615999991], [28.627040049000072, -20.2320570199999], [28.616156203000173, -20.231754941999952], [28.616080149000084, -20.230630454999982], [28.608349433000114, -20.230731891999937], [28.605319598000165, -20.22744280799992], [28.60534829000005, -20.22744261899993], [28.605324952000103, -20.223667161999913], [28.60537695100004, -20.223615157999973], [28.60537295100005, -20.2234651469999], [28.605357950000155, -20.22280909799997], [28.605241165000166, -20.21440759599983], [28.604196339000055, -20.21218889799991], [28.60421961600008, -20.199116023999977], [28.593575311, -20.18123372699995], [28.59227302500011, -20.178777292999882], [28.598274744000094, -20.1804026129999], [28.59947862200005, -20.18035738499998], [28.603043115, -20.17577344999995], [28.607848043000047, -20.158358126999815]]]]}}, {"type": "Feature", "properties": {"GID_3": "ZWE.1.1.25_2", "GID_0": "ZWE", "COUNTRY": "Zimbabwe", "GID_1": "ZWE.1_1", "NAME_1": "Bulawayo", "NL_NAME_1": "NA", "GID_2": "ZWE.1.1_2", "NAME_2": "Bulawayo", "NL_NAME_2": "NA", "NAME_3": "Ward 5", "VARNAME_3": "NA", "NL_NAME_3": "NA", "TYPE_3": "Ward", "ENGTYPE_3": "Ward", "CC_3": "NA", "HASC_3": "NA", "id": "ZWE.1.1.25_2", "name": "Ward 5"}, "geometry": {"type": "MultiPolygon", "coordinates": [[[[28.581287879000115, -20.164502226999957], [28.58260553100007, -20.164831231999926], [28.58403852200007, -20.164936335999982], [28.585090911, -20.16466726099992], [28.586447733000057, -20.164197972999943], [28.58729587700003, -20.161122355999908], [28.590267289000053, -20.16182712099993], [28.59059657300014, -20.159922190999907], [28.59141854300009, -20.159230367999953], [28.591473084000086, -20.157176698999933], [28.59225488300018, -20.15511653099992], [28.59781259300013, -20.156413597999858], [28.598061518000065, -20.15647354799995], [28.59831044400005, -20.15653349699994], [28.605505723000192, -20.158462202999885], [28.606537866000053, -20.15871362999991], [28.607848043000047, -20.158358126999815], [28.603043115, -20.17577344999995], [28.59947862200005, -20.18035738499998], [28.598274744000094, -20.1804026129999], [28.59227302500011, -20.178777292999882], [28.593575311, -20.18123372699995], [28.60421961600008, -20.199116023999977], [28.604196339000055, -20.21218889799991], [28.605241165000166, -20.21440759599983], [28.605357950000155, -20.22280909799997], [28.60537295100005, -20.2234651469999], [28.60537695100004, -20.223615157999973], [28.605324952000103, -20.223667161999913], [28.60534829000005, -20.22744261899993], [28.605319598000165, -20.22744280799992], [28.577301695000187, -20.22762533699995], [28.56828948100008, -20.225410733999922], [28.56931037900017, -20.22451455299995], [28.569607434000147, -20.222962502999962], [28.570621025000037, -20.217688471999963], [28.570879189000095, -20.2159586059999], [28.57127501000008, -20.21451634099992], [28.571481019000146, -20.21362912899997], [28.572558550000053, -20.211977863999948], [28.572827420000067, -20.211514326999975], [28.573913827000183, -20.209513960999914], [28.57446193700008, -20.209619718999875], [28.57445563000016, -20.208992639999963], [28.574099911000133, -20.208590034999872], [28.573586983000155, -20.208096611999906], [28.573026740000046, -20.207575686999974], [28.572455027000103, -20.20706434099992], [28.572175607000077, -20.20647659699989], [28.571973403000015, -20.20579593499997], [28.571733797000093, -20.205281613999944], [28.57170963400017, -20.204820700999903], [28.57170574600019, -20.204433386999938], [28.571617425000056, -20.203419690999908], [28.571592009000085, -20.202200218999906], [28.571549608000055, -20.20186858499983], [28.571544981000102, -20.201407496999934], [28.571521930000074, -20.201057243999912], [28.571459995, -20.200725784999975], [28.57147379300011, -20.200153859999887], [28.57152059100008, -20.19921338399996], [28.571713899000088, -20.199008756999888], [28.572140321000177, -20.19867292899994], [28.572875215000067, -20.197928544999968], [28.573379584000122, -20.197573570999907], [28.573708328000123, -20.197238612999968], [28.574269070000184, -20.19666178999995], [28.574576424000043, -20.196142570999882], [28.57484378000015, -20.195531484999947], [28.5749152410001, -20.194866817999923], [28.574872095000046, -20.194461409999974], [28.574768308000102, -20.193853648999948], [28.574664523000138, -20.19324588799992], [28.574386606000132, -20.192805692999855], [28.570874229000026, -20.186890012999925], [28.567314550000106, -20.181263860999934], [28.56871864800013, -20.181029921999937], [28.57085535100009, -20.179830350999964], [28.57322159, -20.17814912699987], [28.57448632100011, -20.176504789999967], [28.57614452600012, -20.174350291999872], [28.57936658400007, -20.176202798999952], [28.581119964000038, -20.171870871999886], [28.58142502000004, -20.171130321999897], [28.581132257000036, -20.169214653999973], [28.58060439700006, -20.167227316999913], [28.580676572000073, -20.166636421999954], [28.581287879000115, -20.164502226999957]]]]}}, {"type": "Feature", "properties": {"GID_3": "ZWE.1.1.26_2", "GID_0": "ZWE", "COUNTRY": "Zimbabwe", "GID_1": "ZWE.1_1", "NAME_1": "Bulawayo", "NL_NAME_1": "NA", "GID_2": "ZWE.1.1_2", "NAME_2": "Bulawayo", "NL_NAME_2": "NA", "NAME_3": "Ward 6", "VARNAME_3": "NA", "NL_NAME_3": "NA", "TYPE_3": "Ward", "ENGTYPE_3": "Ward", "CC_3": "NA", "HASC_3": "NA", "id": "ZWE.1.1.26_2", "name": "Ward 6"}, "geometry": {"type": "MultiPolygon", "coordinates": [[[[28.57765854300004, -20.16304683999988], [28.579044215000124, -20.163941978999958], [28.581287879000115, -20.164502226999957], [28.580676572000073, -20.166636421999954], [28.58060439700006, -20.167227316999913], [28.581132257000036, -20.169214653999973], [28.58142502000004, -20.171130321999897], [28.581119964000038, -20.171870871999886], [28.57936658400007, -20.176202798999952], [28.57614452600012, -20.174350291999872], [28.57448632100011, -20.176504789999967], [28.57322159, -20.17814912699987], [28.57085535100009, -20.179830350999964], [28.56871864800013, -20.181029921999937], [28.567314550000106, -20.181263860999934], [28.570874229000026, -20.186890012999925], [28.574386606000132, -20.192805692999855], [28.574664523000138, -20.19324588799992], [28.574768308000102, -20.193853648999948], [28.574872095000046, -20.194461409999974], [28.5749152410001, -20.194866817999923], [28.57484378000015, -20.195531484999947], [28.574576424000043, -20.196142570999882], [28.574269070000184, -20.19666178999995], [28.573708328000123, -20.197238612999968], [28.573379584000122, -20.197573570999907], [28.572875215000067, -20.197928544999968], [28.572140321000177, -20.19867292899994], [28.571713899000088, -20.199008756999888], [28.57152059100008, -20.19921338399996], [28.57147379300011, -20.200153859999887], [28.571459995, -20.200725784999975], [28.571521930000074, -20.201057243999912], [28.571544981000102, -20.201407496999934], [28.571549608000055, -20.20186858499983], [28.571592009000085, -20.202200218999906], [28.571617425000056, -20.203419690999908], [28.57170574600019, -20.204433386999938], [28.57170963400017, -20.204820700999903], [28.571733797000093, -20.205281613999944], [28.571973403000015, -20.20579593499997], [28.572175607000077, -20.20647659699989], [28.572455027000103, -20.20706434099992], [28.573026740000046, -20.207575686999974], [28.573586983000155, -20.208096611999906], [28.574099911000133, -20.208590034999872], [28.57445563000016, -20.208992639999963], [28.57446193700008, -20.209619718999875], [28.573913827000183, -20.209513960999914], [28.572827420000067, -20.211514326999975], [28.572558550000053, -20.211977863999948], [28.571481019000146, -20.21362912899997], [28.57127501000008, -20.21451634099992], [28.570879189000095, -20.2159586059999], [28.570621025000037, -20.217688471999963], [28.569607434000147, -20.222962502999962], [28.56931037900017, -20.22451455299995], [28.56828948100008, -20.225410733999922], [28.552622543000155, -20.2219998999999], [28.53878151100014, -20.25867166699993], [28.496650879000185, -20.23572863599992], [28.496475150000094, -20.23561591999993], [28.496569153000166, -20.235452042999952], [28.496471732000032, -20.23539494299996], [28.497987913000145, -20.2332723639999], [28.504959987000063, -20.232026032999897], [28.50969980300016, -20.231062353999846], [28.514169156000037, -20.231023845999857], [28.514308824000068, -20.231022640999925], [28.516945870000086, -20.229285791999928], [28.523037215000045, -20.22369526999995], [28.528292771000054, -20.218375536999872], [28.528254261000086, -20.218207459999974], [28.529284108000127, -20.217351833999885], [28.533157246000144, -20.21318138199996], [28.534746834000032, -20.211603592999893], [28.536948677000055, -20.21030427499994], [28.537920857000188, -20.2097434559999], [28.53905710000015, -20.208451833999902], [28.539510813000106, -20.206473347999975], [28.539485196000044, -20.20550280499998], [28.539639410000177, -20.202985379999973], [28.539751462000027, -20.202556855999944], [28.54046218800005, -20.2003343909999], [28.54165024800011, -20.19927324899993], [28.54305621000009, -20.198519538999903], [28.544668604000094, -20.197467457999835], [28.545542753, -20.1964420139999], [28.545848028000137, -20.195549686999982], [28.546100958000125, -20.194657820999964], [28.544994964000068, -20.193975603999945], [28.54394326700003, -20.19349060099995], [28.543100941000148, -20.19300375299997], [28.54189028900015, -20.192322433999834], [28.54083764100011, -20.191738569999927], [28.539205856000024, -20.190813798999955], [28.537319282000055, -20.18939059199988], [28.53599625200019, -20.187919415999943], [28.53723640400011, -20.186277559999894], [28.538316959999975, -20.184259751999946], [28.538932405000025, -20.182969323999828], [28.539497444000176, -20.181877033999967], [28.540912010000113, -20.182012916999895], [28.541856027000165, -20.182202339999947], [28.542749168000057, -20.182540478999954], [28.543001128000128, -20.18154977499995], [28.543257463000145, -20.181003853999982], [28.543568528000037, -20.18036178799997], [28.543978501000083, -20.179811333999908], [28.54429248200006, -20.17946578899995], [28.54481346000017, -20.179048901999977], [28.55177696600009, -20.172578112999872], [28.555176421000056, -20.169511141999976], [28.557434744000147, -20.17092034899997], [28.55831060200012, -20.171606997999902], [28.558980917999975, -20.171790441999917], [28.56247878300013, -20.173968874999957], [28.56503209200008, -20.175271853999845], [28.566158998000105, -20.174314908999975], [28.567085358000156, -20.173359744999914], [28.569469632000107, -20.17112902399998], [28.570204370000113, -20.170234793999896], [28.570664983000142, -20.169419090999895], [28.570931025000107, -20.168678904999865], [28.571189011000172, -20.168195862999937], [28.57164678500004, -20.167181733999882], [28.577088674000038, -20.164013044999876], [28.57765854300004, -20.16304683999988]]]]}}, {"type": "Feature", "properties": {"GID_3": "ZWE.1.1.27_2", "GID_0": "ZWE", "COUNTRY": "Zimbabwe", "GID_1": "ZWE.1_1", "NAME_1": "Bulawayo", "NL_NAME_1": "NA", "GID_2": "ZWE.1.1_2", "NAME_2": "Bulawayo", "NL_NAME_2": "NA", "NAME_3": "Ward 7", "VARNAME_3": "NA", "NL_NAME_3": "NA", "TYPE_3": "Ward", "ENGTYPE_3": "Ward", "CC_3": "NA", "HASC_3": "NA", "id": "ZWE.1.1.27_2", "name": "Ward 7"}, "geometry": {"type": "MultiPolygon", "coordinates": [[[[28.581875134000143, -20.13983092999996], [28.578132657000026, -20.145716970999956], [28.576433777000148, -20.151245614999937], [28.576053820000084, -20.152808654999944], [28.57426455700005, -20.15473245599992], [28.573082826000075, -20.15899843899996], [28.572898298000098, -20.159535318999872], [28.575993429000107, -20.16044428099991], [28.575797168000122, -20.16131806199985], [28.57765854300004, -20.16304683999988], [28.577088674000038, -20.164013044999876], [28.57164678500004, -20.167181733999882], [28.571189011000172, -20.168195862999937], [28.570931025000107, -20.168678904999865], [28.570664983000142, -20.169419090999895], [28.570204370000113, -20.170234793999896], [28.569469632000107, -20.17112902399998], [28.567085358000156, -20.173359744999914], [28.566158998000105, -20.174314908999975], [28.56503209200008, -20.175271853999845], [28.56247878300013, -20.173968874999957], [28.558980917999975, -20.171790441999917], [28.55831060200012, -20.171606997999902], [28.557434744000147, -20.17092034899997], [28.555176421000056, -20.169511141999976], [28.55302371500011, -20.171022474999972], [28.550954691000186, -20.171356368999966], [28.548140407, -20.17068675099989], [28.546591808000073, -20.16956406799983], [28.54517007700008, -20.167745846999935], [28.54441803700007, -20.16604799099997], [28.544330152000157, -20.16485160699989], [28.544242602, -20.163659763999874], [28.544238633000134, -20.16360572999986], [28.544213633000027, -20.163542724999957], [28.544291630000146, -20.162379637999948], [28.545335117000093, -20.158673049999948], [28.546514920000106, -20.15446319499995], [28.546945409999978, -20.1536609179999], [28.550620439000056, -20.15170083399994], [28.55067343700017, -20.151699833999942], [28.553438446000087, -20.150040257999933], [28.553404654000133, -20.150010126999916], [28.554436980000105, -20.149954476999937], [28.556109587000037, -20.149985367999932], [28.55763371600011, -20.14992519399982], [28.560688993000042, -20.14862365599987], [28.562899279000135, -20.148326105999956], [28.565101103000018, -20.147196911999856], [28.56622283400003, -20.146262471999876], [28.567448080000133, -20.145835327999976], [28.56876979499998, -20.145222463999914], [28.569347231000165, -20.143969592999895], [28.570320436000145, -20.142944089999958], [28.571150337000176, -20.142335752999884], [28.571138086000133, -20.141134531999967], [28.571862549000116, -20.139834089999965], [28.57278465000013, -20.138624226999923], [28.57454509300004, -20.13763762399992], [28.57571634700014, -20.13674887499991], [28.577526870999975, -20.135854189999975], [28.577387382999973, -20.136640970999963], [28.577468868999972, -20.136623528999962], [28.577726700000085, -20.13719761799996], [28.57858214800018, -20.138239993999946], [28.579927943000087, -20.13925235699986], [28.58189598900003, -20.13979812799988], [28.581875134000143, -20.13983092999996]]]]}}, {"type": "Feature", "properties": {"GID_3": "ZWE.1.1.28_2", "GID_0": "ZWE", "COUNTRY": "Zimbabwe", "GID_1": "ZWE.1_1", "NAME_1": "Bulawayo", "NL_NAME_1": "NA", "GID_2": "ZWE.1.1_2", "NAME_2": "Bulawayo", "NL_NAME_2": "NA", "NAME_3": "Ward 8", "VARNAME_3": "NA", "NL_NAME_3": "NA", "TYPE_3": "Ward", "ENGTYPE_3": "Ward", "CC_3": "NA", "HASC_3": "NA", "id": "ZWE.1.1.28_2", "name": "Ward 8"}, "geometry": {"type": "MultiPolygon", "coordinates": [[[[28.561330232000046, -20.13565571099997], [28.56119769100019, -20.13474201599996], [28.560789115000148, -20.133823333999885], [28.56020261100008, -20.132864301999973], [28.559129608000035, -20.132077265999953], [28.558502483000098, -20.131495892999965], [28.558009744000117, -20.131039098999906], [28.55756097200009, -20.13053999099992], [28.55711426700003, -20.130078813999944], [28.556534441000167, -20.129790475999982], [28.555815259000155, -20.12887452299998], [28.555319634000114, -20.128124283999966], [28.555045074000134, -20.1272882479999], [28.55481613900008, -20.126577576999978], [28.554853055000137, -20.125822636999885], [28.554802461000065, -20.12519423899994], [28.554746894000175, -20.12406280799985], [28.55478132600018, -20.123056351999878], [28.554622013000028, -20.12155927299989], [28.55405742900001, -20.120410688999982], [28.552651353000044, -20.118892697999968], [28.549681588000112, -20.117069614999878], [28.549068104000128, -20.11678805999992], [28.54780376700006, -20.115874556999927], [28.550151205000134, -20.116523475999884], [28.55236233000005, -20.117109796999898], [28.55503997800008, -20.117770666999945], [28.557624632000056, -20.11838550799996], [28.570889162000128, -20.12161319399985], [28.574317932000156, -20.121805782999957], [28.57761228000004, -20.122127036999927], [28.580634587000077, -20.122386903999825], [28.582366423000053, -20.12253077899993], [28.58165753900016, -20.135334582999974], [28.581705308000153, -20.137102297999945], [28.581961171000046, -20.138150037999935], [28.582325542000092, -20.1391455829999], [28.58189598900003, -20.13979812799988], [28.579927943000087, -20.13925235699986], [28.57858214800018, -20.138239993999946], [28.577726700000085, -20.13719761799996], [28.577468868999972, -20.136623528999962], [28.577387382999973, -20.136640970999963], [28.577526870999975, -20.135854189999975], [28.57571634700014, -20.13674887499991], [28.57454509300004, -20.13763762399992], [28.57278465000013, -20.138624226999923], [28.571862549000116, -20.139834089999965], [28.571138086000133, -20.141134531999967], [28.571150337000176, -20.142335752999884], [28.570320436000145, -20.142944089999958], [28.569347231000165, -20.143969592999895], [28.56876979499998, -20.145222463999914], [28.567448080000133, -20.145835327999976], [28.56622283400003, -20.146262471999876], [28.565101103000018, -20.147196911999856], [28.562899279000135, -20.148326105999956], [28.560688993000042, -20.14862365599987], [28.55763371600011, -20.14992519399982], [28.556109587000037, -20.149985367999932], [28.554436980000105, -20.149954476999937], [28.553404654000133, -20.150010126999916], [28.553438446000087, -20.150040257999933], [28.55067343700017, -20.151699833999942], [28.550620439000056, -20.15170083399994], [28.546945409999978, -20.1536609179999], [28.54914398300008, -20.15115737799988], [28.55059603100017, -20.149443936999944], [28.551897496000095, -20.147886179999944], [28.55344806900007, -20.14636423999997], [28.554717707000123, -20.14493349099996], [28.557354532999966, -20.142200776999914], [28.560308581000186, -20.139067947999877], [28.561270803000184, -20.13763404499997], [28.561330232000046, -20.13565571099997]]]]}}, {"type": "Feature", "properties": {"GID_3": "ZWE.1.1.29_2", "GID_0": "ZWE", "COUNTRY": "Zimbabwe", "GID_1": "ZWE.1_1", "NAME_1": "Bulawayo", "NL_NAME_1": "NA", "GID_2": "ZWE.1.1_2", "NAME_2": "Bulawayo", "NL_NAME_2": "NA", "NAME_3": "Ward 9", "VARNAME_3": "NA", "NL_NAME_3": "NA", "TYPE_3": "Ward", "ENGTYPE_3": "Ward", "CC_3": "NA", "HASC_3": "NA", "id": "ZWE.1.1.29_2", "name": "Ward 9"}, "geometry": {"type": "MultiPolygon", "coordinates": [[[[28.542202414000144, -20.134026205999817], [28.543084002000057, -20.13414315899996], [28.54898638900005, -20.135011659999975], [28.554586985000128, -20.135842709999906], [28.558095472000105, -20.136187424999946], [28.561330232000046, -20.13565571099997], [28.561270803000184, -20.13763404499997], [28.560308581000186, -20.139067947999877], [28.557354532999966, -20.142200776999914], [28.554717707000123, -20.14493349099996], [28.55344806900007, -20.14636423999997], [28.551897496000095, -20.147886179999944], [28.55059603100017, -20.149443936999944], [28.54914398300008, -20.15115737799988], [28.546945409999978, -20.1536609179999], [28.543226664000144, -20.154432905999954], [28.540630734000104, -20.154751383999894], [28.532140512000183, -20.15584562899994], [28.53199362500004, -20.15362885399992], [28.53202472800001, -20.150115445999916], [28.532972840000127, -20.14780041699987], [28.533337879000044, -20.14670299799991], [28.534198091000178, -20.145009783999967], [28.534724947000086, -20.143896633999816], [28.535154140000145, -20.14293494499998], [28.53550312400006, -20.142181078999954], [28.53588002000015, -20.141478749999976], [28.53652442100008, -20.140100934999907], [28.537458641000114, -20.139336830999923], [28.538546371000052, -20.13844705799994], [28.53922600500016, -20.137871530999917], [28.541126062000103, -20.135964915999978], [28.541504442000132, -20.13541790599993], [28.542202414000144, -20.134026205999817]]]]}}]}