{"type": "FeatureCollection", "features": [{"type": "Feature", "properties": {"GID_3": "ZWE.5.9.1_2", "GID_0": "ZWE", "COUNTRY": "Zimbabwe", "GID_1": "ZWE.5_1", "NAME_1": "Mashonaland East", "NL_NAME_1": "NA", "GID_2": "ZWE.5.9_2", "NAME_2": "Ruwa", "NL_NAME_2": "NA", "NAME_3": "Ward 1", "VARNAME_3": "NA", "NL_NAME_3": "NA", "TYPE_3": "Ward", "ENGTYPE_3": "Ward", "CC_3": "NA", "HASC_3": "NA", "id": "ZWE.5.9.1_2", "name": "Ward 1"}, "geometry": {"type": "MultiPolygon", "coordinates": [[[[31.262580376000187, -17.89422661699996], [31.25862271000011, -17.899145672999964], [31.25517967500008, -17.895542336999938], [31.251356133000115, -17.893761991999952], [31.25052325600018, -17.89561199499991], [31.24757671000009, -17.895399743999917], [31.238341788000184, -17.891415070999926], [31.240390375000175, -17.88796927599992], [31.251985857000136, -17.891346750999958], [31.25207487700004, -17.89137267699988], [31.252109379000046, -17.891661500999874], [31.262580376000187, -17.89422661699996]]]]}}, {"type": "Feature", "properties": {"GID_3": "ZWE.5.9.2_2", "GID_0": "ZWE", "COUNTRY": "Zimbabwe", "GID_1": "ZWE.5_1", "NAME_1": "Mashonaland East", "NL_NAME_1": "NA", "GID_2": "ZWE.5.9_2", "NAME_2": "Ruwa", "NL_NAME_2": "NA", "NAME_3": "Ward 2", "VARNAME_3": "NA", "NL_NAME_3": "NA", "TYPE_3": "Ward", "ENGTYPE_3": "Ward", "CC_3": "NA", "HASC_3": "NA", "id": "ZWE.5.9.2_2", "name": "Ward 2"}, "geometry": {"type": "MultiPolygon", "coordinates": [[[[31.25862271000011, -17.899145672999964], [31.267584415999977, -17.909442451999894], [31.263558989000103, -17.91242450599998], [31.25353991300011, -17.900909782999918], [31.252312854000138, -17.899767043999873], [31.251970922000055, -17.897182414999975], [31.24769953100008, -17.898238763999927], [31.2474103510001, -17.89729580099987], [31.244396793000192, -17.896005558999946], [31.24420099400004, -17.8961895409999], [31.240954719000115, -17.894897148999917], [31.240752694000037, -17.895712612999887], [31.236916561000157, -17.893812252999965], [31.238341788000184, -17.891415070999926], [31.24757671000009, -17.895399743999917], [31.25052325600018, -17.89561199499991], [31.251356133000115, -17.893761991999952], [31.25517967500008, -17.895542336999938], [31.25862271000011, -17.899145672999964]]]]}}, {"type": "Feature", "properties": {"GID_3": "ZWE.5.9.3_2", "GID_0": "ZWE", "COUNTRY": "Zimbabwe", "GID_1": "ZWE.5_1", "NAME_1": "Mashonaland East", "NL_NAME_1": "NA", "GID_2": "ZWE.5.9_2", "NAME_2": "Ruwa", "NL_NAME_2": "NA", "NAME_3": "Ward 3", "VARNAME_3": "NA", "NL_NAME_3": "NA", "TYPE_3": "Ward", "ENGTYPE_3": "Ward", "CC_3": "NA", "HASC_3": "NA", "id": "ZWE.5.9.3_2", "name": "Ward 3"}, "geometry": {"type": "MultiPolygon", "coordinates": [[[[31.24769953100008, -17.898238763999927], [31.24291959800007, -17.899420749999933], [31.242691187000105, -17.900150086999872], [31.239898634000042, -17.899545360999923], [31.23423687100012, -17.898319176999905], [31.236916561000157, -17.893812252999965], [31.240752694000037, -17.895712612999887], [31.240954719000115, -17.894897148999917], [31.24420099400004, -17.8961895409999], [31.244396793000192, -17.896005558999946], [31.2474103510001, -17.89729580099987], [31.24769953100008, -17.898238763999927]]]]}}, {"type": "Feature", "properties": {"GID_3": "ZWE.5.9.4_2", "GID_0": "ZWE", "COUNTRY": "Zimbabwe", "GID_1": "ZWE.5_1", "NAME_1": "Mashonaland East", "NL_NAME_1": "NA", "GID_2": "ZWE.5.9_2", "NAME_2": "Ruwa", "NL_NAME_2": "NA", "NAME_3": "Ward 4", "VARNAME_3": "NA", "NL_NAME_3": "NA", "TYPE_3": "Ward", "ENGTYPE_3": "Ward", "CC_3": "NA", "HASC_3": "NA", "id": "ZWE.5.9.4_2", "name": "Ward 4"}, "geometry": {"type": "MultiPolygon", "coordinates": [[[[31.23423687100012, -17.898319176999905], [31.239898634000042, -17.899545360999923], [31.239718411000126, -17.900130798999953], [31.23846816600019, -17.90101107399994], [31.23755243300019, -17.902447805999827], [31.237476986000047, -17.902455141999894], [31.23553388800002, -17.902644054999882], [31.232692234000126, -17.900916940999878], [31.23423687100012, -17.898319176999905]]]]}}, {"type": "Feature", "properties": {"GID_3": "ZWE.5.9.5_2", "GID_0": "ZWE", "COUNTRY": "Zimbabwe", "GID_1": "ZWE.5_1", "NAME_1": "Mashonaland East", "NL_NAME_1": "NA", "GID_2": "ZWE.5.9_2", "NAME_2": "Ruwa", "NL_NAME_2": "NA", "NAME_3": "Ward 5", "VARNAME_3": "NA", "NL_NAME_3": "NA", "TYPE_3": "Ward", "ENGTYPE_3": "Ward", "CC_3": "NA", "HASC_3": "NA", "id": "ZWE.5.9.5_2", "name": "Ward 5"}, "geometry": {"type": "MultiPolygon", "coordinates": [[[[31.242691187000105, -17.900150086999872], [31.239208010000084, -17.91127129199998], [31.241507531000025, -17.91194149799992], [31.23936338100009, -17.91614322199996], [31.23505175800011, -17.918859575999875], [31.23112460500016, -17.92066875699993], [31.225342714000078, -17.922304505999932], [31.223842798000135, -17.92307008599994], [31.22019321200014, -17.921737913999948], [31.21912294400005, -17.92023450099998], [31.22152229900007, -17.91708265999995], [31.221765616000027, -17.917279543999882], [31.227019572000074, -17.909433235999927], [31.233163902000058, -17.910719166999968], [31.233174943000165, -17.90960478599993], [31.234080517000166, -17.90827563099998], [31.234118946000024, -17.908313128999907], [31.234674601999984, -17.907055092999826], [31.235068448000106, -17.906464274999962], [31.233986562000098, -17.906008665999934], [31.234189002000164, -17.905156066999893], [31.234541108000144, -17.904862066999897], [31.23516551900019, -17.904496236999933], [31.23691574500009, -17.904066309999962], [31.23757931199998, -17.903663676999884], [31.237476986000047, -17.902455141999894], [31.23755243300019, -17.902447805999827], [31.23846816600019, -17.90101107399994], [31.239718411000126, -17.900130798999953], [31.239898634000042, -17.899545360999923], [31.242691187000105, -17.900150086999872]]]]}}, {"type": "Feature", "properties": {"GID_3": "ZWE.5.9.6_2", "GID_0": "ZWE", "COUNTRY": "Zimbabwe", "GID_1": "ZWE.5_1", "NAME_1": "Mashonaland East", "NL_NAME_1": "NA", "GID_2": "ZWE.5.9_2", "NAME_2": "Ruwa", "NL_NAME_2": "NA", "NAME_3": "Ward 6", "VARNAME_3": "NA", "NL_NAME_3": "NA", "TYPE_3": "Ward", "ENGTYPE_3": "Ward", "CC_3": "NA", "HASC_3": "NA", "id": "ZWE.5.9.6_2", "name": "Ward 6"}, "geometry": {"type": "MultiPolygon", "coordinates": [[[[31.232692234000126, -17.900916940999878], [31.23553388800002, -17.902644054999882], [31.237476986000047, -17.902455141999894], [31.23757931199998, -17.903663676999884], [31.23691574500009, -17.904066309999962], [31.23516551900019, -17.904496236999933], [31.234541108000144, -17.904862066999897], [31.234189002000164, -17.905156066999893], [31.233986562000098, -17.906008665999934], [31.235068448000106, -17.906464274999962], [31.234674601999984, -17.907055092999826], [31.234118946000024, -17.908313128999907], [31.234080517000166, -17.90827563099998], [31.233174943000165, -17.90960478599993], [31.233163902000058, -17.910719166999968], [31.227019572000074, -17.909433235999927], [31.227040151000097, -17.909402501999978], [31.227092219000156, -17.909324737999953], [31.23246006300019, -17.901307396999982], [31.232692234000126, -17.900916940999878]]]]}}, {"type": "Feature", "properties": {"GID_3": "ZWE.5.9.7_2", "GID_0": "ZWE", "COUNTRY": "Zimbabwe", "GID_1": "ZWE.5_1", "NAME_1": "Mashonaland East", "NL_NAME_1": "NA", "GID_2": "ZWE.5.9_2", "NAME_2": "Ruwa", "NL_NAME_2": "NA", "NAME_3": "Ward 7", "VARNAME_3": "NA", "NL_NAME_3": "NA", "TYPE_3": "Ward", "ENGTYPE_3": "Ward", "CC_3": "NA", "HASC_3": "NA", "id": "ZWE.5.9.7_2", "name": "Ward 7"}, "geometry": {"type": "MultiPolygon", "coordinates": [[[[31.191194285000165, -17.910105121999948], [31.191054117000135, -17.909245711999972], [31.192590737000046, -17.90685533599998], [31.1923669680001, -17.906052964999958], [31.191627156000038, -17.904629797999974], [31.192030795000107, -17.903196514999934], [31.193721420000088, -17.90092360299991], [31.197304965000058, -17.89834887099994], [31.198209835000114, -17.896813762999955], [31.197708799000054, -17.892489535999914], [31.197716799000034, -17.89219251299994], [31.19771996000003, -17.89207288199998], [31.197253665000062, -17.89101296699988], [31.197671987000035, -17.890145337999854], [31.197868834000076, -17.88973706099989], [31.200820815000156, -17.888995397999906], [31.201428852000106, -17.8884242929999], [31.202048497000135, -17.886699850999946], [31.2030560660001, -17.88632466899992], [31.204305658000123, -17.885939667999935], [31.207648300000074, -17.886841577999974], [31.210759028000098, -17.88702985499998], [31.211819795000167, -17.88656058099997], [31.211994519000086, -17.88576382499997], [31.20862614100008, -17.87958660599992], [31.213884802000052, -17.880381214999943], [31.215358556000126, -17.87969237999988], [31.214980808000178, -17.87939210799982], [31.227108234000127, -17.88296700199993], [31.23929502100009, -17.887650184999927], [31.240390375000175, -17.88796927599992], [31.238341788000184, -17.891415070999926], [31.236916561000157, -17.893812252999965], [31.23423687100012, -17.898319176999905], [31.232692234000126, -17.900916940999878], [31.23246006300019, -17.901307396999982], [31.227092219000156, -17.909324737999953], [31.227040151000097, -17.909402501999978], [31.227019572000074, -17.909433235999927], [31.221765616000027, -17.917279543999882], [31.22152229900007, -17.91708265999995], [31.211798191000184, -17.913454264999928], [31.2098374790001, -17.916706396999928], [31.191194285000165, -17.910105121999948]]]]}}, {"type": "Feature", "properties": {"GID_3": "ZWE.5.9.8_2", "GID_0": "ZWE", "COUNTRY": "Zimbabwe", "GID_1": "ZWE.5_1", "NAME_1": "Mashonaland East", "NL_NAME_1": "NA", "GID_2": "ZWE.5.9_2", "NAME_2": "Ruwa", "NL_NAME_2": "NA", "NAME_3": "Ward 8", "VARNAME_3": "NA", "NL_NAME_3": "NA", "TYPE_3": "Ward", "ENGTYPE_3": "Ward", "CC_3": "NA", "HASC_3": "NA", "id": "ZWE.5.9.8_2", "name": "Ward 8"}, "geometry": {"type": "MultiPolygon", "coordinates": [[[[31.195974834000026, -17.86034703099989], [31.196297738999988, -17.859304171999952], [31.21952948300003, -17.85120301799998], [31.219872486000042, -17.850903951999896], [31.221582503000093, -17.854570116999923], [31.22175365600009, -17.858938786999943], [31.22405103800014, -17.85988452299995], [31.22504626100016, -17.862308340999903], [31.22460386300014, -17.863640135999958], [31.22435409200017, -17.86718292799992], [31.223923413000136, -17.867333137999935], [31.22429483600007, -17.86774754399994], [31.222464822000177, -17.86834739699998], [31.221270346000097, -17.869775075999883], [31.220357372000024, -17.8698694979999], [31.219482178000078, -17.87155696699989], [31.219361581000157, -17.872891683999853], [31.218705089000025, -17.874165191999964], [31.218639665000126, -17.875346278999928], [31.21588424000015, -17.877273415999923], [31.214980808000178, -17.87939210799982], [31.205262480000044, -17.87169831799997], [31.204178361000118, -17.87010806899991], [31.203824049000104, -17.86887570999994], [31.197734735000097, -17.86363976499996], [31.19509426800016, -17.861859496999898], [31.195772539000075, -17.86122081299993], [31.195833509000124, -17.86117501899986], [31.195974834000026, -17.86034703099989]]]]}}, {"type": "Feature", "properties": {"GID_3": "ZWE.5.9.9_2", "GID_0": "ZWE", "COUNTRY": "Zimbabwe", "GID_1": "ZWE.5_1", "NAME_1": "Mashonaland East", "NL_NAME_1": "NA", "GID_2": "ZWE.5.9_2", "NAME_2": "Ruwa", "NL_NAME_2": "NA", "NAME_3": "Ward 9", "VARNAME_3": "NA", "NL_NAME_3": "NA", "TYPE_3": "Ward", "ENGTYPE_3": "Ward", "CC_3": "NA", "HASC_3": "NA", "id": "ZWE.5.9.9_2", "name": "Ward 9"}, "geometry": {"type": "MultiPolygon", "coordinates": [[[[31.219872486000042, -17.850903951999896], [31.22031697100016, -17.850516400999936], [31.246929373000114, -17.853528104999953], [31.249814116000152, -17.85400527999991], [31.255783693000126, -17.854563682999924], [31.255012172000193, -17.862448363999874], [31.26158669100016, -17.862818337999954], [31.25889106800014, -17.878159393999965], [31.258889068000144, -17.878239400999917], [31.25888706800015, -17.878279403999954], [31.25888006800011, -17.878599428999962], [31.258872069000063, -17.878839446999905], [31.258870069000068, -17.87891845299987], [31.258868069000073, -17.878998459999934], [31.258866069000078, -17.879078465999953], [31.25882207000012, -17.879158471999915], [31.258820070000127, -17.879236477999882], [31.258395538000173, -17.88193334899995], [31.251985857000136, -17.891346750999958], [31.240390375000175, -17.88796927599992], [31.23929502100009, -17.887650184999927], [31.227108234000127, -17.88296700199993], [31.214980808000178, -17.87939210799982], [31.21588424000015, -17.877273415999923], [31.218639665000126, -17.875346278999928], [31.218705089000025, -17.874165191999964], [31.219361581000157, -17.872891683999853], [31.219482178000078, -17.87155696699989], [31.220357372000024, -17.8698694979999], [31.221270346000097, -17.869775075999883], [31.222464822000177, -17.86834739699998], [31.22429483600007, -17.86774754399994], [31.223923413000136, -17.867333137999935], [31.22435409200017, -17.86718292799992], [31.22460386300014, -17.863640135999958], [31.22504626100016, -17.862308340999903], [31.22405103800014, -17.85988452299995], [31.22175365600009, -17.858938786999943], [31.221582503000093, -17.854570116999923], [31.219872486000042, -17.850903951999896]]]]}}]}