{"type": "FeatureCollection", "features": [{"type": "Feature", "properties": {"GID_3": "ZWE.3.4.1_2", "GID_0": "ZWE", "COUNTRY": "Zimbabwe", "GID_1": "ZWE.3_1", "NAME_1": "Manicaland", "NL_NAME_1": "NA", "GID_2": "ZWE.3.4_2", "NAME_2": "Chipinge Urban", "NL_NAME_2": "NA", "NAME_3": "Ward 1", "VARNAME_3": "NA", "NL_NAME_3": "NA", "TYPE_3": "Ward", "ENGTYPE_3": "Ward", "CC_3": "NA", "HASC_3": "NA", "id": "ZWE.3.4.1_2", "name": "Ward 1"}, "geometry": {"type": "MultiPolygon", "coordinates": [[[[32.62106942700018, -20.17257239099996], [32.622409168000104, -20.17426121899996], [32.622522350000054, -20.174275345999888], [32.6236510490001, -20.17559383699995], [32.62898320100004, -20.17644419599992], [32.62869417700011, -20.178857827999877], [32.627954493000175, -20.179660120999927], [32.62800946600004, -20.180410502999848], [32.62794775500015, -20.182500396999842], [32.627296316000184, -20.183884425999963], [32.62639704300011, -20.182768818999932], [32.6232260590001, -20.179760993999935], [32.622165975000144, -20.179556340999966], [32.62024145800018, -20.17746217299998], [32.61899461700011, -20.176762801999928], [32.618428929, -20.17601130999992], [32.61968017900017, -20.174888621999912], [32.619795758000066, -20.174031425999885], [32.62106942700018, -20.17257239099996]]]]}}, {"type": "Feature", "properties": {"GID_3": "ZWE.3.4.2_2", "GID_0": "ZWE", "COUNTRY": "Zimbabwe", "GID_1": "ZWE.3_1", "NAME_1": "Manicaland", "NL_NAME_1": "NA", "GID_2": "ZWE.3.4_2", "NAME_2": "Chipinge Urban", "NL_NAME_2": "NA", "NAME_3": "Ward 2", "VARNAME_3": "NA", "NL_NAME_3": "NA", "TYPE_3": "Ward", "ENGTYPE_3": "Ward", "CC_3": "NA", "HASC_3": "NA", "id": "ZWE.3.4.2_2", "name": "Ward 2"}, "geometry": {"type": "MultiPolygon", "coordinates": [[[[32.627296316000184, -20.183884425999963], [32.62794775500015, -20.182500396999842], [32.62800946600004, -20.180410502999848], [32.627954493000175, -20.179660120999927], [32.62869417700011, -20.178857827999877], [32.62898320100004, -20.17644419599992], [32.63468067600007, -20.17735262799988], [32.634598268, -20.178066335999972], [32.635108161000176, -20.178442526999902], [32.6344757710001, -20.18192459099987], [32.634872420000136, -20.18219336699991], [32.63452540500009, -20.184979346999967], [32.63519415400009, -20.187141066999914], [32.63393226400018, -20.190613768999924], [32.63137471900018, -20.189853250999818], [32.6293396100001, -20.18641918999998], [32.627296316000184, -20.183884425999963]]]]}}, {"type": "Feature", "properties": {"GID_3": "ZWE.3.4.3_2", "GID_0": "ZWE", "COUNTRY": "Zimbabwe", "GID_1": "ZWE.3_1", "NAME_1": "Manicaland", "NL_NAME_1": "NA", "GID_2": "ZWE.3.4_2", "NAME_2": "Chipinge Urban", "NL_NAME_2": "NA", "NAME_3": "Ward 3", "VARNAME_3": "NA", "NL_NAME_3": "NA", "TYPE_3": "Ward", "ENGTYPE_3": "Ward", "CC_3": "NA", "HASC_3": "NA", "id": "ZWE.3.4.3_2", "name": "Ward 3"}, "geometry": {"type": "MultiPolygon", "coordinates": [[[[32.63519415400009, -20.187141066999914], [32.63452540500009, -20.184979346999967], [32.634872420000136, -20.18219336699991], [32.6344757710001, -20.18192459099987], [32.635108161000176, -20.178442526999902], [32.634598268, -20.178066335999972], [32.63468067600007, -20.17735262799988], [32.63875446400016, -20.178002051999954], [32.6394223850001, -20.177984849999973], [32.63943031400015, -20.17801146499994], [32.640543143000116, -20.18174640899997], [32.63998231200014, -20.181292863999943], [32.639017141000124, -20.18145165699991], [32.63765283800018, -20.182413478999933], [32.63708269900013, -20.183537702999956], [32.63634415400003, -20.183857718999946], [32.63594015700011, -20.186750764999886], [32.63525859800012, -20.18696371399983], [32.63519415400009, -20.187141066999914]]]]}}, {"type": "Feature", "properties": {"GID_3": "ZWE.3.4.4_2", "GID_0": "ZWE", "COUNTRY": "Zimbabwe", "GID_1": "ZWE.3_1", "NAME_1": "Manicaland", "NL_NAME_1": "NA", "GID_2": "ZWE.3.4_2", "NAME_2": "Chipinge Urban", "NL_NAME_2": "NA", "NAME_3": "Ward 4", "VARNAME_3": "NA", "NL_NAME_3": "NA", "TYPE_3": "Ward", "ENGTYPE_3": "Ward", "CC_3": "NA", "HASC_3": "NA", "id": "ZWE.3.4.4_2", "name": "Ward 4"}, "geometry": {"type": "MultiPolygon", "coordinates": [[[[32.63393226400018, -20.190613768999924], [32.63519415400009, -20.187141066999914], [32.63525859800012, -20.18696371399983], [32.63594015700011, -20.186750764999886], [32.63634415400003, -20.183857718999946], [32.63708269900013, -20.183537702999956], [32.63765283800018, -20.182413478999933], [32.639017141000124, -20.18145165699991], [32.63998231200014, -20.181292863999943], [32.640543143000116, -20.18174640899997], [32.642263940000134, -20.18752150099988], [32.642803305000086, -20.18898441899995], [32.64291180900017, -20.18932422599994], [32.640531290000126, -20.189386139999954], [32.640251446000036, -20.18767067499988], [32.634969832000024, -20.189106728999946], [32.63393226400018, -20.190613768999924]]]]}}, {"type": "Feature", "properties": {"GID_3": "ZWE.3.4.5_2", "GID_0": "ZWE", "COUNTRY": "Zimbabwe", "GID_1": "ZWE.3_1", "NAME_1": "Manicaland", "NL_NAME_1": "NA", "GID_2": "ZWE.3.4_2", "NAME_2": "Chipinge Urban", "NL_NAME_2": "NA", "NAME_3": "Ward 5", "VARNAME_3": "NA", "NL_NAME_3": "NA", "TYPE_3": "Ward", "ENGTYPE_3": "Ward", "CC_3": "NA", "HASC_3": "NA", "id": "ZWE.3.4.5_2", "name": "Ward 5"}, "geometry": {"type": "MultiPolygon", "coordinates": [[[[32.63393226400018, -20.190613768999924], [32.634969832000024, -20.189106728999946], [32.640251446000036, -20.18767067499988], [32.640531290000126, -20.189386139999954], [32.64291180900017, -20.18932422599994], [32.64348128700004, -20.191107665999937], [32.64114971600014, -20.19195974099995], [32.64080978900017, -20.191691094999896], [32.636321775000056, -20.19350393999997], [32.63632376500004, -20.192646498999977], [32.63393226400018, -20.190613768999924]]]]}}, {"type": "Feature", "properties": {"GID_3": "ZWE.3.4.6_2", "GID_0": "ZWE", "COUNTRY": "Zimbabwe", "GID_1": "ZWE.3_1", "NAME_1": "Manicaland", "NL_NAME_1": "NA", "GID_2": "ZWE.3.4_2", "NAME_2": "Chipinge Urban", "NL_NAME_2": "NA", "NAME_3": "Ward 6", "VARNAME_3": "NA", "NL_NAME_3": "NA", "TYPE_3": "Ward", "ENGTYPE_3": "Ward", "CC_3": "NA", "HASC_3": "NA", "id": "ZWE.3.4.6_2", "name": "Ward 6"}, "geometry": {"type": "MultiPolygon", "coordinates": [[[[32.636321775000056, -20.19350393999997], [32.64080978900017, -20.191691094999896], [32.64114971600014, -20.19195974099995], [32.64348128700004, -20.191107665999937], [32.64735677500005, -20.203243455999882], [32.64122744600013, -20.202855916999965], [32.641004578000036, -20.201033390999896], [32.641405579000036, -20.199426499999902], [32.64089670800013, -20.19856801499992], [32.64005779600018, -20.197852447999878], [32.63955078600014, -20.19619010799994], [32.63711575900004, -20.1937735329999], [32.63632127800014, -20.193718300999933], [32.636321775000056, -20.19350393999997]]]]}}, {"type": "Feature", "properties": {"GID_3": "ZWE.3.4.7_2", "GID_0": "ZWE", "COUNTRY": "Zimbabwe", "GID_1": "ZWE.3_1", "NAME_1": "Manicaland", "NL_NAME_1": "NA", "GID_2": "ZWE.3.4_2", "NAME_2": "Chipinge Urban", "NL_NAME_2": "NA", "NAME_3": "Ward 7", "VARNAME_3": "NA", "NL_NAME_3": "NA", "TYPE_3": "Ward", "ENGTYPE_3": "Ward", "CC_3": "NA", "HASC_3": "NA", "id": "ZWE.3.4.7_2", "name": "Ward 7"}, "geometry": {"type": "MultiPolygon", "coordinates": [[[[32.64089670800013, -20.19856801499992], [32.641405579000036, -20.199426499999902], [32.641004578000036, -20.201033390999896], [32.64122744600013, -20.202855916999965], [32.63793702900011, -20.20210853599997], [32.63612648800017, -20.202273006999974], [32.63639603500019, -20.20574949399986], [32.651607529000046, -20.21488678299994], [32.65172029800004, -20.215187057999913], [32.65463551300013, -20.222949152999945], [32.65423132800015, -20.222911339999882], [32.660673090000046, -20.23772894299998], [32.66061209200018, -20.237823949999836], [32.61370443100009, -20.22519301899996], [32.61434777300019, -20.21765108099987], [32.624530397, -20.21732758199994], [32.622267776000115, -20.21400014099987], [32.62232699800006, -20.21298205599993], [32.61830835400008, -20.2082038449999], [32.6190565550001, -20.206261185999836], [32.618434002000186, -20.205509572999972], [32.61855261500011, -20.203419812999925], [32.618451231999984, -20.198435702999916], [32.62401877000008, -20.196304090999945], [32.62743153400015, -20.193256710999947], [32.64089670800013, -20.19856801499992]]]]}}, {"type": "Feature", "properties": {"GID_3": "ZWE.3.4.8_2", "GID_0": "ZWE", "COUNTRY": "Zimbabwe", "GID_1": "ZWE.3_1", "NAME_1": "Manicaland", "NL_NAME_1": "NA", "GID_2": "ZWE.3.4_2", "NAME_2": "Chipinge Urban", "NL_NAME_2": "NA", "NAME_3": "Ward 8", "VARNAME_3": "NA", "NL_NAME_3": "NA", "TYPE_3": "Ward", "ENGTYPE_3": "Ward", "CC_3": "NA", "HASC_3": "NA", "id": "ZWE.3.4.8_2", "name": "Ward 8"}, "geometry": {"type": "MultiPolygon", "coordinates": [[[[32.62106942700018, -20.17257239099996], [32.619795758000066, -20.174031425999885], [32.61968017900017, -20.174888621999912], [32.618428929, -20.17601130999992], [32.61899461700011, -20.176762801999928], [32.62024145800018, -20.17746217299998], [32.622165975000144, -20.179556340999966], [32.6232260590001, -20.179760993999935], [32.62639704300011, -20.182768818999932], [32.627296316000184, -20.183884425999963], [32.6293396100001, -20.18641918999998], [32.63137471900018, -20.189853250999818], [32.63393226400018, -20.190613768999924], [32.63632376500004, -20.192646498999977], [32.636321775000056, -20.19350393999997], [32.63632127800014, -20.193718300999933], [32.63711575900004, -20.1937735329999], [32.63955078600014, -20.19619010799994], [32.64005779600018, -20.197852447999878], [32.64089670800013, -20.19856801499992], [32.62743153400015, -20.193256710999947], [32.62401877000008, -20.196304090999945], [32.618451231999984, -20.198435702999916], [32.61855261500011, -20.203419812999925], [32.618434002000186, -20.205509572999972], [32.6190565550001, -20.206261185999836], [32.61830835400008, -20.2082038449999], [32.62232699800006, -20.21298205599993], [32.622267776000115, -20.21400014099987], [32.624530397, -20.21732758199994], [32.61434777300019, -20.21765108099987], [32.61370443100009, -20.22519301899996], [32.611060506000115, -20.224392959999932], [32.59764888900003, -20.221959781999942], [32.59772488700008, -20.221572752999975], [32.594417979000184, -20.210630937999895], [32.59950283300009, -20.20891080899986], [32.610351521000155, -20.20481450099993], [32.60944301200004, -20.201686057999893], [32.59990281100016, -20.168826817999843], [32.61501237700014, -20.164936523999927], [32.62106942700018, -20.17257239099996]]]]}}]}