{"type": "FeatureCollection", "features": [{"type": "Feature", "properties": {"GID_3": "ZWE.8.4.1_2", "GID_0": "ZWE", "COUNTRY": "Zimbabwe", "GID_1": "ZWE.8_1", "NAME_1": "Matabeleland North", "NL_NAME_1": "NA", "GID_2": "ZWE.8.4_2", "NAME_2": "Hwange Urban", "NL_NAME_2": "NA", "NAME_3": "Ward 1", "VARNAME_3": "NA", "NL_NAME_3": "NA", "TYPE_3": "Ward", "ENGTYPE_3": "Ward", "CC_3": "NA", "HASC_3": "NA", "id": "ZWE.8.4.1_2", "name": "Ward 1"}, "geometry": {"type": "MultiPolygon", "coordinates": [[[[26.474517030000186, -18.312935247999917], [26.47459172300006, -18.312824238999895], [26.49058159800012, -18.28905614899992], [26.500442303000057, -18.27405397399997], [26.504032845000097, -18.26873544099982], [26.504210691000083, -18.268676167999956], [26.503592727000125, -18.328071630999887], [26.50778091300009, -18.33042045199994], [26.507697303999976, -18.330614726999897], [26.507672861, -18.330671521999932], [26.506020195000076, -18.33451155899985], [26.50646837300019, -18.335644414999877], [26.50753539200008, -18.337425550999967], [26.507190278000166, -18.339741938999964], [26.507864636000193, -18.340713704999928], [26.508819152000115, -18.34238676399997], [26.508814815000164, -18.343844017999913], [26.50854939900006, -18.343867649999936], [26.506130185000075, -18.34484142599996], [26.50580975500003, -18.344970401999944], [26.50442549600018, -18.345527567999966], [26.50239319600007, -18.34584561399987], [26.49976622500003, -18.345420401999945], [26.488026354999988, -18.325362214999927], [26.483420885000157, -18.322966819999976], [26.483202120999977, -18.3210363689999], [26.48162813100015, -18.321889813999917], [26.47849552200006, -18.31845041899993], [26.477827204000164, -18.316733161999935], [26.47625903300019, -18.315656720999982], [26.474517030000186, -18.312935247999917]]]]}}, {"type": "Feature", "properties": {"GID_3": "ZWE.8.4.2_2", "GID_0": "ZWE", "COUNTRY": "Zimbabwe", "GID_1": "ZWE.8_1", "NAME_1": "Matabeleland North", "NL_NAME_1": "NA", "GID_2": "ZWE.8.4_2", "NAME_2": "Hwange Urban", "NL_NAME_2": "NA", "NAME_3": "Ward 10", "VARNAME_3": "NA", "NL_NAME_3": "NA", "TYPE_3": "Ward", "ENGTYPE_3": "Ward", "CC_3": "NA", "HASC_3": "NA", "id": "ZWE.8.4.2_2", "name": "Ward 10"}, "geometry": {"type": "MultiPolygon", "coordinates": [[[[26.474517030000186, -18.312935247999917], [26.47625903300019, -18.315656720999982], [26.477827204000164, -18.316733161999935], [26.47849552200006, -18.31845041899993], [26.48162813100015, -18.321889813999917], [26.483202120999977, -18.3210363689999], [26.483420885000157, -18.322966819999976], [26.488026354999988, -18.325362214999927], [26.49976622500003, -18.345420401999945], [26.499009119000107, -18.34529784699987], [26.490373727000076, -18.342911470999923], [26.485636644000067, -18.34198261599994], [26.48117840900005, -18.339009437999948], [26.473216595000167, -18.33369923099997], [26.470681168000056, -18.332506629999955], [26.46865110800013, -18.332123753999895], [26.465153747000045, -18.331844527999976], [26.463348067000027, -18.331893345999845], [26.46188199900007, -18.332431536999877], [26.460188489000075, -18.33269620099992], [26.45860714900016, -18.333176726999966], [26.45840628200017, -18.333203551999873], [26.45702664100014, -18.33338779299993], [26.450307401000032, -18.33493134899993], [26.44464119900016, -18.335238269999934], [26.441368827000076, -18.33517482099984], [26.440013456000145, -18.335548073999973], [26.43806378400012, -18.336360852999917], [26.435199749, -18.33755476099992], [26.433025761000067, -18.338060259999907], [26.430911536000053, -18.337542008999947], [26.429300626000156, -18.33564555499987], [26.427919421000183, -18.33443872199996], [26.426032961000033, -18.333711435999817], [26.422131373000184, -18.333098305999954], [26.41961574900006, -18.33224878199985], [26.418529085000046, -18.33137990299997], [26.419815634000145, -18.330056407999905], [26.423854516, -18.32681215199989], [26.424211506000063, -18.326648138999815], [26.424476499000036, -18.326651137999875], [26.42456849600012, -18.326567131999866], [26.424657493000097, -18.32648512499992], [26.424835487999985, -18.326403118999963], [26.424924486000066, -18.326403118999963], [26.42492648600006, -18.326320111999962], [26.425104481000176, -18.326321111999846], [26.425193478000153, -18.32623810599989], [26.429918343, -18.324526967999816], [26.430183336000027, -18.32452996799998], [26.430452328000058, -18.324449960999914], [26.430629323000062, -18.324367954999957], [26.43080731800012, -18.324369953999962], [26.43107431100009, -18.32428994799983], [26.431163308000066, -18.32420594099989], [26.43134130300018, -18.324207940999884], [26.431430301000034, -18.324209940999935], [26.431608295000046, -18.32412793499992], [26.436309163000146, -18.32393891499993], [26.436664153000038, -18.32394491499997], [26.437906119000104, -18.32396191499987], [26.438081114000113, -18.323963914999922], [26.43826110800012, -18.323881907999976], [26.43843810400017, -18.323885907999966], [26.438617098000066, -18.323801901999957], [26.43888209100004, -18.323805901999947], [26.441034029000093, -18.32231178299992], [26.441211024000097, -18.322229776999905], [26.44130302100018, -18.322061763999955], [26.44139201800016, -18.3219777569999], [26.441484015000015, -18.321810743999947], [26.44157501300009, -18.321642730999827], [26.441755007000097, -18.32147671799993], [26.441757007000092, -18.321390710999935], [26.44184800500011, -18.321222697999872], [26.442154993000145, -18.31851748799994], [26.442160992000026, -18.31826446799988], [26.44225099000016, -18.318180461999873], [26.44225098900006, -18.31809645499993], [26.442252989000053, -18.318010448999928], [26.442341987000134, -18.31792644199993], [26.44234598600002, -18.317758428999866], [26.443192959000044, -18.314552178999975], [26.449261784999976, -18.31193696999992], [26.44928278500015, -18.31191596799988], [26.449440780000145, -18.312072979999982], [26.449501779000116, -18.31207397999998], [26.45214170800017, -18.314907196999854], [26.47305112100014, -18.315023182999937], [26.47311212000011, -18.315023182999937], [26.474517030000186, -18.312935247999917]]]]}}, {"type": "Feature", "properties": {"GID_3": "ZWE.8.4.3_2", "GID_0": "ZWE", "COUNTRY": "Zimbabwe", "GID_1": "ZWE.8_1", "NAME_1": "Matabeleland North", "NL_NAME_1": "NA", "GID_2": "ZWE.8.4_2", "NAME_2": "Hwange Urban", "NL_NAME_2": "NA", "NAME_3": "Ward 11", "VARNAME_3": "NA", "NL_NAME_3": "NA", "TYPE_3": "Ward", "ENGTYPE_3": "Ward", "CC_3": "NA", "HASC_3": "NA", "id": "ZWE.8.4.3_2", "name": "Ward 11"}, "geometry": {"type": "MultiPolygon", "coordinates": [[[[26.418529085000046, -18.33137990299997], [26.41961574900006, -18.33224878199985], [26.422131373000184, -18.333098305999954], [26.426032961000033, -18.333711435999817], [26.427919421000183, -18.33443872199996], [26.429300626000156, -18.33564555499987], [26.430911536000053, -18.337542008999947], [26.433025761000067, -18.338060259999907], [26.435199749, -18.33755476099992], [26.43806378400012, -18.336360852999917], [26.439793437000162, -18.336938845999953], [26.44183468000017, -18.33857363599992], [26.43737637700019, -18.346053020999932], [26.437538492000158, -18.348659580999936], [26.434632244000056, -18.350768420999884], [26.433942606000187, -18.353046692999897], [26.43478478300017, -18.35630679199994], [26.434688516000108, -18.360506713999882], [26.42387908000012, -18.37397012599996], [26.415046347000157, -18.373559395999905], [26.384033826, -18.372114030999967], [26.384228684000163, -18.371973695999827], [26.418649681000034, -18.342064339999922], [26.412425850000147, -18.337658004999923], [26.418529085000046, -18.33137990299997]]]]}}, {"type": "Feature", "properties": {"GID_3": "ZWE.8.4.4_2", "GID_0": "ZWE", "COUNTRY": "Zimbabwe", "GID_1": "ZWE.8_1", "NAME_1": "Matabeleland North", "NL_NAME_1": "NA", "GID_2": "ZWE.8.4_2", "NAME_2": "Hwange Urban", "NL_NAME_2": "NA", "NAME_3": "Ward 12", "VARNAME_3": "NA", "NL_NAME_3": "NA", "TYPE_3": "Ward", "ENGTYPE_3": "Ward", "CC_3": "NA", "HASC_3": "NA", "id": "ZWE.8.4.4_2", "name": "Ward 12"}, "geometry": {"type": "MultiPolygon", "coordinates": [[[[26.415046347000157, -18.373559395999905], [26.42387908000012, -18.37397012599996], [26.434688516000108, -18.360506713999882], [26.47402893900005, -18.362985277999883], [26.47389638100009, -18.369661787999917], [26.47298845800003, -18.375011334999897], [26.46214559800012, -18.37984649999993], [26.46175475100017, -18.38264305499996], [26.46163582400004, -18.382961777999924], [26.456533979000028, -18.382409948999907], [26.438808972000118, -18.387832156999934], [26.436510734000024, -18.389406641999926], [26.42542572200017, -18.38986002499996], [26.413434938000137, -18.3831323899999], [26.41360303800019, -18.382883373999903], [26.416472389000035, -18.37863270499986], [26.415046347000157, -18.373559395999905]]]]}}, {"type": "Feature", "properties": {"GID_3": "ZWE.8.4.5_2", "GID_0": "ZWE", "COUNTRY": "Zimbabwe", "GID_1": "ZWE.8_1", "NAME_1": "Matabeleland North", "NL_NAME_1": "NA", "GID_2": "ZWE.8.4_2", "NAME_2": "Hwange Urban", "NL_NAME_2": "NA", "NAME_3": "Ward 13", "VARNAME_3": "NA", "NL_NAME_3": "NA", "TYPE_3": "Ward", "ENGTYPE_3": "Ward", "CC_3": "NA", "HASC_3": "NA", "id": "ZWE.8.4.5_2", "name": "Ward 13"}, "geometry": {"type": "MultiPolygon", "coordinates": [[[[26.384033826, -18.372114030999967], [26.415046347000157, -18.373559395999905], [26.416472389000035, -18.37863270499986], [26.41360303800019, -18.382883373999903], [26.413434938000137, -18.3831323899999], [26.412357794, -18.384728003999953], [26.41081090600011, -18.38814367499998], [26.40850546100006, -18.388869473999875], [26.40463979700013, -18.396838462999938], [26.402698327000053, -18.398192432999963], [26.39672257400008, -18.39955802999998], [26.391069041000094, -18.40629944599982], [26.386269859000038, -18.412554804999957], [26.381650836000063, -18.416041697999958], [26.374384099000167, -18.420334155999853], [26.372671414000138, -18.422120156999938], [26.36664852000007, -18.426263930999937], [26.352649599000074, -18.39479549999993], [26.35265159900007, -18.394709492999937], [26.384033826, -18.372114030999967]]]]}}, {"type": "Feature", "properties": {"GID_3": "ZWE.8.4.6_2", "GID_0": "ZWE", "COUNTRY": "Zimbabwe", "GID_1": "ZWE.8_1", "NAME_1": "Matabeleland North", "NL_NAME_1": "NA", "GID_2": "ZWE.8.4_2", "NAME_2": "Hwange Urban", "NL_NAME_2": "NA", "NAME_3": "Ward 14", "VARNAME_3": "NA", "NL_NAME_3": "NA", "TYPE_3": "Ward", "ENGTYPE_3": "Ward", "CC_3": "NA", "HASC_3": "NA", "id": "ZWE.8.4.6_2", "name": "Ward 14"}, "geometry": {"type": "MultiPolygon", "coordinates": [[[[26.46163582400004, -18.382961777999924], [26.46175475100017, -18.38264305499996], [26.46214559800012, -18.37984649999993], [26.47298845800003, -18.375011334999897], [26.47389638100009, -18.369661787999917], [26.47402893900005, -18.362985277999883], [26.48029921700015, -18.36337956799997], [26.480732208000177, -18.36340678799985], [26.480614373000094, -18.368955426999946], [26.48160678800008, -18.369879629999843], [26.483421052000097, -18.37156915399993], [26.49101066100019, -18.37191536099988], [26.49673011800013, -18.370138876999874], [26.50501268300019, -18.366740087999972], [26.508176998000067, -18.36365354299994], [26.50828035500018, -18.363727985999958], [26.508262051000088, -18.36373520399991], [26.508337572000016, -18.36388041899994], [26.50753707000007, -18.37394844399995], [26.517429658000026, -18.37429954499987], [26.516043228000058, -18.382114322999882], [26.520818727000062, -18.382452172999933], [26.52117631400006, -18.385498399999847], [26.477269356000193, -18.391687491999903], [26.46630152300014, -18.395427785999914], [26.456646560000024, -18.39016237699991], [26.460213187000193, -18.38677435599982], [26.46163582400004, -18.382961777999924]]]]}}, {"type": "Feature", "properties": {"GID_3": "ZWE.8.4.7_2", "GID_0": "ZWE", "COUNTRY": "Zimbabwe", "GID_1": "ZWE.8_1", "NAME_1": "Matabeleland North", "NL_NAME_1": "NA", "GID_2": "ZWE.8.4_2", "NAME_2": "Hwange Urban", "NL_NAME_2": "NA", "NAME_3": "Ward 15", "VARNAME_3": "NA", "NL_NAME_3": "NA", "TYPE_3": "Ward", "ENGTYPE_3": "Ward", "CC_3": "NA", "HASC_3": "NA", "id": "ZWE.8.4.7_2", "name": "Ward 15"}, "geometry": {"type": "MultiPolygon", "coordinates": [[[[26.413434938000137, -18.3831323899999], [26.42542572200017, -18.38986002499996], [26.436510734000024, -18.389406641999926], [26.438808972000118, -18.387832156999934], [26.456533979000028, -18.382409948999907], [26.46163582400004, -18.382961777999924], [26.460213187000193, -18.38677435599982], [26.456646560000024, -18.39016237699991], [26.46630152300014, -18.395427785999914], [26.477269356000193, -18.391687491999903], [26.52117631400006, -18.385498399999847], [26.525449130000084, -18.42189026099993], [26.52534778500018, -18.42203741499992], [26.525212789000022, -18.42223242999995], [26.5250747930001, -18.42236343999997], [26.524939797000172, -18.422558455999933], [26.524803801000076, -18.42269046599995], [26.524666805000095, -18.422819475999972], [26.524599807000072, -18.42301649099994], [26.524464811000087, -18.423210506999965], [26.52439581300007, -18.42334251699998], [26.524327815000163, -18.423536531999957], [26.524260817000084, -18.423733546999927], [26.524191819000066, -18.423927561999903], [26.524124822000147, -18.424059572999965], [26.524056824000183, -18.42425458799994], [26.52405882400018, -18.42451560799998], [26.52405882400018, -18.424709622999956], [26.52398982600016, -18.424841632999858], [26.523991826000156, -18.425036647999832], [26.52399182700003, -18.425297668999917], [26.523993827000027, -18.42575370399993], [26.52399382800013, -18.426012723999918], [26.52399382800013, -18.426144733999934], [26.52399382800013, -18.426403753999978], [26.523926830000107, -18.42653576399988], [26.52385783200009, -18.42666577499989], [26.52379183400012, -18.42679478499997], [26.523722836000104, -18.42699179999994], [26.523655839000128, -18.427185814999916], [26.523587841, -18.427382829999885], [26.523520843000142, -18.42764385099997], [26.523451845000125, -18.427838865999945], [26.523384847000102, -18.42809988599987], [26.52331684900014, -18.42829390099996], [26.52324985200005, -18.42862092699994], [26.52318085400003, -18.428881946999923], [26.523182855000073, -18.429402986999946], [26.52311585700005, -18.429597001999923], [26.52311585700005, -18.429858021999962], [26.52311585700005, -18.430053037999926], [26.523117857000045, -18.430314057999965], [26.52311785800015, -18.4306400829999], [26.52305186000018, -18.430835097999875], [26.52305186000018, -18.431161122999868], [26.522984862000158, -18.431358138999826], [26.522915865000186, -18.431617158999927], [26.522848867000164, -18.4318131739999], [26.522848867000164, -18.432008188999873], [26.52278086900003, -18.432204203999902], [26.522713871000178, -18.43239921999998], [26.522578875000193, -18.432660239999905], [26.522509878000108, -18.432790249999925], [26.52244288000003, -18.432986264999954], [26.522305884000104, -18.43318128099986], [26.522169888, -18.433313290999934], [26.5221018900001, -18.43350730599991], [26.521965894, -18.43370432099988], [26.52183089800002, -18.433833331999892], [26.5217619, -18.43403034699992], [26.521626904000016, -18.434159356999942], [26.521353912, -18.434421377999968], [26.521218916, -18.434552387999872], [26.521149918, -18.43461739299994], [26.521014922, -18.43481240799997], [26.52094592399999, -18.43494341799982], [26.52080992800012, -18.43507342899983], [26.520741929999986, -18.435138433999953], [26.52067293200014, -18.4352054389999], [26.520605934000116, -18.43527044399997], [26.520537935999982, -18.435334448999924], [26.516477055000166, -18.438924730999872], [26.516342058000134, -18.438924731999975], [26.51627306000006, -18.43898973699993], [26.51627306000006, -18.439054741999882], [26.516206062000037, -18.4391857519999], [26.516137065000123, -18.43931576199992], [26.516002069000137, -18.439510776999896], [26.51593307100012, -18.43977179799998], [26.515798075000134, -18.439967812999953], [26.515731077000112, -18.44022783299988], [26.51559408100013, -18.440423847999966], [26.51552708300011, -18.44061886399993], [26.515527083999984, -18.440879883999912], [26.515527083999984, -18.441074898999886], [26.51552908400015, -18.441205908999905], [26.515529085000082, -18.441791953999882], [26.515531085000077, -18.441987968999968], [26.515668081000058, -18.44231299399985], [26.51580407800003, -18.442509008999878], [26.515872076000107, -18.442704023999966], [26.51594307400012, -18.442898038999942], [26.516010073000075, -18.443030049999948], [26.516147069000056, -18.44322406399982], [26.516284066000082, -18.44348408399992], [26.516284066000082, -18.44368009999988], [26.516353064000157, -18.4438101099999], [26.516355064000095, -18.443941119999977], [26.516355064000095, -18.44413613499995], [26.516355064000095, -18.444201139999905], [26.516286066000077, -18.444266144999972], [26.516219068000055, -18.444397154999876], [26.516151071000024, -18.444592169999964], [26.516015075000155, -18.444788185999982], [26.51588007900017, -18.444983200999957], [26.51574308300019, -18.445244220999882], [26.515676085000166, -18.445441235999965], [26.515539089000185, -18.44563525199993], [26.515472091000163, -18.445832266999957], [26.515336095000123, -18.44596127699998], [26.51526809700016, -18.446091286999888], [26.515199099000142, -18.446223297999893], [26.515064103000157, -18.44641731299987], [26.514928107000117, -18.446549322999886], [26.514791111000136, -18.446678332999966], [26.514518119000115, -18.44681034399997], [26.514314125000112, -18.446875348999924], [26.51411013100011, -18.447005358999945], [26.513906137000106, -18.44707136499983], [26.513633145000085, -18.447201374999906], [26.513427150000155, -18.44726837999997], [26.51322315600015, -18.44739739099998], [26.51301916200015, -18.447462395999935], [26.512815168000145, -18.447529400999883], [26.512678172000165, -18.44759440599995], [26.512611174000142, -18.44765941099996], [26.512542176000125, -18.447659411999894], [26.512542176000125, -18.44772441699996], [26.512473178000107, -18.44779042199997], [26.51233818200012, -18.44779042199997], [26.512269184000104, -18.447855426999865], [26.51213418800012, -18.447985436999943], [26.511997191000034, -18.447985436999943], [26.511861195000165, -18.448117447999948], [26.511724199000014, -18.448181452999904], [26.511588203000144, -18.44824645799997], [26.511451207000164, -18.44831346299992], [26.511316211, -18.44844347399993], [26.511178215000143, -18.448508478999884], [26.511112217, -18.44857448399995], [26.511043219000157, -18.448639488999902], [26.51097422100014, -18.448639488999902], [26.510906223, -18.44870449399997], [26.510839225000154, -18.44876949899998], [26.510770227000137, -18.44876949899998], [26.510702229, -18.44883450499998], [26.51063523100015, -18.44890050999993], [26.510566233000134, -18.44890050999993], [26.510497235000116, -18.44896551499994], [26.510429236999983, -18.449030519999837], [26.510293241000113, -18.44909552499996], [26.510156245000132, -18.4491625309999], [26.5100212480001, -18.4491625309999], [26.509952250000083, -18.449291540999923], [26.509817254000097, -18.449356545999876], [26.509679258, -18.44942355099994], [26.509544262000077, -18.449488555999892], [26.509406265999985, -18.44955356199995], [26.509340268000074, -18.449618566999902], [26.50927127, -18.449684571999967], [26.509202271999982, -18.449814581999874], [26.50913627400007, -18.449814581999874], [26.50913627400007, -18.44987958699994], [26.509067276, -18.44987958699994], [26.509067276, -18.4500115969999], [26.50899827799998, -18.4500115969999], [26.50899827799998, -18.45007560199997], [26.508931280000127, -18.45007560299996], [26.508931280000127, -18.45020561299998], [26.508931280000127, -18.450270617999934], [26.508863282, -18.450270617999934], [26.508863282, -18.450335622999887], [26.50896228000005, -18.450476632999937], [26.50893128100006, -18.45049563499998], [26.50879028500009, -18.450564639999925], [26.508579291000046, -18.450697650999928], [26.50836729700012, -18.450766656999974], [26.508155303000137, -18.450901666999926], [26.50794330900004, -18.450968672999977], [26.50773231500017, -18.451037677999977], [26.507591319000028, -18.45110368399986], [26.507308327000032, -18.451172688999975], [26.507028335000143, -18.451239694999913], [26.50646335100015, -18.451374705999967], [26.506252357000108, -18.451374705999967], [26.506040363000125, -18.451443711999843], [26.50582836899997, -18.451443711999843], [26.505687373000058, -18.451443711999843], [26.50519338700002, -18.451445712999828], [26.504981393000094, -18.451445712999828], [26.504840397000123, -18.451445712999828], [26.50469940100004, -18.45137870799988], [26.50427641200008, -18.45137870799988], [26.504135416000167, -18.451378708999982], [26.504064418000155, -18.451378708999982], [26.503923422000014, -18.45131170399992], [26.503852424, -18.45131170399992], [26.503711428000088, -18.45131170399992], [26.50364143000013, -18.45131170399992], [26.503499434000105, -18.45131170399992], [26.49946254000008, -18.44552426099989], [26.49946254000008, -18.445322244999943], [26.49946254000008, -18.445256239999935], [26.499359542000093, -18.44449618199991], [26.49038179500019, -18.44559527699988], [26.48975981300009, -18.44558627699996], [26.489581818000033, -18.445584276999966], [26.489227828000026, -18.445580276999976], [26.48913783000006, -18.445662282999933], [26.488960835000057, -18.44566028299994], [26.484069974000136, -18.446354341999893], [26.45282925100014, -18.45922753999986], [26.40693517900013, -18.478125886999976], [26.40684618100005, -18.478123885999878], [26.392914580000138, -18.48385434499994], [26.392857569000114, -18.48373071799989], [26.374565045000054, -18.44405428799996], [26.366760920000104, -18.42651654799988], [26.36664852000007, -18.426263930999937], [26.372671414000138, -18.422120156999938], [26.374384099000167, -18.420334155999853], [26.381650836000063, -18.416041697999958], [26.386269859000038, -18.412554804999957], [26.391069041000094, -18.40629944599982], [26.39672257400008, -18.39955802999998], [26.402698327000053, -18.398192432999963], [26.40463979700013, -18.396838462999938], [26.40850546100006, -18.388869473999875], [26.41081090600011, -18.38814367499998], [26.412357794, -18.384728003999953], [26.413434938000137, -18.3831323899999]]]]}}, {"type": "Feature", "properties": {"GID_3": "ZWE.8.4.8_2", "GID_0": "ZWE", "COUNTRY": "Zimbabwe", "GID_1": "ZWE.8_1", "NAME_1": "Matabeleland North", "NL_NAME_1": "NA", "GID_2": "ZWE.8.4_2", "NAME_2": "Hwange Urban", "NL_NAME_2": "NA", "NAME_3": "Ward 2", "VARNAME_3": "NA", "NL_NAME_3": "NA", "TYPE_3": "Ward", "ENGTYPE_3": "Ward", "CC_3": "NA", "HASC_3": "NA", "id": "ZWE.8.4.8_2", "name": "Ward 2"}, "geometry": {"type": "MultiPolygon", "coordinates": [[[[26.507864636000193, -18.340713704999928], [26.507190278000166, -18.339741938999964], [26.50753539200008, -18.337425550999967], [26.50646837300019, -18.335644414999877], [26.506020195000076, -18.33451155899985], [26.507672861, -18.330671521999932], [26.507697303999976, -18.330614726999897], [26.50778091300009, -18.33042045199994], [26.508066986000017, -18.329020042999957], [26.509085162000076, -18.328106530999946], [26.51021526100004, -18.327516641999978], [26.51275512500007, -18.327199804999964], [26.515929403000143, -18.327258419999964], [26.516122804000076, -18.327261989999954], [26.516140250000092, -18.327262311999903], [26.516144593000035, -18.327382986999964], [26.51619262600019, -18.32871748399998], [26.515906469000015, -18.330171796999934], [26.514600038000026, -18.333294114999944], [26.514373593000016, -18.33356298999996], [26.52288642200017, -18.336171214999922], [26.52366927700018, -18.338759908999975], [26.523835882000185, -18.341551813999956], [26.52269345000019, -18.34142552299994], [26.52248005900003, -18.340319752999903], [26.521241664000115, -18.33923884099994], [26.519774907, -18.339127370999847], [26.51396583000013, -18.33814262599998], [26.512103510000088, -18.338245649999976], [26.507864636000193, -18.340713704999928]]]]}}, {"type": "Feature", "properties": {"GID_3": "ZWE.8.4.9_2", "GID_0": "ZWE", "COUNTRY": "Zimbabwe", "GID_1": "ZWE.8_1", "NAME_1": "Matabeleland North", "NL_NAME_1": "NA", "GID_2": "ZWE.8.4_2", "NAME_2": "Hwange Urban", "NL_NAME_2": "NA", "NAME_3": "Ward 3", "VARNAME_3": "NA", "NL_NAME_3": "NA", "TYPE_3": "Ward", "ENGTYPE_3": "Ward", "CC_3": "NA", "HASC_3": "NA", "id": "ZWE.8.4.9_2", "name": "Ward 3"}, "geometry": {"type": "MultiPolygon", "coordinates": [[[[26.523835882000185, -18.341551813999956], [26.52366927700018, -18.338759908999975], [26.52288642200017, -18.336171214999922], [26.514373593000016, -18.33356298999996], [26.514600038000026, -18.333294114999944], [26.515906469000015, -18.330171796999934], [26.51619262600019, -18.32871748399998], [26.516144593000035, -18.327382986999964], [26.51696199900016, -18.327744954999957], [26.51737995000019, -18.32768462299987], [26.517943181000135, -18.327603316999955], [26.518317612000146, -18.328613106999967], [26.51997700900006, -18.32876141099996], [26.522990870000115, -18.330210179999938], [26.523160722000114, -18.330186231999903], [26.522879355000043, -18.33186098599998], [26.526458247, -18.33137178599992], [26.54587136300006, -18.31109274099998], [26.546004105000065, -18.340454072999933], [26.54573911600005, -18.343059274999916], [26.54573911600005, -18.343126280999968], [26.545672118000027, -18.34319128599992], [26.545534122000163, -18.343256290999875], [26.544922140000153, -18.34404035199998], [26.54485514200013, -18.34404035199998], [26.54471814600015, -18.34404035299991], [26.544514151000044, -18.34404035299991], [26.542740201000186, -18.34423836999997], [26.542742202000056, -18.344368379999878], [26.542742202000056, -18.344564394999907], [26.54281120000013, -18.344629399999974], [26.542879198000037, -18.34475940999988], [26.54301519500018, -18.3448894199999], [26.543013114000132, -18.345001689999947], [26.538554648000172, -18.345260399999972], [26.536468994000074, -18.344446982999898], [26.53483333200012, -18.344173545999922], [26.52789867900003, -18.342000882999912], [26.523835882000185, -18.341551813999956]]]]}}, {"type": "Feature", "properties": {"GID_3": "ZWE.8.4.10_2", "GID_0": "ZWE", "COUNTRY": "Zimbabwe", "GID_1": "ZWE.8_1", "NAME_1": "Matabeleland North", "NL_NAME_1": "NA", "GID_2": "ZWE.8.4_2", "NAME_2": "Hwange Urban", "NL_NAME_2": "NA", "NAME_3": "Ward 4", "VARNAME_3": "NA", "NL_NAME_3": "NA", "TYPE_3": "Ward", "ENGTYPE_3": "Ward", "CC_3": "NA", "HASC_3": "NA", "id": "ZWE.8.4.10_2", "name": "Ward 4"}, "geometry": {"type": "MultiPolygon", "coordinates": [[[[26.50778091300009, -18.33042045199994], [26.503592727000125, -18.328071630999887], [26.504210691000083, -18.268676167999956], [26.504032845000097, -18.26873544099982], [26.506526072999975, -18.265042078999954], [26.516388796000058, -18.250429957999927], [26.516529322000167, -18.250383107999937], [26.51737995000019, -18.32768462299987], [26.51696199900016, -18.327744954999957], [26.516144593000035, -18.327382986999964], [26.516140250000092, -18.327262311999903], [26.516122804000076, -18.327261989999954], [26.515929403000143, -18.327258419999964], [26.51275512500007, -18.327199804999964], [26.51021526100004, -18.327516641999978], [26.509085162000076, -18.328106530999946], [26.508066986000017, -18.329020042999957], [26.50778091300009, -18.33042045199994]]]]}}, {"type": "Feature", "properties": {"GID_3": "ZWE.8.4.11_2", "GID_0": "ZWE", "COUNTRY": "Zimbabwe", "GID_1": "ZWE.8_1", "NAME_1": "Matabeleland North", "NL_NAME_1": "NA", "GID_2": "ZWE.8.4_2", "NAME_2": "Hwange Urban", "NL_NAME_2": "NA", "NAME_3": "Ward 5", "VARNAME_3": "NA", "NL_NAME_3": "NA", "TYPE_3": "Ward", "ENGTYPE_3": "Ward", "CC_3": "NA", "HASC_3": "NA", "id": "ZWE.8.4.11_2", "name": "Ward 5"}, "geometry": {"type": "MultiPolygon", "coordinates": [[[[26.523160722000114, -18.330186231999903], [26.522990870000115, -18.330210179999938], [26.51997700900006, -18.32876141099996], [26.518317612000146, -18.328613106999967], [26.517943181000135, -18.327603316999955], [26.51737995000019, -18.32768462299987], [26.516529322000167, -18.250383107999937], [26.516388796000058, -18.250429957999927], [26.516562822000083, -18.250172102999898], [26.51644482500018, -18.250060093999934], [26.516209831000083, -18.249722067999983], [26.515034857000046, -18.24352858899988], [26.543558020999967, -18.21390725699996], [26.555221680000045, -18.202538360999938], [26.571384212999988, -18.191268467999976], [26.577743037000175, -18.19335962299988], [26.57780203600015, -18.19335962299988], [26.577920032000122, -18.19347163199984], [26.578038029000027, -18.19347163199984], [26.578214024000147, -18.193584639999926], [26.57839101900015, -18.19358663999992], [26.578450018000126, -18.193641643999968], [26.578567015000147, -18.193698648999884], [26.57862601300019, -18.19375465299987], [26.57868501100012, -18.19381165699997], [26.578803008000023, -18.193866660999902], [26.57892200499998, -18.193981669999914], [26.57915599800009, -18.194093678999877], [26.57933399400008, -18.194206686999905], [26.57944999100016, -18.194318695999925], [26.579626986000164, -18.194375699999966], [26.579804981000052, -18.19448870899987], [26.57997997600006, -18.194543712999973], [26.58015797100012, -18.1946007169999], [26.580391964000057, -18.194658720999826], [26.58062895800009, -18.19471372499993], [26.580746955, -18.19477072999996], [26.580921950000175, -18.194827733999944], [26.581040946000087, -18.194827733999944], [26.581158943000162, -18.194827733999944], [26.58127494000007, -18.194827732999954], [26.58133393800017, -18.194827732999954], [26.581452935000186, -18.194827732999954], [26.58151193300006, -18.194827732999954], [26.581745927000043, -18.194827732999954], [26.581864923000126, -18.194827732999954], [26.58204191800013, -18.194885736999936], [26.582159915000034, -18.194885736999936], [26.582276912000054, -18.194885736999936], [26.582335910000097, -18.194885736999936], [26.582453907, -18.194885736999936], [26.582571904000133, -18.194885736999936], [26.582747899000026, -18.194885735999947], [26.58292489400003, -18.194886735999944], [26.583100889000093, -18.194886735999944], [26.583277884000097, -18.194886735999944], [26.583454879000044, -18.194886735999944], [26.583630874000164, -18.194886734999955], [26.58374887100007, -18.194886734999955], [26.58386686700004, -18.194886734999955], [26.583985864000056, -18.19494473999987], [26.584101861000136, -18.194944738999936], [26.584456851000027, -18.194944738999936], [26.584631846000036, -18.194944738999936], [26.584984836000103, -18.194944737999947], [26.585043833999976, -18.19494673899993], [26.585102833000178, -18.194946737999942], [26.585161831000107, -18.194946737999942], [26.58522182900009, -18.194946737999942], [26.585339826000165, -18.194946737999942], [26.5867527850001, -18.193878653999946], [26.586811784000076, -18.193878653999946], [26.58710577500017, -18.193878652999956], [26.587164774000144, -18.193878652999956], [26.587282770000172, -18.193878652999956], [26.587340769000093, -18.193878652999956], [26.587458765000065, -18.193878652999956], [26.58751776400004, -18.193822648999912], [26.58757676200014, -18.193822647999923], [26.58757676200014, -18.19393565699994], [26.588518737000186, -18.194667712999944], [26.572145209000098, -18.205849599999908], [26.56607738500003, -18.210286950999887], [26.559598575000052, -18.217538520999938], [26.549403875000166, -18.228720400999975], [26.549403875000166, -18.228665396999872], [26.533646338000153, -18.246315784999922], [26.53382133700012, -18.249976068999842], [26.53426032600015, -18.250918140999886], [26.53263138500006, -18.2619169969999], [26.54658201300009, -18.277463187999956], [26.546482018000063, -18.279336332999947], [26.546080784000083, -18.28685884999993], [26.545778659000064, -18.286872053999957], [26.52572630100019, -18.314913720999925], [26.523160722000114, -18.330186231999903]]]]}}, {"type": "Feature", "properties": {"GID_3": "ZWE.8.4.12_2", "GID_0": "ZWE", "COUNTRY": "Zimbabwe", "GID_1": "ZWE.8_1", "NAME_1": "Matabeleland North", "NL_NAME_1": "NA", "GID_2": "ZWE.8.4_2", "NAME_2": "Hwange Urban", "NL_NAME_2": "NA", "NAME_3": "Ward 6", "VARNAME_3": "NA", "NL_NAME_3": "NA", "TYPE_3": "Ward", "ENGTYPE_3": "Ward", "CC_3": "NA", "HASC_3": "NA", "id": "ZWE.8.4.12_2", "name": "Ward 6"}, "geometry": {"type": "MultiPolygon", "coordinates": [[[[26.54587136300006, -18.31109274099998], [26.526458247, -18.33137178599992], [26.522879355000043, -18.33186098599998], [26.523160722000114, -18.330186231999903], [26.52572630100019, -18.314913720999925], [26.545778659000064, -18.286872053999957], [26.546080784000083, -18.28685884999993], [26.54599804200018, -18.288410037999938], [26.54583006300004, -18.301961088999917], [26.54587136300006, -18.31109274099998]]]]}}, {"type": "Feature", "properties": {"GID_3": "ZWE.8.4.13_2", "GID_0": "ZWE", "COUNTRY": "Zimbabwe", "GID_1": "ZWE.8_1", "NAME_1": "Matabeleland North", "NL_NAME_1": "NA", "GID_2": "ZWE.8.4_2", "NAME_2": "Hwange Urban", "NL_NAME_2": "NA", "NAME_3": "Ward 7", "VARNAME_3": "NA", "NL_NAME_3": "NA", "TYPE_3": "Ward", "ENGTYPE_3": "Ward", "CC_3": "NA", "HASC_3": "NA", "id": "ZWE.8.4.13_2", "name": "Ward 7"}, "geometry": {"type": "MultiPolygon", "coordinates": [[[[26.50580975500003, -18.344970401999944], [26.506130185000075, -18.34484142599996], [26.50854939900006, -18.343867649999936], [26.508814815000164, -18.343844017999913], [26.508819152000115, -18.34238676399997], [26.507864636000193, -18.340713704999928], [26.512103510000088, -18.338245649999976], [26.51396583000013, -18.33814262599998], [26.519774907, -18.339127370999847], [26.521241664000115, -18.33923884099994], [26.52248005900003, -18.340319752999903], [26.52269345000019, -18.34142552299994], [26.523835882000185, -18.341551813999956], [26.52789867900003, -18.342000882999912], [26.53483333200012, -18.344173545999922], [26.536468994000074, -18.344446982999898], [26.538554648000172, -18.345260399999972], [26.543013114000132, -18.345001689999947], [26.54301519500018, -18.3448894199999], [26.54315219100016, -18.345018429999925], [26.54328918700014, -18.34515043999994], [26.54335818500016, -18.345280449999848], [26.54342718400011, -18.345344454999974], [26.543562180000094, -18.345409459999928], [26.543562180000094, -18.34553946999995], [26.543631178000112, -18.34553946999995], [26.54568912500008, -18.34944376999988], [26.545758123000155, -18.349575779999952], [26.54582412200017, -18.34964078499985], [26.545893120000187, -18.349705789999973], [26.545893120000187, -18.34976979499993], [26.545962118000034, -18.34976979499993], [26.545962118000034, -18.349834799999826], [26.546099114000185, -18.35002981499997], [26.546168112000032, -18.350160824999875], [26.54623611100004, -18.350290834999896], [26.546374107000133, -18.350550854999938], [26.54644210500004, -18.3506818649999], [26.546580102000178, -18.35094188499994], [26.54664810000014, -18.35120290599997], [26.54671709900009, -18.351461925999956], [26.54678609700011, -18.351593935999972], [26.54678609700011, -18.35178795099995], [26.546854095000015, -18.351982965999923], [26.546854096000118, -18.352178980999895], [26.546923094000135, -18.352308990999973], [26.54692509400013, -18.35270002099992], [26.54699409300008, -18.35283003099994], [26.54699409300008, -18.353091050999865], [26.546526110000173, -18.356473313999913], [26.546526110000173, -18.35653831899998], [26.54659510800019, -18.35666732899989], [26.546732105000046, -18.35679733899991], [26.546868101000143, -18.35705835899995], [26.547074096000017, -18.357318378999935], [26.54734808800015, -18.35757739899998], [26.54769007900012, -18.3578394189999], [26.54803107000015, -18.358163442999967], [26.548441059000083, -18.358422462999897], [26.548714051000104, -18.35861947799998], [26.548989044000052, -18.358813492999957], [26.549193038000055, -18.358943502999864], [26.54933003399998, -18.359008506999885], [26.549330035000082, -18.359073511999952], [26.5493990330001, -18.35913751699991], [26.549534029000085, -18.359202521999975], [26.549809022000034, -18.35959355199998], [26.55001501600003, -18.359788566999953], [26.55021901100008, -18.360049586999878], [26.55035600700006, -18.3601795969999], [26.550494003000097, -18.360373611999876], [26.550629000000185, -18.360503621999896], [26.550765996000166, -18.36063563199997], [26.550834994000184, -18.360700636999923], [26.550903993000134, -18.360829646999946], [26.550903993000134, -18.3608946519999], [26.55097199100004, -18.36102466199992], [26.55097199100004, -18.36115567199994], [26.551040989000057, -18.36135068699997], [26.551109988000178, -18.361609706999843], [26.55117798600014, -18.36180672199987], [26.551248984000154, -18.362065741999913], [26.55124898500003, -18.362327761999836], [26.551316983000163, -18.362521776999813], [26.551316983000163, -18.362718792999942], [26.551318983000158, -18.36291280799992], [26.551250986000127, -18.363173827999958], [26.551183988000105, -18.36337084299987], [26.551114990000087, -18.36350085299989], [26.55104899200012, -18.363629863999904], [26.5509799940001, -18.363826878999873], [26.55091299600008, -18.363955888999897], [26.550776, -18.364152903999923], [26.550709002000076, -18.364411924999956], [26.550574006999966, -18.36473794999995], [26.550438011000097, -18.36499996999993], [26.55030301500011, -18.36532599599991], [26.55016701900007, -18.365652020999903], [26.550099021000108, -18.365911040999947], [26.55003202400019, -18.366238066999813], [26.54996502600011, -18.36649908699991], [26.54996502600011, -18.366693101999886], [26.549897028000032, -18.366825111999958], [26.54983003000018, -18.36695512299997], [26.549761032000106, -18.36715113799994], [26.549626036000177, -18.367346152999914], [26.549557039000035, -18.367542167999886], [26.5493530440001, -18.367737183999964], [26.549218049000046, -18.367998203999946], [26.549082053000177, -18.36825922399987], [26.548878059000174, -18.368650254999977], [26.548743063000188, -18.3689122749999], [26.548676065000166, -18.369171294999944], [26.548607067000148, -18.369368310999903], [26.548540070000172, -18.36956232599988], [26.54847207200004, -18.369759340999906], [26.548405074000186, -18.369953355999883], [26.54833607600017, -18.370150371999955], [26.548338076000164, -18.37041139199988], [26.54827007800003, -18.37067041199998], [26.548271079000017, -18.370932431999904], [26.54820308100011, -18.371193452999933], [26.548205081000106, -18.371387467999966], [26.548207082000147, -18.371973512999887], [26.548207082000147, -18.372429547999957], [26.54820708300008, -18.372560558999965], [26.548209083000074, -18.372887583999955], [26.548209083000074, -18.37295158899991], [26.548140085000057, -18.37308159899993], [26.548140085000057, -18.373146603999885], [26.548073086999977, -18.373278613999958], [26.54800408900013, -18.373342618999914], [26.54793809100005, -18.37353763499982], [26.547869092999974, -18.373669644999893], [26.547734097000045, -18.37386365999987], [26.547665100000074, -18.37406067499984], [26.54753010400009, -18.374254690999976], [26.547463106000066, -18.374386700999878], [26.54739410800005, -18.37458071599997], [26.547396108000044, -18.37497174599997], [26.547396109000147, -18.375427781999974], [26.547398109000085, -18.375883816999874], [26.547398110000188, -18.3760808319999], [26.547467108000035, -18.376339851999944], [26.547537106000163, -18.376665876999937], [26.547606105000114, -18.37692689699992], [26.547606105000114, -18.377121912999883], [26.547743101000037, -18.37731692699998], [26.547812100000158, -18.377447937999875], [26.547812100000158, -18.377577947999896], [26.54788009800012, -18.377642952999963], [26.54794909600014, -18.37777196199994], [26.54808609200012, -18.3779689779999], [26.548155091000012, -18.37809898799992], [26.548224089000087, -18.378227997999943], [26.54829108700011, -18.378293001999907], [26.54829108700011, -18.378358006999974], [26.548359085000016, -18.378423011999928], [26.54836108500001, -18.378554022999936], [26.548428084000136, -18.378619027999946], [26.54843008400013, -18.379140067999913], [26.54843008400013, -18.379270077999934], [26.54843208500006, -18.379466092999962], [26.548294088999967, -18.379596102999813], [26.548228091000055, -18.379792118999944], [26.548159093000038, -18.37998713399992], [26.548024097000052, -18.380118143999937], [26.547888101000126, -18.380313158999968], [26.54781910300011, -18.38050917499993], [26.547684107000123, -18.38063918499995], [26.547549110999967, -18.38083619999992], [26.547411115000102, -18.380965209999943], [26.547276119000117, -18.381097220999948], [26.547140123000077, -18.381227230999855], [26.547003127000096, -18.381356240999935], [26.54686813100011, -18.381423245999883], [26.546730135000075, -18.381553256999894], [26.546664137000107, -18.38161826199996], [26.546526141000072, -18.38174927199998], [26.54645914300005, -18.381879281999886], [26.546255149000046, -18.38207529799996], [26.546118153000066, -18.382205307999868], [26.546051155000043, -18.38233731799994], [26.54598315700008, -18.382466327999964], [26.545916159000058, -18.38259633799987], [26.545779163000077, -18.382728348999876], [26.545712165000054, -18.3828573589999], [26.545643167000037, -18.38298736899992], [26.545643167000037, -18.383119378999936], [26.545576169000185, -18.383248388999846], [26.54550817100005, -18.383380399999908], [26.54544117300003, -18.383445404999975], [26.545441174000132, -18.383575414999882], [26.545372176000058, -18.38363941999995], [26.544977193000022, -18.38878781899996], [26.544977193000022, -18.38902153799995], [26.544977193000022, -18.389178848999904], [26.544979194000064, -18.389308858999982], [26.544911196000157, -18.389438868999832], [26.544842198000083, -18.389634884999964], [26.544707202000154, -18.38982989999994], [26.544640204000075, -18.390090919999977], [26.544504208000035, -18.39028693599994], [26.544504208000035, -18.39048195099997], [26.54436921200005, -18.39067796599994], [26.544300215000135, -18.390872980999916], [26.544300215000135, -18.391002990999937], [26.544234217000167, -18.391134000999955], [26.54416521900015, -18.391264011999965], [26.544030223000163, -18.391460026999823], [26.543961225000146, -18.391655041999968], [26.543894227000123, -18.391852056999937], [26.54382522900005, -18.39198106699996], [26.543759231000138, -18.392113077999852], [26.54369023300012, -18.39224308799993], [26.54362323500004, -18.392372097999953], [26.543555237000135, -18.392569112999922], [26.54348824000016, -18.3927631279999], [26.54341924200014, -18.392895138999904], [26.543351244, -18.393025148999982], [26.543284246000155, -18.393221163999954], [26.543284246000155, -18.39354518899995], [26.54328624600015, -18.393742203999977], [26.543286247000083, -18.393871213999944], [26.543217249000065, -18.393936219999887], [26.543219249, -18.39419823999998], [26.543219249, -18.39432724999989], [26.543219249, -18.39445725999991], [26.543288247000078, -18.394589269999926], [26.543288248000124, -18.39478328499996], [26.543288248000124, -18.39498029999993], [26.543289248000065, -18.39537133099998], [26.54328924900011, -18.39563035099991], [26.543291249000106, -18.39608638599998], [26.543291249000106, -18.39628240099995], [26.543293250000033, -18.396477415999982], [26.54322525200007, -18.39660842599983], [26.54322525200007, -18.396738435999907], [26.543158254000048, -18.396933451999814], [26.543158254000048, -18.39719447199991], [26.543091256000025, -18.397389486999884], [26.543022259000054, -18.39765050699998], [26.54302425900005, -18.397911527999895], [26.542956261000143, -18.398041537999916], [26.542956261000143, -18.398237552999888], [26.542889263000063, -18.398432567999862], [26.542889264000166, -18.398693587999958], [26.542822266000144, -18.398888602999932], [26.54275426800018, -18.39914962399996], [26.542687270000158, -18.399344638999935], [26.54261827200014, -18.399605658999917], [26.542551275000164, -18.399866678999956], [26.542483277000088, -18.40006169499992], [26.54234728100016, -18.400322714999845], [26.54228028300014, -18.400517729999876], [26.542212285, -18.400648739999895], [26.542145287000153, -18.400843755999972], [26.542076289000136, -18.401039770999944], [26.542076290000068, -18.401234785999975], [26.541941294000083, -18.40162581599992], [26.54187429600006, -18.40188683699995], [26.54180729799998, -18.40221286199983], [26.541672303000098, -18.402603891999945], [26.541672303000098, -18.4026688969999], [26.54160330500008, -18.402865912999857], [26.541605305000076, -18.403124932999958], [26.541674303000093, -18.40332094799993], [26.541743302000043, -18.403645972999982], [26.541880298000024, -18.403906992999907], [26.541880298000024, -18.403971997999975], [26.537661422000156, -18.40820633099986], [26.537592424000138, -18.40820633099986], [26.537525426000116, -18.40820633099986], [26.537457428000153, -18.40820633099986], [26.537388430000135, -18.408271335999927], [26.537319432000118, -18.408271335999927], [26.53725343400015, -18.408338340999933], [26.53725343400015, -18.408403345999886], [26.537115438000114, -18.40853235599991], [26.537049440000146, -18.408664366999915], [26.53691144400011, -18.408729371999982], [26.536845446000143, -18.40885838199989], [26.536707450000108, -18.408990391999964], [26.536572454000122, -18.409120401999814], [26.536503456000105, -18.40924941299994], [26.536436458000082, -18.4093814229999], [26.536301462000097, -18.409576437999874], [26.53623246400008, -18.409707447999892], [26.536164466000116, -18.409902462999867], [26.536097468000094, -18.410098478999828], [26.536028470000076, -18.410293493999973], [26.535961472, -18.410424503999877], [26.5359614730001, -18.410880538999947], [26.535963473000095, -18.411204563999945], [26.535963474000027, -18.411531589999925], [26.53603447200004, -18.41179260999985], [26.536103471000104, -18.41205162999995], [26.536171469000067, -18.412313649999874], [26.5363094650001, -18.412572669999975], [26.536377464000168, -18.412768684999946], [26.536515460000032, -18.41309370999994], [26.536583459000042, -18.41328972499997], [26.53665245700006, -18.41354974499984], [26.536721455000077, -18.413680754999916], [26.536721455000077, -18.413810764999937], [26.536721455000077, -18.41387576999989], [26.536654457000054, -18.414004779999914], [26.536654458000157, -18.414071785999965], [26.536516462000122, -18.41426680099994], [26.536381466000137, -18.414397810999844], [26.536177472000134, -18.414657831999932], [26.53597347800013, -18.414983856999925], [26.535702486000105, -18.415309882999964], [26.5354984920001, -18.41557090299989], [26.53536149600012, -18.415832922999925], [26.535225500000024, -18.41602693899989], [26.535090504000095, -18.41622395399986], [26.53495450800017, -18.41654997899991], [26.534819512000013, -18.416811], [26.53468451700013, -18.417135024999936], [26.534546521000095, -18.417332039999962], [26.53441152500011, -18.417658065999944], [26.53427552900007, -18.41785308099992], [26.534140533000084, -18.418049095999947], [26.534003537000103, -18.418310116999976], [26.5337995430001, -18.418440126999883], [26.53366354700006, -18.4185721369999], [26.533528551000074, -18.418701146999922], [26.533255559000054, -18.418833157999927], [26.533049565000056, -18.418963167999948], [26.53277857300003, -18.419159183999966], [26.532437582000114, -18.419289193999816], [26.532095592000076, -18.41942020499988], [26.531754602000092, -18.419485209999948], [26.531346612999982, -18.419617220999953], [26.530390640000064, -18.41968422699989], [26.529982652000058, -18.419750232999945], [26.529640661000087, -18.419750232999945], [26.529299671000103, -18.419750232999945], [26.529026679000083, -18.419750233999935], [26.528481694, -18.41975223399993], [26.52827570000005, -18.419817239999873], [26.528002707999974, -18.419884244999935], [26.527798713000095, -18.420014254999955], [26.527594719000092, -18.420145265999963], [26.52739072500009, -18.42027527599987], [26.52711773300007, -18.42047129199983], [26.526913739000065, -18.42060130199991], [26.526640747000044, -18.420733311999925], [26.52650575100006, -18.420862322999938], [26.526301757000056, -18.421059337999907], [26.52616376100019, -18.421189347999928], [26.526028765000035, -18.421385363999946], [26.525824771000032, -18.42158037899992], [26.52568777500005, -18.421711388999938], [26.525482781000107, -18.42184139899996], [26.525449130000084, -18.42189026099993], [26.52117631400006, -18.385498399999847], [26.520818727000062, -18.382452172999933], [26.516043228000058, -18.382114322999882], [26.517429658000026, -18.37429954499987], [26.50753707000007, -18.37394844399995], [26.508337572000016, -18.36388041899994], [26.508262051000088, -18.36373520399991], [26.50828035500018, -18.363727985999958], [26.518120353000086, -18.35984743499995], [26.50801148000005, -18.345813780999833], [26.5069881820001, -18.345811136999885], [26.50580975500003, -18.344970401999944]]]]}}, {"type": "Feature", "properties": {"GID_3": "ZWE.8.4.14_2", "GID_0": "ZWE", "COUNTRY": "Zimbabwe", "GID_1": "ZWE.8_1", "NAME_1": "Matabeleland North", "NL_NAME_1": "NA", "GID_2": "ZWE.8.4_2", "NAME_2": "Hwange Urban", "NL_NAME_2": "NA", "NAME_3": "Ward 8", "VARNAME_3": "NA", "NL_NAME_3": "NA", "TYPE_3": "Ward", "ENGTYPE_3": "Ward", "CC_3": "NA", "HASC_3": "NA", "id": "ZWE.8.4.14_2", "name": "Ward 8"}, "geometry": {"type": "MultiPolygon", "coordinates": [[[[26.49976622500003, -18.345420401999945], [26.50239319600007, -18.34584561399987], [26.50442549600018, -18.345527567999966], [26.50580975500003, -18.344970401999944], [26.5069881820001, -18.345811136999885], [26.50801148000005, -18.345813780999833], [26.518120353000086, -18.35984743499995], [26.50828035500018, -18.363727985999958], [26.508176998000067, -18.36365354299994], [26.50501268300019, -18.366740087999972], [26.49673011800013, -18.370138876999874], [26.49101066100019, -18.37191536099988], [26.483421052000097, -18.37156915399993], [26.48160678800008, -18.369879629999843], [26.480614373000094, -18.368955426999946], [26.480732208000177, -18.36340678799985], [26.481667538000124, -18.363444004999906], [26.481852196000148, -18.35872096299994], [26.48168843800005, -18.35644018499994], [26.482719069000154, -18.353999771999895], [26.482223899000076, -18.348460471999886], [26.482235543000115, -18.344551357999933], [26.48117840900005, -18.339009437999948], [26.485636644000067, -18.34198261599994], [26.490373727000076, -18.342911470999923], [26.499009119000107, -18.34529784699987], [26.49976622500003, -18.345420401999945]]]]}}, {"type": "Feature", "properties": {"GID_3": "ZWE.8.4.15_2", "GID_0": "ZWE", "COUNTRY": "Zimbabwe", "GID_1": "ZWE.8_1", "NAME_1": "Matabeleland North", "NL_NAME_1": "NA", "GID_2": "ZWE.8.4_2", "NAME_2": "Hwange Urban", "NL_NAME_2": "NA", "NAME_3": "Ward 9", "VARNAME_3": "NA", "NL_NAME_3": "NA", "TYPE_3": "Ward", "ENGTYPE_3": "Ward", "CC_3": "NA", "HASC_3": "NA", "id": "ZWE.8.4.15_2", "name": "Ward 9"}, "geometry": {"type": "MultiPolygon", "coordinates": [[[[26.43806378400012, -18.336360852999917], [26.440013456000145, -18.335548073999973], [26.441368827000076, -18.33517482099984], [26.44464119900016, -18.335238269999934], [26.450307401000032, -18.33493134899993], [26.45702664100014, -18.33338779299993], [26.45840628200017, -18.333203551999873], [26.45860714900016, -18.333176726999966], [26.460188489000075, -18.33269620099992], [26.46188199900007, -18.332431536999877], [26.463348067000027, -18.331893345999845], [26.465153747000045, -18.331844527999976], [26.46865110800013, -18.332123753999895], [26.470681168000056, -18.332506629999955], [26.473216595000167, -18.33369923099997], [26.48117840900005, -18.339009437999948], [26.482235543000115, -18.344551357999933], [26.482223899000076, -18.348460471999886], [26.482719069000154, -18.353999771999895], [26.48168843800005, -18.35644018499994], [26.481852196000148, -18.35872096299994], [26.481667538000124, -18.363444004999906], [26.480732208000177, -18.36340678799985], [26.48029921700015, -18.36337956799997], [26.47402893900005, -18.362985277999883], [26.434688516000108, -18.360506713999882], [26.43478478300017, -18.35630679199994], [26.433942606000187, -18.353046692999897], [26.434632244000056, -18.350768420999884], [26.437538492000158, -18.348659580999936], [26.43737637700019, -18.346053020999932], [26.44183468000017, -18.33857363599992], [26.439793437000162, -18.336938845999953], [26.43806378400012, -18.336360852999917]]]]}}]}