{"type": "FeatureCollection", "features": [{"type": "Feature", "properties": {"GID_3": "ZWE.7.3.1_2", "GID_0": "ZWE", "COUNTRY": "Zimbabwe", "GID_1": "ZWE.7_1", "NAME_1": "Masvingo", "NL_NAME_1": "NA", "GID_2": "ZWE.7.3_2", "NAME_2": "Chiredzi Urban", "NL_NAME_2": "NA", "NAME_3": "Ward 1", "VARNAME_3": "NA", "NL_NAME_3": "NA", "TYPE_3": "Ward", "ENGTYPE_3": "Ward", "CC_3": "NA", "HASC_3": "NA", "id": "ZWE.7.3.1_2", "name": "Ward 1"}, "geometry": {"type": "MultiPolygon", "coordinates": [[[[31.68388370800011, -21.042786817999968], [31.6780735320001, -21.04943733499988], [31.672028080000075, -21.056149086999937], [31.66934291700005, -21.05912991999992], [31.66418474200003, -21.05487872599997], [31.664048715000035, -21.05476739699992], [31.66561981700005, -21.05383285099998], [31.6648417130001, -21.052546103999816], [31.66563010699997, -21.05184217099992], [31.667839904000118, -21.051623375999952], [31.669238184000164, -21.050622766999936], [31.670401058000095, -21.049199577999957], [31.670481915000153, -21.048113725999883], [31.67119461500016, -21.04805244099998], [31.670893011000032, -21.04592665399997], [31.668522469000038, -21.046225680999896], [31.668490579000036, -21.04580755199993], [31.66762346600018, -21.045215724999935], [31.668236571000193, -21.04419683099991], [31.6670311150001, -21.043758523999884], [31.66741507100005, -21.042624905999958], [31.667317181000158, -21.041621228999873], [31.668047652000098, -21.041560094999966], [31.669919521000168, -21.041273883999907], [31.670212211000035, -21.038469688999953], [31.67014323000012, -21.038218421999943], [31.67441958500018, -21.037800518999916], [31.680557033000127, -21.041063880999957], [31.68388370800011, -21.042786817999968]]]]}}, {"type": "Feature", "properties": {"GID_3": "ZWE.7.3.2_2", "GID_0": "ZWE", "COUNTRY": "Zimbabwe", "GID_1": "ZWE.7_1", "NAME_1": "Masvingo", "NL_NAME_1": "NA", "GID_2": "ZWE.7.3_2", "NAME_2": "Chiredzi Urban", "NL_NAME_2": "NA", "NAME_3": "Ward 2", "VARNAME_3": "NA", "NL_NAME_3": "NA", "TYPE_3": "Ward", "ENGTYPE_3": "Ward", "CC_3": "NA", "HASC_3": "NA", "id": "ZWE.7.3.2_2", "name": "Ward 2"}, "geometry": {"type": "MultiPolygon", "coordinates": [[[[31.67441958500018, -21.037800518999916], [31.67014323000012, -21.038218421999943], [31.670212211000035, -21.038469688999953], [31.669919521000168, -21.041273883999907], [31.668047652000098, -21.041560094999966], [31.667317181000158, -21.041621228999873], [31.66741507100005, -21.042624905999958], [31.6670311150001, -21.043758523999884], [31.668236571000193, -21.04419683099991], [31.66762346600018, -21.045215724999935], [31.668490579000036, -21.04580755199993], [31.668522469000038, -21.046225680999896], [31.670893011000032, -21.04592665399997], [31.67119461500016, -21.04805244099998], [31.670481915000153, -21.048113725999883], [31.670401058000095, -21.049199577999957], [31.669238184000164, -21.050622766999936], [31.667839904000118, -21.051623375999952], [31.66563010699997, -21.05184217099992], [31.6648417130001, -21.052546103999816], [31.66561981700005, -21.05383285099998], [31.664048715000035, -21.05476739699992], [31.663164430000165, -21.054043662999902], [31.66249025200017, -21.0534918809999], [31.661830339000176, -21.05295176899989], [31.657337899000083, -21.049274716999946], [31.657206779999967, -21.049192949999906], [31.63928714000002, -21.035638245999905], [31.624682193000183, -21.029547930999968], [31.624722212, -21.029539628999885], [31.667730422000147, -21.020611019999933], [31.66952731300006, -21.03436911199998], [31.669791469000018, -21.034382866999977], [31.671681534000186, -21.034352528999932], [31.672874205000028, -21.034361844999978], [31.67442038300004, -21.034658067999885], [31.675418911000065, -21.035135619999892], [31.6758741430001, -21.035372809999956], [31.67441958500018, -21.037800518999916]]]]}}, {"type": "Feature", "properties": {"GID_3": "ZWE.7.3.3_2", "GID_0": "ZWE", "COUNTRY": "Zimbabwe", "GID_1": "ZWE.7_1", "NAME_1": "Masvingo", "NL_NAME_1": "NA", "GID_2": "ZWE.7.3_2", "NAME_2": "Chiredzi Urban", "NL_NAME_2": "NA", "NAME_3": "Ward 3", "VARNAME_3": "NA", "NL_NAME_3": "NA", "TYPE_3": "Ward", "ENGTYPE_3": "Ward", "CC_3": "NA", "HASC_3": "NA", "id": "ZWE.7.3.3_2", "name": "Ward 3"}, "geometry": {"type": "MultiPolygon", "coordinates": [[[[31.68388370800011, -21.042786817999968], [31.680557033000127, -21.041063880999957], [31.67441958500018, -21.037800518999916], [31.6758741430001, -21.035372809999956], [31.67761719000015, -21.036315828999932], [31.68063281899998, -21.037949155999968], [31.682059723000123, -21.0356200949999], [31.683705074000102, -21.034763651999924], [31.687855515000024, -21.037169720999884], [31.68687955700011, -21.039461979999942], [31.68388370800011, -21.042786817999968]]]]}}, {"type": "Feature", "properties": {"GID_3": "ZWE.7.3.4_2", "GID_0": "ZWE", "COUNTRY": "Zimbabwe", "GID_1": "ZWE.7_1", "NAME_1": "Masvingo", "NL_NAME_1": "NA", "GID_2": "ZWE.7.3_2", "NAME_2": "Chiredzi Urban", "NL_NAME_2": "NA", "NAME_3": "Ward 4", "VARNAME_3": "NA", "NL_NAME_3": "NA", "TYPE_3": "Ward", "ENGTYPE_3": "Ward", "CC_3": "NA", "HASC_3": "NA", "id": "ZWE.7.3.4_2", "name": "Ward 4"}, "geometry": {"type": "MultiPolygon", "coordinates": [[[[31.687855515000024, -21.037169720999884], [31.683705074000102, -21.034763651999924], [31.682059723000123, -21.0356200949999], [31.68063281899998, -21.037949155999968], [31.67761719000015, -21.036315828999932], [31.67876327500005, -21.03455206399991], [31.68068831800008, -21.031248441999878], [31.684745329000123, -21.03348629199985], [31.686685490000116, -21.030308676999937], [31.689928001999988, -21.03179332299993], [31.68812352000009, -21.03654023799993], [31.687855515000024, -21.037169720999884]]]]}}, {"type": "Feature", "properties": {"GID_3": "ZWE.7.3.5_2", "GID_0": "ZWE", "COUNTRY": "Zimbabwe", "GID_1": "ZWE.7_1", "NAME_1": "Masvingo", "NL_NAME_1": "NA", "GID_2": "ZWE.7.3_2", "NAME_2": "Chiredzi Urban", "NL_NAME_2": "NA", "NAME_3": "Ward 5", "VARNAME_3": "NA", "NL_NAME_3": "NA", "TYPE_3": "Ward", "ENGTYPE_3": "Ward", "CC_3": "NA", "HASC_3": "NA", "id": "ZWE.7.3.5_2", "name": "Ward 5"}, "geometry": {"type": "MultiPolygon", "coordinates": [[[[31.6758741430001, -21.035372809999956], [31.675418911000065, -21.035135619999892], [31.67442038300004, -21.034658067999885], [31.672874205000028, -21.034361844999978], [31.671681534000186, -21.034352528999932], [31.669791469000018, -21.034382866999977], [31.66952731300006, -21.03436911199998], [31.667730422000147, -21.020611019999933], [31.6744219900001, -21.019220746999906], [31.67597011200013, -21.026605117999907], [31.678776131, -21.025779243999978], [31.67922287300007, -21.026926654999954], [31.68013274000009, -21.027362696999887], [31.681887669000105, -21.026947333999885], [31.68326883600008, -21.027617732999943], [31.68068831800008, -21.031248441999878], [31.67876327500005, -21.03455206399991], [31.67761719000015, -21.036315828999932], [31.6758741430001, -21.035372809999956]]]]}}, {"type": "Feature", "properties": {"GID_3": "ZWE.7.3.6_2", "GID_0": "ZWE", "COUNTRY": "Zimbabwe", "GID_1": "ZWE.7_1", "NAME_1": "Masvingo", "NL_NAME_1": "NA", "GID_2": "ZWE.7.3_2", "NAME_2": "Chiredzi Urban", "NL_NAME_2": "NA", "NAME_3": "Ward 6", "VARNAME_3": "NA", "NL_NAME_3": "NA", "TYPE_3": "Ward", "ENGTYPE_3": "Ward", "CC_3": "NA", "HASC_3": "NA", "id": "ZWE.7.3.6_2", "name": "Ward 6"}, "geometry": {"type": "MultiPolygon", "coordinates": [[[[31.686685490000116, -21.030308676999937], [31.684745329000123, -21.03348629199985], [31.68068831800008, -21.031248441999878], [31.68326883600008, -21.027617732999943], [31.684900605000166, -21.02510614199997], [31.68889354300012, -21.02685850799992], [31.686703730000033, -21.030258671999945], [31.686685490000116, -21.030308676999937]]]]}}, {"type": "Feature", "properties": {"GID_3": "ZWE.7.3.7_2", "GID_0": "ZWE", "COUNTRY": "Zimbabwe", "GID_1": "ZWE.7_1", "NAME_1": "Masvingo", "NL_NAME_1": "NA", "GID_2": "ZWE.7.3_2", "NAME_2": "Chiredzi Urban", "NL_NAME_2": "NA", "NAME_3": "Ward 7", "VARNAME_3": "NA", "NL_NAME_3": "NA", "TYPE_3": "Ward", "ENGTYPE_3": "Ward", "CC_3": "NA", "HASC_3": "NA", "id": "ZWE.7.3.7_2", "name": "Ward 7"}, "geometry": {"type": "MultiPolygon", "coordinates": [[[[31.68326883600008, -21.027617732999943], [31.681887669000105, -21.026947333999885], [31.68013274000009, -21.027362696999887], [31.67922287300007, -21.026926654999954], [31.678776131, -21.025779243999978], [31.67597011200013, -21.026605117999907], [31.6744219900001, -21.019220746999906], [31.68447993400008, -21.017130506999877], [31.68566382700004, -21.021792989999938], [31.685336097000118, -21.02443582299992], [31.684900605000166, -21.02510614199997], [31.68326883600008, -21.027617732999943]]]]}}, {"type": "Feature", "properties": {"GID_3": "ZWE.7.3.8_2", "GID_0": "ZWE", "COUNTRY": "Zimbabwe", "GID_1": "ZWE.7_1", "NAME_1": "Masvingo", "NL_NAME_1": "NA", "GID_2": "ZWE.7.3_2", "NAME_2": "Chiredzi Urban", "NL_NAME_2": "NA", "NAME_3": "Ward 8", "VARNAME_3": "NA", "NL_NAME_3": "NA", "TYPE_3": "Ward", "ENGTYPE_3": "Ward", "CC_3": "NA", "HASC_3": "NA", "id": "ZWE.7.3.8_2", "name": "Ward 8"}, "geometry": {"type": "MultiPolygon", "coordinates": [[[[31.689928001999988, -21.03179332299993], [31.686685490000116, -21.030308676999937], [31.686703730000033, -21.030258671999945], [31.68889354300012, -21.02685850799992], [31.684900605000166, -21.02510614199997], [31.685336097000118, -21.02443582299992], [31.68566382700004, -21.021792989999938], [31.68447993400008, -21.017130506999877], [31.684656814000164, -21.01709374199993], [31.708222494000097, -21.012193710999952], [31.743641028000184, -21.00482227899988], [31.744965006000086, -21.00446172099987], [31.746323502000052, -21.006539083999826], [31.74723741700012, -21.007936574999974], [31.74805656400008, -21.009632921999923], [31.747832029000108, -21.011260148999895], [31.747073371, -21.011449967999965], [31.73244035200014, -21.014710796999964], [31.710916944000076, -21.023130232999904], [31.69598065200006, -21.02458928099992], [31.69266687100003, -21.02737727899995], [31.689928001999988, -21.03179332299993]]]]}}]}