{"type": "FeatureCollection", "features": [{"type": "Feature", "properties": {"GID_3": "ZWE.6.3.1_2", "GID_0": "ZWE", "COUNTRY": "Zimbabwe", "GID_1": "ZWE.6_1", "NAME_1": "Mashonaland West", "NL_NAME_1": "NA", "GID_2": "ZWE.6.3_2", "NAME_2": "Chinhoyi", "NL_NAME_2": "NA", "NAME_3": "Ward 1", "VARNAME_3": "NA", "NL_NAME_3": "NA", "TYPE_3": "Ward", "ENGTYPE_3": "Ward", "CC_3": "NA", "HASC_3": "NA", "id": "ZWE.6.3.1_2", "name": "Ward 1"}, "geometry": {"type": "MultiPolygon", "coordinates": [[[[30.195032641000182, -17.37022024499987], [30.193519387000038, -17.372332488999973], [30.19360038500014, -17.373959157999877], [30.192396474000077, -17.376020921999952], [30.190331174000107, -17.378038612999944], [30.188723785000036, -17.378782319999914], [30.175096758999985, -17.367041426999947], [30.176699299000063, -17.365390116999947], [30.17947402699997, -17.363803806999954], [30.181478855000137, -17.364136890999873], [30.183897430000115, -17.36508535999991], [30.183306206000054, -17.36591431499994], [30.18933053700016, -17.363316990999976], [30.195032641000182, -17.37022024499987]]]]}}, {"type": "Feature", "properties": {"GID_3": "ZWE.6.3.2_2", "GID_0": "ZWE", "COUNTRY": "Zimbabwe", "GID_1": "ZWE.6_1", "NAME_1": "Mashonaland West", "NL_NAME_1": "NA", "GID_2": "ZWE.6.3_2", "NAME_2": "Chinhoyi", "NL_NAME_2": "NA", "NAME_3": "Ward 10", "VARNAME_3": "NA", "NL_NAME_3": "NA", "TYPE_3": "Ward", "ENGTYPE_3": "Ward", "CC_3": "NA", "HASC_3": "NA", "id": "ZWE.6.3.2_2", "name": "Ward 10"}, "geometry": {"type": "MultiPolygon", "coordinates": [[[[30.195032641000182, -17.37022024499987], [30.18933053700016, -17.363316990999976], [30.183306206000054, -17.36591431499994], [30.183897430000115, -17.36508535999991], [30.181478855000137, -17.364136890999873], [30.17947402699997, -17.363803806999954], [30.176699299000063, -17.365390116999947], [30.175096758999985, -17.367041426999947], [30.16648579300005, -17.358416125999952], [30.169211974000063, -17.35774361299997], [30.181487752000066, -17.357409185999927], [30.186435178000124, -17.359002842999928], [30.201051811000127, -17.35778580099992], [30.20478734400018, -17.355602971999872], [30.206583728000112, -17.355729687999883], [30.207190321000155, -17.35603165899994], [30.204548306000106, -17.356638164999936], [30.200375813000107, -17.35972923099996], [30.19886889600008, -17.36143524199997], [30.19926261100005, -17.36337108799995], [30.199107428000048, -17.366619985999876], [30.197062325000047, -17.368928], [30.196695562000173, -17.36916151099996], [30.195032641000182, -17.37022024499987]]]]}}, {"type": "Feature", "properties": {"GID_3": "ZWE.6.3.3_2", "GID_0": "ZWE", "COUNTRY": "Zimbabwe", "GID_1": "ZWE.6_1", "NAME_1": "Mashonaland West", "NL_NAME_1": "NA", "GID_2": "ZWE.6.3_2", "NAME_2": "Chinhoyi", "NL_NAME_2": "NA", "NAME_3": "Ward 11", "VARNAME_3": "NA", "NL_NAME_3": "NA", "TYPE_3": "Ward", "ENGTYPE_3": "Ward", "CC_3": "NA", "HASC_3": "NA", "id": "ZWE.6.3.3_2", "name": "Ward 11"}, "geometry": {"type": "MultiPolygon", "coordinates": [[[[30.207190321000155, -17.35603165899994], [30.206583728000112, -17.355729687999883], [30.20478734400018, -17.355602971999872], [30.201051811000127, -17.35778580099992], [30.186435178000124, -17.359002842999928], [30.181487752000066, -17.357409185999927], [30.169211974000063, -17.35774361299997], [30.16648579300005, -17.358416125999952], [30.147233987000163, -17.36214912299988], [30.160781380000117, -17.354113078999887], [30.149316385000134, -17.343079450999937], [30.165681185000096, -17.325148462999834], [30.176827327000183, -17.322461355999963], [30.19285252500009, -17.304907443999923], [30.233961623000084, -17.311500693999903], [30.233923624000056, -17.311689707999847], [30.233778628000152, -17.31168970899995], [30.233635632000016, -17.311691708999945], [30.233492636000108, -17.311970730999917], [30.23105870600017, -17.314758951999977], [30.231060706000164, -17.31503797299996], [30.23106270600016, -17.31531399499994], [30.231064706000097, -17.315453005999927], [30.23092171100012, -17.315730027999905], [30.230923711000116, -17.316008049999937], [30.23078071500015, -17.31614806099998], [30.23063771900007, -17.316426082999953], [30.2304967230001, -17.31670510499987], [30.230353727000193, -17.316983126999958], [30.23006673600014, -17.31726214899993], [30.22992374000006, -17.317540170999962], [30.229492752000112, -17.317820192999932], [30.229206760000068, -17.31823822599995], [30.228775773000166, -17.318518248999965], [30.228632777000087, -17.318797270999937], [30.228348785000037, -17.319215303999897], [30.228350785000032, -17.319630335999875], [30.22820978900006, -17.31990935799996], [30.228066793000153, -17.320187379999936], [30.227925798000115, -17.3206034129999], [30.22778380200009, -17.321021445999975], [30.22764080600018, -17.321439478999878], [30.227354814000137, -17.321717500999966], [30.227211819000104, -17.321996522999882], [30.227070823000133, -17.322411555999963], [30.22692982700005, -17.322690577999936], [30.226786831000084, -17.322968599999967], [30.22678883100008, -17.32324762199994], [30.22664583500017, -17.32338663299987], [30.22664583500017, -17.323523643999863], [30.22650483900003, -17.32380266599995], [30.226216848000092, -17.323943676999875], [30.225929856000164, -17.324221698999963], [30.225498868000045, -17.324502720999874], [30.225067880000097, -17.324782742999957], [30.22477988900016, -17.324923754999872], [30.224636893000024, -17.325063765999914], [30.22449189700012, -17.32506576599991], [30.22449189700012, -17.32520277699996], [30.224348900999985, -17.325204776999954], [30.22420390500008, -17.325204776999954], [30.223625921000064, -17.325208777999933], [30.223337929000024, -17.32520977799993], [30.22290494100008, -17.32521377899991], [30.222616950000145, -17.32535378999995], [30.222328958000105, -17.32535478999995], [30.222185962000026, -17.325496800999872], [30.221895970000162, -17.32549780099987], [30.22160797800018, -17.3256378129999], [30.22131998600014, -17.325639812999896], [30.22117699, -17.32577882399994], [30.221033994000095, -17.32591983499998], [30.22074600300016, -17.326197856999954], [30.220605007000017, -17.32647687899987], [30.22046201100011, -17.32675490099996], [30.220176019000064, -17.32717293399992], [30.22017801900006, -17.327449955999896], [30.220180019000054, -17.327727977999928], [30.22018201900005, -17.328005], [30.220187020000026, -17.32883606499996], [30.21678112000012, -17.337040711999975], [30.216638124000156, -17.33731873399995], [30.21664012400015, -17.337458744999935], [30.216642125000078, -17.337734766999915], [30.216497129000118, -17.33773676699991], [30.216499129000113, -17.33787377799996], [30.216356133000033, -17.338152799999875], [30.216213137000068, -17.338430821999964], [30.216071141000043, -17.338709843999936], [30.21593014500013, -17.3391268769999], [30.215787150000097, -17.339403898999933], [30.21578915000009, -17.339682920999905], [30.215791150000086, -17.33995894199984], [30.215791150000086, -17.340097952999884], [30.21579315000008, -17.340374974999975], [30.215795150000076, -17.34065299699995], [30.215942146000145, -17.34093001899987], [30.215945146000024, -17.341483061999895], [30.21623913800005, -17.34203610599991], [30.216386134000118, -17.342452137999885], [30.216676127000028, -17.34272715999998], [30.216823123000097, -17.34314219199996], [30.216825123000092, -17.34341921399988], [30.216827123000087, -17.343558224999924], [30.216974119000156, -17.343835246999845], [30.216975119000097, -17.34411126799995], [30.21697711900009, -17.34439028999992], [30.21697911900003, -17.344806322999887], [30.216981119000025, -17.34508234499998], [30.21684012300011, -17.345361366999896], [30.216697128000078, -17.34577839999986], [30.216556132000164, -17.34605542199995], [30.216268140000125, -17.34633544399992], [30.216127144000154, -17.34661446599995], [30.215984148000075, -17.34675347699988], [30.215696156000035, -17.34689448799992], [30.214547189000086, -17.347871564999934], [30.214402193000183, -17.34787356599992], [30.21425719700011, -17.34787356599992], [30.214114202000076, -17.348014576999958], [30.213826210000036, -17.348153587999832], [30.213683214000127, -17.348292598999876], [30.213685214000122, -17.348432609999975], [30.213685214000122, -17.348571620999962], [30.21368721400006, -17.348847642999942], [30.213689214000055, -17.34912666499997], [30.21369121400005, -17.349402685999962], [30.213693214000045, -17.349542696999833], [30.213693214000045, -17.349679707999883], [30.213987206000013, -17.350232750999908], [30.214132202000144, -17.350369761999957], [30.21413220300002, -17.35050977299983], [30.21442219400012, -17.350646783999878], [30.21456619000014, -17.350783794999927], [30.21471318600004, -17.350921804999814], [30.214858183000047, -17.351197826999908], [30.215150175000076, -17.35147484899983], [30.21529517100015, -17.35161185899989], [30.21544216700005, -17.35202589199986], [30.21573415900008, -17.35230291299996], [30.21631414300009, -17.352714944999946], [30.2164878210001, -17.352961463999975], [30.214741591000177, -17.355741965999925], [30.212715236000122, -17.356831279999824], [30.21100569099997, -17.357112215999962], [30.209651371, -17.356963018999977], [30.20889353900003, -17.3568795299999], [30.207190321000155, -17.35603165899994]]]]}}, {"type": "Feature", "properties": {"GID_3": "ZWE.6.3.4_2", "GID_0": "ZWE", "COUNTRY": "Zimbabwe", "GID_1": "ZWE.6_1", "NAME_1": "Mashonaland West", "NL_NAME_1": "NA", "GID_2": "ZWE.6.3_2", "NAME_2": "Chinhoyi", "NL_NAME_2": "NA", "NAME_3": "Ward 12", "VARNAME_3": "NA", "NL_NAME_3": "NA", "TYPE_3": "Ward", "ENGTYPE_3": "Ward", "CC_3": "NA", "HASC_3": "NA", "id": "ZWE.6.3.4_2", "name": "Ward 12"}, "geometry": {"type": "MultiPolygon", "coordinates": [[[[30.188723785000036, -17.378782319999914], [30.190331174000107, -17.378038612999944], [30.192396474000077, -17.376020921999952], [30.19582003000005, -17.376428645999965], [30.196425430000033, -17.37835657199986], [30.19550805200015, -17.383017084999892], [30.195708766000052, -17.383731075999833], [30.204911269000036, -17.38386019199993], [30.20632183000015, -17.381543226999895], [30.20721581300012, -17.378406247999976], [30.212159822, -17.380315372999917], [30.212553690999982, -17.382251215999872], [30.211777859000108, -17.384577103999845], [30.20887564500015, -17.38758442699998], [30.207665821000035, -17.390615392999962], [30.20770771700012, -17.39092966499993], [30.204163922000134, -17.391266248999955], [30.202984889000163, -17.39226568099997], [30.202620469000067, -17.38839991699996], [30.202096211000026, -17.388087776999953], [30.194791322000185, -17.388391577999982], [30.19465443000007, -17.38828994799991], [30.191025194000133, -17.385595510999906], [30.18944292600014, -17.38562948499998], [30.188167691000046, -17.3856568569999], [30.18755166800014, -17.384429032999947], [30.187027451000063, -17.38411685899996], [30.18643537800017, -17.38284558999993], [30.188723785000036, -17.378782319999914]]]]}}, {"type": "Feature", "properties": {"GID_3": "ZWE.6.3.5_2", "GID_0": "ZWE", "COUNTRY": "Zimbabwe", "GID_1": "ZWE.6_1", "NAME_1": "Mashonaland West", "NL_NAME_1": "NA", "GID_2": "ZWE.6.3_2", "NAME_2": "Chinhoyi", "NL_NAME_2": "NA", "NAME_3": "Ward 13", "VARNAME_3": "NA", "NL_NAME_3": "NA", "TYPE_3": "Ward", "ENGTYPE_3": "Ward", "CC_3": "NA", "HASC_3": "NA", "id": "ZWE.6.3.5_2", "name": "Ward 13"}, "geometry": {"type": "MultiPolygon", "coordinates": [[[[30.202984889000163, -17.39226568099997], [30.204163922000134, -17.391266248999955], [30.20770771700012, -17.39092966499993], [30.207855793000135, -17.392040402999896], [30.210407701000065, -17.39624472099996], [30.21040833400002, -17.39642138499994], [30.210267338000108, -17.396836416999975], [30.209836351000035, -17.397256450999976], [30.209119371000043, -17.397815494999975], [30.208400392000158, -17.398236528999917], [30.207824408000135, -17.398517550999884], [30.207536416000096, -17.398795572999973], [30.207393420000187, -17.39893658399984], [30.20725042400005, -17.39907659499994], [30.207252424000046, -17.399213605999932], [30.20710742900002, -17.39935461699997], [30.20696443300011, -17.399493627999902], [30.206966433000105, -17.399770649999937], [30.20682343699997, -17.40004867199991], [30.20668344100011, -17.40060371499993], [30.206397450000168, -17.401160758999936], [30.20501349400007, -17.40976743599998], [30.20516149000008, -17.41032047999994], [30.205165490000013, -17.410876523999832], [30.205314486000077, -17.411429566999914], [30.205606478000107, -17.41198260999994], [30.20589947000019, -17.41267466399995], [30.206485455000063, -17.41377875099988], [30.206777447000093, -17.414194782999914], [30.207067439000127, -17.414469804999953], [30.20721643500019, -17.41488583699993], [30.207361431000095, -17.415159858999857], [30.207652423000184, -17.41557589099989], [30.207801419000077, -17.416128934999904], [30.20795041500014, -17.41668197799993], [30.20824240700017, -17.41723602199994], [30.208390403000124, -17.417789064999965], [30.20853940000012, -17.41834410799987], [30.187788528000056, -17.403532236999922], [30.18629554300003, -17.39142537299989], [30.186295795999968, -17.391317964999814], [30.187766512000167, -17.391137335999872], [30.18987123000005, -17.39187816499998], [30.192711064000036, -17.39220073799993], [30.192934191000063, -17.392226080999876], [30.19511994200019, -17.394593527999916], [30.197545182000113, -17.395135600999936], [30.202984889000163, -17.39226568099997]]]]}}, {"type": "Feature", "properties": {"GID_3": "ZWE.6.3.6_2", "GID_0": "ZWE", "COUNTRY": "Zimbabwe", "GID_1": "ZWE.6_1", "NAME_1": "Mashonaland West", "NL_NAME_1": "NA", "GID_2": "ZWE.6.3_2", "NAME_2": "Chinhoyi", "NL_NAME_2": "NA", "NAME_3": "Ward 14", "VARNAME_3": "NA", "NL_NAME_3": "NA", "TYPE_3": "Ward", "ENGTYPE_3": "Ward", "CC_3": "NA", "HASC_3": "NA", "id": "ZWE.6.3.6_2", "name": "Ward 14"}, "geometry": {"type": "MultiPolygon", "coordinates": [[[[30.126264483000114, -17.37848934099992], [30.09217037600007, -17.39333350199996], [30.082500682999978, -17.389331960999982], [30.077143869000167, -17.400214028999926], [30.08003938400003, -17.404421527999887], [30.075980040000047, -17.41068757999983], [30.075104257000135, -17.408638461999942], [30.073843003000093, -17.40811201299988], [30.073429598000075, -17.40749642299994], [30.072248240000192, -17.408596521999925], [30.06831176100019, -17.40996085599994], [30.065328543000078, -17.40463447499991], [30.06174842700017, -17.40356587399998], [30.059580790000155, -17.400181586999906], [30.05939036799998, -17.3988581669999], [30.059173951000105, -17.399159730999827], [30.057481607000057, -17.39913476099997], [30.052974150000068, -17.39652855899982], [30.050302352000188, -17.391612977999955], [30.048220412000035, -17.38651383399997], [30.049984278000125, -17.382070187999886], [30.04968490700014, -17.380948326999885], [30.04614285800011, -17.377543632999902], [30.04288394800011, -17.376276361999942], [30.03956179500011, -17.372366914999873], [30.039269029000025, -17.370838809999896], [30.038141328999984, -17.3686090249999], [30.036249699000166, -17.361266905999912], [30.037972683000078, -17.35936236299989], [30.037610497000117, -17.356843172999902], [30.061254278000035, -17.329261857999825], [30.06128689400009, -17.329362960999845], [30.06993943800012, -17.357982697999944], [30.0926772360001, -17.371622942999977], [30.09870995700004, -17.35799622099995], [30.12578477000011, -17.354527108999946], [30.13255618300002, -17.347614588999818], [30.141054029000088, -17.356029857999943], [30.136008330000095, -17.370522664999953], [30.126264483000114, -17.37848934099992]]]]}}, {"type": "Feature", "properties": {"GID_3": "ZWE.6.3.7_2", "GID_0": "ZWE", "COUNTRY": "Zimbabwe", "GID_1": "ZWE.6_1", "NAME_1": "Mashonaland West", "NL_NAME_1": "NA", "GID_2": "ZWE.6.3_2", "NAME_2": "Chinhoyi", "NL_NAME_2": "NA", "NAME_3": "Ward 15", "VARNAME_3": "NA", "NL_NAME_3": "NA", "TYPE_3": "Ward", "ENGTYPE_3": "Ward", "CC_3": "NA", "HASC_3": "NA", "id": "ZWE.6.3.7_2", "name": "Ward 15"}, "geometry": {"type": "MultiPolygon", "coordinates": [[[[30.061254278000035, -17.329261857999825], [30.037610497000117, -17.356843172999902], [30.037592146000122, -17.356715530999907], [30.036337903000174, -17.355782672999908], [30.03572957, -17.354148302999874], [30.03447862200011, -17.353012317999855], [30.03060050300013, -17.35082147099996], [30.029058573000043, -17.348055797999905], [30.02663312100009, -17.347613397999964], [30.024936385000046, -17.34789290099991], [30.023337187000095, -17.34868175799994], [30.0228896320001, -17.35019883899986], [30.02217059100019, -17.346793586999922], [30.02217059100019, -17.346654575999878], [30.02217059100019, -17.346515564999834], [30.022168591000025, -17.346238543999903], [30.022309587000166, -17.345960521999928], [30.022309587000166, -17.345820510999943], [30.022307586000068, -17.345405477999975], [30.022305586000073, -17.345128455999884], [30.022303586000078, -17.344851433999963], [30.022301586000083, -17.34443640199993], [30.022973562000118, -17.336126747999913], [30.022973562000118, -17.335987736999982], [30.022971562000123, -17.335710714999948], [30.022969562000128, -17.335571703999904], [30.022824566000054, -17.33529568199998], [30.02282256600006, -17.334879649999948], [30.022963561000097, -17.33432460599994], [30.022955561000117, -17.33307450799998], [30.02295056000014, -17.332382452999923], [30.023093556000106, -17.331966419999958], [30.02323455200019, -17.331409375999954], [30.02337554800016, -17.330994343999976], [30.023371547000067, -17.330162277999875], [30.023510543000043, -17.32960723399998], [30.023509543000102, -17.32905219099996], [30.02365053800014, -17.32849714699995], [30.02364653799998, -17.32794210299994], [30.023638538000057, -17.32683401599985], [30.02363653700013, -17.326278972999944], [30.023488541000177, -17.325723928999935], [30.023341545000108, -17.32516988499998], [30.023339545000113, -17.324754852999945], [30.023192548999987, -17.32433881999998], [30.023043553000093, -17.323785776999955], [30.022898556000087, -17.323508754999978], [30.022749560000022, -17.322955711999953], [30.02260456400012, -17.32267868999992], [30.02245656800011, -17.322125645999904], [30.022164576000137, -17.32143359199995], [30.021727588000033, -17.320742537999877], [30.0212906000001, -17.320189494999966], [30.020854611000175, -17.319638451999936], [30.020272627000168, -17.318808386999876], [30.01969064300016, -17.317981321999923], [30.019108659000153, -17.317290267999965], [30.01867267100016, -17.316739224999935], [30.01838067900013, -17.31632319199997], [30.018090687000097, -17.315909159999933], [30.01780069500012, -17.31563513799989], [30.01765369900005, -17.31535811699996], [30.01750870300009, -17.315219105999915], [30.017363707000186, -17.31494408399982], [30.017071714999986, -17.314668062999885], [30.016781722000076, -17.314254029999915], [30.01648973099998, -17.313977008999927], [30.01620073800018, -17.313701986999888], [30.01576575000007, -17.313288954999905], [30.015185766, -17.312736911999878], [30.01460578200016, -17.312322878999908], [30.014168794000057, -17.311910846999922], [30.013735806000113, -17.31163482599993], [30.01344381400014, -17.311359803999892], [30.013154822000047, -17.311083782999958], [30.012864830000183, -17.310808760999976], [30.01271983400011, -17.310671750999973], [30.011996855000064, -17.31053573999992], [30.01199685400013, -17.310396728999876], [30.01170686300003, -17.310398729999974], [30.01156386700012, -17.31040072999997], [30.01026090300013, -17.309852686999818], [30.010115907, -17.309713676999934], [30.009970911000096, -17.30971567699993], [30.009970911000096, -17.309576665999884], [30.009825915000192, -17.309576665999884], [30.009682919000056, -17.30957866599988], [30.009537923000153, -17.30957866599988], [30.009535923000158, -17.309440654999833], [30.00939292700008, -17.309440655999936], [30.00737298400003, -17.30945265799994], [30.00699599400008, -17.309316646999946], [30.006850998000175, -17.309316646999946], [30.00661125100015, -17.309370823999927], [30.00377300500014, -17.307258745999945], [30.00390834600006, -17.3054322939999], [30.02571345900003, -17.29378041399997], [30.046575175000044, -17.28375074799993], [30.051752976000103, -17.299805995999975], [30.061254278000035, -17.329261857999825]]]]}}, {"type": "Feature", "properties": {"GID_3": "ZWE.6.3.8_2", "GID_0": "ZWE", "COUNTRY": "Zimbabwe", "GID_1": "ZWE.6_1", "NAME_1": "Mashonaland West", "NL_NAME_1": "NA", "GID_2": "ZWE.6.3_2", "NAME_2": "Chinhoyi", "NL_NAME_2": "NA", "NAME_3": "Ward 2", "VARNAME_3": "NA", "NL_NAME_3": "NA", "TYPE_3": "Ward", "ENGTYPE_3": "Ward", "CC_3": "NA", "HASC_3": "NA", "id": "ZWE.6.3.8_2", "name": "Ward 2"}, "geometry": {"type": "MultiPolygon", "coordinates": [[[[30.192396474000077, -17.376020921999952], [30.19360038500014, -17.373959157999877], [30.193519387000038, -17.372332488999973], [30.195032641000182, -17.37022024499987], [30.196695562000173, -17.36916151099996], [30.200247790000105, -17.370496627999955], [30.2025978370001, -17.36900562099993], [30.20398317500019, -17.36891869099992], [30.20405082700006, -17.370854704999886], [30.200408364000054, -17.373851550999973], [30.199785718000044, -17.374201278999863], [30.19582003000005, -17.376428645999965], [30.192396474000077, -17.376020921999952]]]]}}, {"type": "Feature", "properties": {"GID_3": "ZWE.6.3.9_2", "GID_0": "ZWE", "COUNTRY": "Zimbabwe", "GID_1": "ZWE.6_1", "NAME_1": "Mashonaland West", "NL_NAME_1": "NA", "GID_2": "ZWE.6.3_2", "NAME_2": "Chinhoyi", "NL_NAME_2": "NA", "NAME_3": "Ward 3", "VARNAME_3": "NA", "NL_NAME_3": "NA", "TYPE_3": "Ward", "ENGTYPE_3": "Ward", "CC_3": "NA", "HASC_3": "NA", "id": "ZWE.6.3.9_2", "name": "Ward 3"}, "geometry": {"type": "MultiPolygon", "coordinates": [[[[30.209651371, -17.356963018999977], [30.21100569099997, -17.357112215999962], [30.212715236000122, -17.356831279999824], [30.214741591000177, -17.355741965999925], [30.2164878210001, -17.352961463999975], [30.21660513500018, -17.353127977999918], [30.216895127000043, -17.35340299899991], [30.21689712700004, -17.35368202099994], [30.217042123000112, -17.353819031999876], [30.217044123000107, -17.354095053999913], [30.217191119000177, -17.3543720749999], [30.21719311900017, -17.354511085999945], [30.217338115000075, -17.35478810799998], [30.217483111000035, -17.354925118999915], [30.217485110999974, -17.35506412999996], [30.218066095000097, -17.355753182999877], [30.21821509100016, -17.35616921599984], [30.218217091000156, -17.356585248999977], [30.218364087000054, -17.357000280999955], [30.21836608700005, -17.35713829199989], [30.218509083000185, -17.35713829199989], [30.220878022000136, -17.36529093199988], [30.220878022000136, -17.36542794299993], [30.221025018000034, -17.365843974999905], [30.22117201400016, -17.365980985999954], [30.221174014000155, -17.36626000799987], [30.221318010000118, -17.36639701899992], [30.221610002000148, -17.3668110509999], [30.222048990000076, -17.367641115999902], [30.222338982000053, -17.367915136999954], [30.222342982000043, -17.368331169999976], [30.222487978000117, -17.36846818099997], [30.222489978000112, -17.368608191999897], [30.222489978000112, -17.36874720299994], [30.22234698300008, -17.36888621399993], [30.221297917000186, -17.37068944399988], [30.218737955999984, -17.372076166999875], [30.216381823000177, -17.37397367999995], [30.215826564000167, -17.375288024999975], [30.213205095999967, -17.37413218699993], [30.21151429200006, -17.374006980999923], [30.209388091000108, -17.37468844999995], [30.205790325000123, -17.3747397219999], [30.199785718000044, -17.374201278999863], [30.200408364000054, -17.373851550999973], [30.20405082700006, -17.370854704999886], [30.20398317500019, -17.36891869099992], [30.205245114000036, -17.368839495999964], [30.207385112000168, -17.367243887999905], [30.20825126200009, -17.365935239999885], [30.209651371, -17.356963018999977]]]]}}, {"type": "Feature", "properties": {"GID_3": "ZWE.6.3.10_2", "GID_0": "ZWE", "COUNTRY": "Zimbabwe", "GID_1": "ZWE.6_1", "NAME_1": "Mashonaland West", "NL_NAME_1": "NA", "GID_2": "ZWE.6.3_2", "NAME_2": "Chinhoyi", "NL_NAME_2": "NA", "NAME_3": "Ward 4", "VARNAME_3": "NA", "NL_NAME_3": "NA", "TYPE_3": "Ward", "ENGTYPE_3": "Ward", "CC_3": "NA", "HASC_3": "NA", "id": "ZWE.6.3.10_2", "name": "Ward 4"}, "geometry": {"type": "MultiPolygon", "coordinates": [[[[30.212159822, -17.380315372999917], [30.20721581300012, -17.378406247999976], [30.20632183000015, -17.381543226999895], [30.204911269000036, -17.38386019199993], [30.195708766000052, -17.383731075999833], [30.19550805200015, -17.383017084999892], [30.196425430000033, -17.37835657199986], [30.19582003000005, -17.376428645999965], [30.199785718000044, -17.374201278999863], [30.205790325000123, -17.3747397219999], [30.209388091000108, -17.37468844999995], [30.21151429200006, -17.374006980999923], [30.213205095999967, -17.37413218699993], [30.215826564000167, -17.375288024999975], [30.21484569900008, -17.377609751999955], [30.212159822, -17.380315372999917]]]]}}, {"type": "Feature", "properties": {"GID_3": "ZWE.6.3.11_2", "GID_0": "ZWE", "COUNTRY": "Zimbabwe", "GID_1": "ZWE.6_1", "NAME_1": "Mashonaland West", "NL_NAME_1": "NA", "GID_2": "ZWE.6.3_2", "NAME_2": "Chinhoyi", "NL_NAME_2": "NA", "NAME_3": "Ward 5", "VARNAME_3": "NA", "NL_NAME_3": "NA", "TYPE_3": "Ward", "ENGTYPE_3": "Ward", "CC_3": "NA", "HASC_3": "NA", "id": "ZWE.6.3.11_2", "name": "Ward 5"}, "geometry": {"type": "MultiPolygon", "coordinates": [[[[30.18643537800017, -17.38284558999993], [30.187027451000063, -17.38411685899996], [30.18755166800014, -17.384429032999947], [30.188167691000046, -17.3856568569999], [30.18944292600014, -17.38562948499998], [30.189406134000137, -17.387695312999938], [30.188454140000033, -17.387681898999972], [30.18851955300005, -17.390324293999925], [30.18629820500007, -17.39029297299993], [30.186295795999968, -17.391317964999814], [30.18629554300003, -17.39142537299989], [30.187788528000056, -17.403532236999922], [30.20853940000012, -17.41834410799987], [30.182241989000033, -17.415634723999972], [30.152937181000084, -17.41599812199985], [30.152535339000053, -17.407773163999934], [30.15309574000014, -17.405749321999963], [30.15536280600014, -17.402835504999928], [30.163930453000148, -17.39615083099983], [30.174732679999977, -17.38859391399984], [30.181559795000055, -17.384942380999973], [30.18505658700002, -17.384585363999975], [30.18643537800017, -17.38284558999993]]]]}}, {"type": "Feature", "properties": {"GID_3": "ZWE.6.3.12_2", "GID_0": "ZWE", "COUNTRY": "Zimbabwe", "GID_1": "ZWE.6_1", "NAME_1": "Mashonaland West", "NL_NAME_1": "NA", "GID_2": "ZWE.6.3_2", "NAME_2": "Chinhoyi", "NL_NAME_2": "NA", "NAME_3": "Ward 6", "VARNAME_3": "NA", "NL_NAME_3": "NA", "TYPE_3": "Ward", "ENGTYPE_3": "Ward", "CC_3": "NA", "HASC_3": "NA", "id": "ZWE.6.3.12_2", "name": "Ward 6"}, "geometry": {"type": "MultiPolygon", "coordinates": [[[[30.18944292600014, -17.38562948499998], [30.191025194000133, -17.385595510999906], [30.19465443000007, -17.38828994799991], [30.192711064000036, -17.39220073799993], [30.18987123000005, -17.39187816499998], [30.187766512000167, -17.391137335999872], [30.186295795999968, -17.391317964999814], [30.18629820500007, -17.39029297299993], [30.18851955300005, -17.390324293999925], [30.188454140000033, -17.387681898999972], [30.189406134000137, -17.387695312999938], [30.18944292600014, -17.38562948499998]]]]}}, {"type": "Feature", "properties": {"GID_3": "ZWE.6.3.13_2", "GID_0": "ZWE", "COUNTRY": "Zimbabwe", "GID_1": "ZWE.6_1", "NAME_1": "Mashonaland West", "NL_NAME_1": "NA", "GID_2": "ZWE.6.3_2", "NAME_2": "Chinhoyi", "NL_NAME_2": "NA", "NAME_3": "Ward 7", "VARNAME_3": "NA", "NL_NAME_3": "NA", "TYPE_3": "Ward", "ENGTYPE_3": "Ward", "CC_3": "NA", "HASC_3": "NA", "id": "ZWE.6.3.13_2", "name": "Ward 7"}, "geometry": {"type": "MultiPolygon", "coordinates": [[[[30.19465443000007, -17.38828994799991], [30.194791322000185, -17.388391577999982], [30.202096211000026, -17.388087776999953], [30.202620469000067, -17.38839991699996], [30.202984889000163, -17.39226568099997], [30.197545182000113, -17.395135600999936], [30.19511994200019, -17.394593527999916], [30.192934191000063, -17.392226080999876], [30.192711064000036, -17.39220073799993], [30.19465443000007, -17.38828994799991]]]]}}, {"type": "Feature", "properties": {"GID_3": "ZWE.6.3.14_2", "GID_0": "ZWE", "COUNTRY": "Zimbabwe", "GID_1": "ZWE.6_1", "NAME_1": "Mashonaland West", "NL_NAME_1": "NA", "GID_2": "ZWE.6.3_2", "NAME_2": "Chinhoyi", "NL_NAME_2": "NA", "NAME_3": "Ward 8", "VARNAME_3": "NA", "NL_NAME_3": "NA", "TYPE_3": "Ward", "ENGTYPE_3": "Ward", "CC_3": "NA", "HASC_3": "NA", "id": "ZWE.6.3.14_2", "name": "Ward 8"}, "geometry": {"type": "MultiPolygon", "coordinates": [[[[30.196695562000173, -17.36916151099996], [30.197062325000047, -17.368928], [30.199107428000048, -17.366619985999876], [30.19926261100005, -17.36337108799995], [30.19886889600008, -17.36143524199997], [30.200375813000107, -17.35972923099996], [30.204548306000106, -17.356638164999936], [30.207190321000155, -17.35603165899994], [30.20889353900003, -17.3568795299999], [30.209651371, -17.356963018999977], [30.20825126200009, -17.365935239999885], [30.207385112000168, -17.367243887999905], [30.205245114000036, -17.368839495999964], [30.20398317500019, -17.36891869099992], [30.2025978370001, -17.36900562099993], [30.200247790000105, -17.370496627999955], [30.196695562000173, -17.36916151099996]]]]}}, {"type": "Feature", "properties": {"GID_3": "ZWE.6.3.15_2", "GID_0": "ZWE", "COUNTRY": "Zimbabwe", "GID_1": "ZWE.6_1", "NAME_1": "Mashonaland West", "NL_NAME_1": "NA", "GID_2": "ZWE.6.3_2", "NAME_2": "Chinhoyi", "NL_NAME_2": "NA", "NAME_3": "Ward 9", "VARNAME_3": "NA", "NL_NAME_3": "NA", "TYPE_3": "Ward", "ENGTYPE_3": "Ward", "CC_3": "NA", "HASC_3": "NA", "id": "ZWE.6.3.15_2", "name": "Ward 9"}, "geometry": {"type": "MultiPolygon", "coordinates": [[[[30.175096758999985, -17.367041426999947], [30.188723785000036, -17.378782319999914], [30.18643537800017, -17.38284558999993], [30.18505658700002, -17.384585363999975], [30.181559795000055, -17.384942380999973], [30.174732679999977, -17.38859391399984], [30.163930453000148, -17.39615083099983], [30.15536280600014, -17.402835504999928], [30.15309574000014, -17.405749321999963], [30.152535339000053, -17.407773163999934], [30.152937181000084, -17.41599812199985], [30.14789188200018, -17.41606024999993], [30.149486432000117, -17.40876844099995], [30.13927753500019, -17.391667279999922], [30.12649434700012, -17.37838923099997], [30.126264483000114, -17.37848934099992], [30.136008330000095, -17.370522664999953], [30.141054029000088, -17.356029857999943], [30.147233987000163, -17.36214912299988], [30.16648579300005, -17.358416125999952], [30.175096758999985, -17.367041426999947]]]]}}]}