{"type": "FeatureCollection", "features": [{"type": "Feature", "properties": {"GID_3": "ZWE.6.5.1_2", "GID_0": "ZWE", "COUNTRY": "Zimbabwe", "GID_1": "ZWE.6_1", "NAME_1": "Mashonaland West", "NL_NAME_1": "NA", "GID_2": "ZWE.6.5_2", "NAME_2": "Kadoma Urban", "NL_NAME_2": "NA", "NAME_3": "Ward 1", "VARNAME_3": "NA", "NL_NAME_3": "NA", "TYPE_3": "Ward", "ENGTYPE_3": "Ward", "CC_3": "NA", "HASC_3": "NA", "id": "ZWE.6.5.1_2", "name": "Ward 1"}, "geometry": {"type": "MultiPolygon", "coordinates": [[[[29.836240505000035, -18.38705282299992], [29.78034306400008, -18.35940071999994], [29.780459060000112, -18.359289711999907], [29.780690054, -18.359289711999907], [29.780690054, -18.35917870299994], [29.780806050000024, -18.359176702999946], [29.78092104700005, -18.35906669399992], [29.78103704400013, -18.358955685999888], [29.781035044000134, -18.35884567699992], [29.78126803700013, -18.358732667999902], [29.781266037000137, -18.3585116509999], [29.781382034000046, -18.35840064199988], [29.78149702999997, -18.358290633999843], [29.781613027000105, -18.358179624999877], [29.781728024000074, -18.358177624999882], [29.781728024000074, -18.358066615999974], [29.781844020000108, -18.358066615999974], [29.781958017000193, -18.357956607999938], [29.782075014000043, -18.357956607999938], [29.78230800700004, -18.35795460699984], [29.782538001000034, -18.35795460699984], [29.78277099400009, -18.35795260699996], [29.78300198700009, -18.35784159799988], [29.783232981000026, -18.357731588999968], [29.78357997100011, -18.357729588999973], [29.783926961000077, -18.357616579999956], [29.784042958000157, -18.357616579999956], [29.784157955000182, -18.357506570999874], [29.78427395100016, -18.357504570999822], [29.78438994800007, -18.357504570999822], [29.784504945000094, -18.35739356299996], [29.784736938000037, -18.35739356199997], [29.784851935, -18.35728155399994], [29.784967932000143, -18.357170544999974], [29.785084928, -18.357170544999974], [29.785198925000145, -18.35705953599995], [29.785314922000055, -18.356947527999978], [29.785429918000148, -18.356836518999955], [29.785429918000148, -18.356725509999933], [29.785543915000062, -18.356615501999954], [29.78566091100015, -18.35650449299993], [29.78577490800012, -18.356394483999964], [29.786007902, -18.356281475999936], [29.786238895000054, -18.356060457999945], [29.786585885000136, -18.355947448999927], [29.786815878000084, -18.355835440999897], [29.78704687200019, -18.355724431999874], [29.787277865000192, -18.355614422999906], [29.7873938620001, -18.35561242299991], [29.787510859000122, -18.35561242299991], [29.787741852000124, -18.35561242299991], [29.787857849000034, -18.355610421999927], [29.787973846000114, -18.355610421999927], [29.788320836000082, -18.355608421999875], [29.788668826000105, -18.355608421999875], [29.788900819, -18.355717429999913], [29.789131813000097, -18.355717429999913], [29.789364806000094, -18.35571542999992], [29.789594800000145, -18.35571542999992], [29.789711797000166, -18.355604420999896], [29.78994279000017, -18.3556024209999], [29.78994279000017, -18.355491411999935], [29.790058787000078, -18.355491411999935], [29.790056787000083, -18.35538140299991], [29.790172783000116, -18.355270394999877], [29.790172783000116, -18.35516038599991], [29.790287780000085, -18.355049377999876], [29.790287780000085, -18.354938368999854], [29.790401776000124, -18.35482635999989], [29.790518773000144, -18.35482635999989], [29.790634770000054, -18.35471535199997], [29.79074876700014, -18.35471535099998], [29.790981760000136, -18.35460334299995], [29.791212752999968, -18.354603341999848], [29.79144574700007, -18.354601341999967], [29.791559743999983, -18.35449033399982], [29.79202373000004, -18.354488332999836], [29.792370721000054, -18.354486332999954], [29.792717710999966, -18.354486331999908], [29.793297695000035, -18.354484331999856], [29.794224668000084, -18.354481330999874], [29.794687655000075, -18.35447933099988], [29.795034645000044, -18.354477329999895], [29.79538163600006, -18.354364320999878], [29.79561262900006, -18.3542543129999], [29.79572962600008, -18.3542543129999], [29.795843622000064, -18.35414130399988], [29.795959618999973, -18.35414130399988], [29.796076616000164, -18.35403029499986], [29.79619061300008, -18.35403029499986], [29.796654599000135, -18.353807276999873], [29.79688459300013, -18.353695268999957], [29.79711558600013, -18.353584259999877], [29.79734657900019, -18.35347225099997], [29.797579573000064, -18.353361241999835], [29.798040560000118, -18.35291720799995], [29.79827155300012, -18.35280619899993], [29.79850254600018, -18.352693189999968], [29.798733540000114, -18.352583180999943], [29.79884953600009, -18.352470172999915], [29.799080530000026, -18.352470172999915], [29.799196527000106, -18.352360163999947], [29.79942752000011, -18.352358163999952], [29.799774510000077, -18.352358162999963], [29.800123500000154, -18.352356162999968], [29.80047049100017, -18.352354162999973], [29.800701484, -18.352354162999973], [29.80128146800007, -18.352350161999937], [29.801512461000073, -18.352350161999937], [29.80197544800012, -18.352348160999952], [29.80209144500003, -18.352238152999973], [29.802322438000033, -18.352125143999956], [29.80255343200014, -18.352014134999934], [29.802669428000115, -18.351904125999965], [29.803015417999973, -18.351681108999912], [29.803245412000024, -18.35145709199992], [29.803593402000047, -18.351236073999928], [29.80370739800003, -18.35101505699987], [29.803823395000165, -18.35090204799991], [29.80394039200013, -18.35090204799991], [29.804054388000168, -18.350792039999874], [29.804170385000077, -18.35068103099985], [29.804285382000103, -18.35056902199989], [29.80440137800008, -18.35045801399997], [29.804516375000105, -18.350347004999946], [29.804632372000185, -18.35023699599998], [29.804746368000053, -18.35023499599987], [29.804746368000053, -18.35012398699996], [29.804863365000017, -18.35012398699996], [29.80497736200016, -18.35012398699996], [29.80863425800004, -18.349778957999888], [29.80898324900005, -18.349887966999972], [29.809446236000042, -18.350106982999876], [29.809910222999974, -18.350215990999914], [29.810373210000023, -18.35043500799992], [29.81060620300019, -18.350433007999925], [29.8107222000001, -18.350544015999958], [29.81083919700012, -18.350654024999926], [29.81106919000007, -18.35065202399994], [29.81141618000015, -18.35065202399994], [29.81153317700017, -18.350651023999944], [29.81164917400008, -18.35054001499998], [29.811764170000174, -18.35054001499998], [29.811764170000174, -18.350429006999946], [29.811996164, -18.350429006999946], [29.81211116100019, -18.350316997999926], [29.812227157000052, -18.35020598899996], [29.812225157000057, -18.350095980999924], [29.81234215400002, -18.349873962999936], [29.81245615000006, -18.34965294599988], [29.812454150000065, -18.349431928999877], [29.812570147000145, -18.34920891199988], [29.81256914700009, -18.349097902999972], [29.81256914700009, -18.34887688599997], [29.812683143000072, -18.34876587699995], [29.812683143000072, -18.348654868999972], [29.812683143000072, -18.34843385199997], [29.81279914000004, -18.34843385199997], [29.812797140000043, -18.348323842999946], [29.81303013300004, -18.348323842999946], [29.81303013300004, -18.34843385199997], [29.81326312700014, -18.348653867999815], [29.813612117000048, -18.348872884999878], [29.813843111000153, -18.34909390199988], [29.813961108000058, -18.34931491899988], [29.814194101000055, -18.349534935999884], [29.81430809799997, -18.34964494399992], [29.814424095000106, -18.349755952999942], [29.81454109200007, -18.349864960999923], [29.814657088000104, -18.34997496999995], [29.814890081999977, -18.34997496999995], [29.815006079000113, -18.35008397799993], [29.815237072000116, -18.35008397799993], [29.815470066000046, -18.350081976999945], [29.81546806600005, -18.349971968999967], [29.81546806500012, -18.34974995199991], [29.81546806500012, -18.349639942999943], [29.81546806500012, -18.34952893499991], [29.815466065000123, -18.349417925999944], [29.81534906800016, -18.349309917999904], [29.81534906800016, -18.349087900999905], [29.81534906800016, -18.34897789199988], [29.81534806800005, -18.34875687499988], [29.81534806800005, -18.34864586599997], [29.81534806800005, -18.348534857999823], [29.81546206500019, -18.348422848999974], [29.815809055000102, -18.348201831999972], [29.816040048000104, -18.348088822999955], [29.816271041000107, -18.347977813999933], [29.816387038000073, -18.347867805999954], [29.81661803200018, -18.34786580499997], [29.816734028000155, -18.34786580499997], [29.816734028000155, -18.347975813999938], [29.816850025000065, -18.347975813999938], [29.816967022000085, -18.348084821999976], [29.816967022000085, -18.34819583099994], [29.817083019000165, -18.34819583099994], [29.817200015000083, -18.348305838999977], [29.817316012000163, -18.348305838999977], [29.817547006000098, -18.34830483899998], [29.81824098600015, -18.34830283799988], [29.818589976000055, -18.348300837999886], [29.81870397299997, -18.348189828999978], [29.81858797600006, -18.348189828999978], [29.81847197900015, -18.348078820999945], [29.81847197900015, -18.347968811999976], [29.818354982000187, -18.34774979499997], [29.818238986000154, -18.34752777799997], [29.81823698600016, -18.34730676099997], [29.818236985000055, -18.346974734999947], [29.81835198200008, -18.34675371799989], [29.818465979, -18.346640708999928], [29.818465979, -18.346530700999892], [29.81846597800012, -18.34641969199987], [29.818585695000138, -18.34641969199987], [29.818812969000135, -18.34641969199987], [29.819159959000046, -18.346417691999875], [29.819392952000044, -18.34641569099989], [29.819854939000038, -18.346413690999896], [29.819970936000118, -18.34630368199987], [29.820086933000027, -18.34630368199987], [29.820084933000032, -18.346192673999894], [29.8200849320001, -18.34597165699995], [29.8200849320001, -18.34575063999995], [29.819966935000025, -18.34552862199996], [29.819966935000025, -18.345418613999982], [29.819900969000116, -18.34529349199994], [29.831781124000088, -18.33875745099988], [29.832414226000083, -18.338409102999833], [29.857101800000123, -18.377123103999907], [29.863815340000144, -18.372538021999958], [29.869654120000064, -18.379395354999872], [29.86512541700006, -18.382523363999894], [29.868767576000096, -18.38720942799995], [29.86725794500012, -18.388252093999938], [29.86496949800005, -18.39405162199995], [29.84451839200011, -18.381581414999914], [29.837971455000115, -18.38571971899995], [29.837510468000062, -18.385942735999947], [29.83727947500006, -18.386164753999935], [29.83704648100013, -18.386276761999966], [29.83693248500009, -18.386387770999875], [29.836701491000156, -18.386608787999876], [29.83658549500018, -18.386721796999893], [29.836354501000073, -18.386942813999894], [29.836240505000035, -18.38705282299992]]]]}}, {"type": "Feature", "properties": {"GID_3": "ZWE.6.5.2_2", "GID_0": "ZWE", "COUNTRY": "Zimbabwe", "GID_1": "ZWE.6_1", "NAME_1": "Mashonaland West", "NL_NAME_1": "NA", "GID_2": "ZWE.6.5_2", "NAME_2": "Kadoma Urban", "NL_NAME_2": "NA", "NAME_3": "Ward 10", "VARNAME_3": "NA", "NL_NAME_3": "NA", "TYPE_3": "Ward", "ENGTYPE_3": "Ward", "CC_3": "NA", "HASC_3": "NA", "id": "ZWE.6.5.2_2", "name": "Ward 10"}, "geometry": {"type": "MultiPolygon", "coordinates": [[[[29.880867712999986, -18.307770711999922], [29.88391853200011, -18.30581134499988], [29.89769825500008, -18.291056615999878], [29.90595095300006, -18.281361530999902], [29.922524164000095, -18.266180177999956], [29.954939089999982, -18.29285746299996], [29.956001565000065, -18.29577642099997], [29.949279809000075, -18.301629765999962], [29.94786712200016, -18.303365559999975], [29.946693672000094, -18.306549632999975], [29.9419600760001, -18.31092219599998], [29.940808342000025, -18.312861012999917], [29.933484616000158, -18.3199970149999], [29.933122604, -18.320053845999894], [29.92234968700012, -18.332643387999894], [29.92141680400016, -18.332186672999967], [29.91923403400017, -18.33446450799994], [29.91849536500007, -18.334096698999872], [29.917655692000153, -18.334172081999895], [29.9148379720001, -18.33648116699993], [29.90992023700005, -18.332174106999958], [29.90799071600003, -18.334205864999944], [29.90758244300008, -18.33968899599995], [29.9045985570001, -18.343121434999887], [29.905331513000192, -18.34395521199997], [29.90420889000012, -18.344671826999956], [29.905014703000063, -18.346361431999924], [29.90450987200012, -18.346464786999945], [29.89822487400005, -18.341305876999968], [29.892214737000074, -18.335948920999954], [29.88930259100016, -18.33335309699993], [29.888648048999983, -18.332769637999945], [29.88666484500004, -18.33100177199998], [29.88380077100004, -18.328448591999916], [29.878991204999977, -18.331750488999944], [29.87661331200013, -18.329309520999914], [29.892925843000114, -18.31818877099994], [29.889274915000158, -18.314017021999916], [29.880867712999986, -18.307770711999922]]]]}}, {"type": "Feature", "properties": {"GID_3": "ZWE.6.5.3_2", "GID_0": "ZWE", "COUNTRY": "Zimbabwe", "GID_1": "ZWE.6_1", "NAME_1": "Mashonaland West", "NL_NAME_1": "NA", "GID_2": "ZWE.6.5_2", "NAME_2": "Kadoma Urban", "NL_NAME_2": "NA", "NAME_3": "Ward 11", "VARNAME_3": "NA", "NL_NAME_3": "NA", "TYPE_3": "Ward", "ENGTYPE_3": "Ward", "CC_3": "NA", "HASC_3": "NA", "id": "ZWE.6.5.3_2", "name": "Ward 11"}, "geometry": {"type": "MultiPolygon", "coordinates": [[[[29.91583163400003, -18.351521787999957], [29.919274235000046, -18.348288312999955], [29.920727389000035, -18.349572991999935], [29.92305667100004, -18.346803268999906], [29.92532673900007, -18.34859035099987], [29.925324579000062, -18.352351553999938], [29.923774265000077, -18.358198271999925], [29.91583163400003, -18.351521787999957]]]]}}, {"type": "Feature", "properties": {"GID_3": "ZWE.6.5.4_2", "GID_0": "ZWE", "COUNTRY": "Zimbabwe", "GID_1": "ZWE.6_1", "NAME_1": "Mashonaland West", "NL_NAME_1": "NA", "GID_2": "ZWE.6.5_2", "NAME_2": "Kadoma Urban", "NL_NAME_2": "NA", "NAME_3": "Ward 12", "VARNAME_3": "NA", "NL_NAME_3": "NA", "TYPE_3": "Ward", "ENGTYPE_3": "Ward", "CC_3": "NA", "HASC_3": "NA", "id": "ZWE.6.5.4_2", "name": "Ward 12"}, "geometry": {"type": "MultiPolygon", "coordinates": [[[[29.92234968700012, -18.332643387999894], [29.933122604, -18.320053845999894], [29.933484616000158, -18.3199970149999], [29.96286517900006, -18.353093187999946], [29.96343828200014, -18.353738577999877], [29.977958771000146, -18.365179838999893], [29.999775267000132, -18.37879709799995], [29.99253211000007, -18.388447412999938], [29.989387148000105, -18.39764449599994], [29.963039648, -18.387016869999968], [29.962871773000074, -18.387260873999935], [29.933694605000028, -18.366187441999955], [29.934289478000096, -18.365998075999926], [29.93691630400002, -18.362267234999877], [29.92537155600013, -18.35217438199993], [29.925324579000062, -18.352351553999938], [29.92532673900007, -18.34859035099987], [29.92305667100004, -18.346803268999906], [29.91540457300016, -18.340778817999876], [29.91532044600001, -18.340856484999904], [29.92234968700012, -18.332643387999894]]]]}}, {"type": "Feature", "properties": {"GID_3": "ZWE.6.5.5_2", "GID_0": "ZWE", "COUNTRY": "Zimbabwe", "GID_1": "ZWE.6_1", "NAME_1": "Mashonaland West", "NL_NAME_1": "NA", "GID_2": "ZWE.6.5_2", "NAME_2": "Kadoma Urban", "NL_NAME_2": "NA", "NAME_3": "Ward 13", "VARNAME_3": "NA", "NL_NAME_3": "NA", "TYPE_3": "Ward", "ENGTYPE_3": "Ward", "CC_3": "NA", "HASC_3": "NA", "id": "ZWE.6.5.5_2", "name": "Ward 13"}, "geometry": {"type": "MultiPolygon", "coordinates": [[[[29.880867712999986, -18.307770711999922], [29.889274915000158, -18.314017021999916], [29.892925843000114, -18.31818877099994], [29.87661331200013, -18.329309520999914], [29.878991204999977, -18.331750488999944], [29.88380077100004, -18.328448591999916], [29.88666484500004, -18.33100177199998], [29.880645969000113, -18.33524380799986], [29.87911428400014, -18.334031772999936], [29.8724046640001, -18.33908523199989], [29.869431856000176, -18.340934735999895], [29.862713371000154, -18.345114233999936], [29.849029172000087, -18.328212768999947], [29.880867712999986, -18.307770711999922]]]]}}, {"type": "Feature", "properties": {"GID_3": "ZWE.6.5.6_2", "GID_0": "ZWE", "COUNTRY": "Zimbabwe", "GID_1": "ZWE.6_1", "NAME_1": "Mashonaland West", "NL_NAME_1": "NA", "GID_2": "ZWE.6.5_2", "NAME_2": "Kadoma Urban", "NL_NAME_2": "NA", "NAME_3": "Ward 14", "VARNAME_3": "NA", "NL_NAME_3": "NA", "TYPE_3": "Ward", "ENGTYPE_3": "Ward", "CC_3": "NA", "HASC_3": "NA", "id": "ZWE.6.5.6_2", "name": "Ward 14"}, "geometry": {"type": "MultiPolygon", "coordinates": [[[[29.86496949800005, -18.39405162199995], [29.86725794500012, -18.388252093999938], [29.868767576000096, -18.38720942799995], [29.86512541700006, -18.382523363999894], [29.869654120000064, -18.379395354999872], [29.863815340000144, -18.372538021999958], [29.88513835600014, -18.36050792599997], [29.896702796000056, -18.38480261099994], [29.90733450900018, -18.40433311399994], [29.907365963000075, -18.40428834499994], [29.904483986000116, -18.417822386999944], [29.904089184000156, -18.417894799999885], [29.86496949800005, -18.39405162199995]]]]}}, {"type": "Feature", "properties": {"GID_3": "ZWE.6.5.7_2", "GID_0": "ZWE", "COUNTRY": "Zimbabwe", "GID_1": "ZWE.6_1", "NAME_1": "Mashonaland West", "NL_NAME_1": "NA", "GID_2": "ZWE.6.5_2", "NAME_2": "Kadoma Urban", "NL_NAME_2": "NA", "NAME_3": "Ward 15", "VARNAME_3": "NA", "NL_NAME_3": "NA", "TYPE_3": "Ward", "ENGTYPE_3": "Ward", "CC_3": "NA", "HASC_3": "NA", "id": "ZWE.6.5.7_2", "name": "Ward 15"}, "geometry": {"type": "MultiPolygon", "coordinates": [[[[29.949279809000075, -18.301629765999962], [29.956001565000065, -18.29577642099997], [29.967953154000156, -18.285367187999952], [29.983710557000165, -18.301580216999923], [29.983291927000153, -18.30143776799997], [29.982277582000165, -18.306226129999914], [29.97816211500009, -18.307228627999905], [29.9782371550001, -18.313635660999978], [29.975177038000083, -18.318213580999952], [29.967001754000137, -18.321485520999943], [29.949279809000075, -18.301629765999962]]]]}}, {"type": "Feature", "properties": {"GID_3": "ZWE.6.5.8_2", "GID_0": "ZWE", "COUNTRY": "Zimbabwe", "GID_1": "ZWE.6_1", "NAME_1": "Mashonaland West", "NL_NAME_1": "NA", "GID_2": "ZWE.6.5_2", "NAME_2": "Kadoma Urban", "NL_NAME_2": "NA", "NAME_3": "Ward 16", "VARNAME_3": "NA", "NL_NAME_3": "NA", "TYPE_3": "Ward", "ENGTYPE_3": "Ward", "CC_3": "NA", "HASC_3": "NA", "id": "ZWE.6.5.8_2", "name": "Ward 16"}, "geometry": {"type": "MultiPolygon", "coordinates": [[[[29.933484616000158, -18.3199970149999], [29.940808342000025, -18.312861012999917], [29.9419600760001, -18.31092219599998], [29.946693672000094, -18.306549632999975], [29.94786712200016, -18.303365559999975], [29.949279809000075, -18.301629765999962], [29.967001754000137, -18.321485520999943], [29.975177038000083, -18.318213580999952], [29.9782371550001, -18.313635660999978], [29.97816211500009, -18.307228627999905], [29.982277582000165, -18.306226129999914], [29.983291927000153, -18.30143776799997], [29.983710557000165, -18.301580216999923], [29.967953154000156, -18.285367187999952], [29.982870638, -18.272404565999977], [29.951380912000104, -18.240282048999973], [29.968778205000092, -18.224899693999873], [29.999546528999986, -18.258075931999883], [29.999738194000145, -18.25828254699985], [30.021980217000078, -18.28457724899988], [30.02271836700004, -18.289280556999927], [30.014363981000145, -18.30029437999997], [30.014218417000166, -18.300486262999925], [30.0140863150001, -18.30066039999997], [30.01392529400016, -18.3008726569999], [30.01432723000005, -18.300939249999942], [30.02692472000018, -18.306592523999882], [30.007463207000114, -18.343431131999978], [30.002661538999973, -18.365906755999845], [30.01501533100003, -18.366654567999888], [30.01535683700007, -18.379293958999938], [29.999959264000154, -18.378551931999937], [29.999775267000132, -18.37879709799995], [29.977958771000146, -18.365179838999893], [29.96343828200014, -18.353738577999877], [29.96286517900006, -18.353093187999946], [29.933484616000158, -18.3199970149999]]]]}}, {"type": "Feature", "properties": {"GID_3": "ZWE.6.5.9_2", "GID_0": "ZWE", "COUNTRY": "Zimbabwe", "GID_1": "ZWE.6_1", "NAME_1": "Mashonaland West", "NL_NAME_1": "NA", "GID_2": "ZWE.6.5_2", "NAME_2": "Kadoma Urban", "NL_NAME_2": "NA", "NAME_3": "Ward 17", "VARNAME_3": "NA", "NL_NAME_3": "NA", "TYPE_3": "Ward", "ENGTYPE_3": "Ward", "CC_3": "NA", "HASC_3": "NA", "id": "ZWE.6.5.9_2", "name": "Ward 17"}, "geometry": {"type": "MultiPolygon", "coordinates": [[[[29.92305667100004, -18.346803268999906], [29.920727389000035, -18.349572991999935], [29.919274235000046, -18.348288312999955], [29.91583163400003, -18.351521787999957], [29.909715817000176, -18.34638037799982], [29.909343307000086, -18.346374331999925], [29.91532044600001, -18.340856484999904], [29.91540457300016, -18.340778817999876], [29.92305667100004, -18.346803268999906]]]]}}, {"type": "Feature", "properties": {"GID_3": "ZWE.6.5.10_2", "GID_0": "ZWE", "COUNTRY": "Zimbabwe", "GID_1": "ZWE.6_1", "NAME_1": "Mashonaland West", "NL_NAME_1": "NA", "GID_2": "ZWE.6.5_2", "NAME_2": "Kadoma Urban", "NL_NAME_2": "NA", "NAME_3": "Ward 2", "VARNAME_3": "NA", "NL_NAME_3": "NA", "TYPE_3": "Ward", "ENGTYPE_3": "Ward", "CC_3": "NA", "HASC_3": "NA", "id": "ZWE.6.5.10_2", "name": "Ward 2"}, "geometry": {"type": "MultiPolygon", "coordinates": [[[[29.89822487400005, -18.341305876999968], [29.90450987200012, -18.346464786999945], [29.89961091300006, -18.34746767499996], [29.89314982400009, -18.34753972499982], [29.89045210900008, -18.345852387999912], [29.889636673999973, -18.34534234599988], [29.890276256000163, -18.344460989999902], [29.891289118000145, -18.34306522099996], [29.893201793000173, -18.343408611999962], [29.895994706000067, -18.342494253999973], [29.89822487400005, -18.341305876999968]]]]}}, {"type": "Feature", "properties": {"GID_3": "ZWE.6.5.11_2", "GID_0": "ZWE", "COUNTRY": "Zimbabwe", "GID_1": "ZWE.6_1", "NAME_1": "Mashonaland West", "NL_NAME_1": "NA", "GID_2": "ZWE.6.5_2", "NAME_2": "Kadoma Urban", "NL_NAME_2": "NA", "NAME_3": "Ward 3", "VARNAME_3": "NA", "NL_NAME_3": "NA", "TYPE_3": "Ward", "ENGTYPE_3": "Ward", "CC_3": "NA", "HASC_3": "NA", "id": "ZWE.6.5.11_2", "name": "Ward 3"}, "geometry": {"type": "MultiPolygon", "coordinates": [[[[29.863815340000144, -18.372538021999958], [29.857101800000123, -18.377123103999907], [29.832414226000083, -18.338409102999833], [29.83751915300013, -18.33560011499992], [29.849029172000087, -18.328212768999947], [29.862713371000154, -18.345114233999936], [29.869431856000176, -18.340934735999895], [29.873787880000123, -18.347440328999937], [29.87878175500009, -18.343895173999897], [29.879584936000185, -18.342424650999817], [29.882056954000063, -18.34334424399998], [29.88129195800019, -18.3449958249999], [29.886772233000045, -18.346082655999965], [29.884573185000193, -18.350873149999927], [29.88608739500006, -18.351721834999978], [29.886175214000104, -18.351771054999972], [29.890719328000046, -18.35395736199996], [29.890905587000077, -18.35396040399985], [29.88513835600014, -18.36050792599997], [29.863815340000144, -18.372538021999958]]]]}}, {"type": "Feature", "properties": {"GID_3": "ZWE.6.5.12_2", "GID_0": "ZWE", "COUNTRY": "Zimbabwe", "GID_1": "ZWE.6_1", "NAME_1": "Mashonaland West", "NL_NAME_1": "NA", "GID_2": "ZWE.6.5_2", "NAME_2": "Kadoma Urban", "NL_NAME_2": "NA", "NAME_3": "Ward 4", "VARNAME_3": "NA", "NL_NAME_3": "NA", "TYPE_3": "Ward", "ENGTYPE_3": "Ward", "CC_3": "NA", "HASC_3": "NA", "id": "ZWE.6.5.12_2", "name": "Ward 4"}, "geometry": {"type": "MultiPolygon", "coordinates": [[[[29.890276256000163, -18.344460989999902], [29.889636673999973, -18.34534234599988], [29.88826148300018, -18.347237342999847], [29.887640238000188, -18.347227188999966], [29.886600133, -18.348916431999953], [29.88767668800017, -18.349527511999952], [29.88608739500006, -18.351721834999978], [29.884573185000193, -18.350873149999927], [29.886772233000045, -18.346082655999965], [29.887873131, -18.343684285999927], [29.890276256000163, -18.344460989999902]]]]}}, {"type": "Feature", "properties": {"GID_3": "ZWE.6.5.13_2", "GID_0": "ZWE", "COUNTRY": "Zimbabwe", "GID_1": "ZWE.6_1", "NAME_1": "Mashonaland West", "NL_NAME_1": "NA", "GID_2": "ZWE.6.5_2", "NAME_2": "Kadoma Urban", "NL_NAME_2": "NA", "NAME_3": "Ward 5", "VARNAME_3": "NA", "NL_NAME_3": "NA", "TYPE_3": "Ward", "ENGTYPE_3": "Ward", "CC_3": "NA", "HASC_3": "NA", "id": "ZWE.6.5.13_2", "name": "Ward 5"}, "geometry": {"type": "MultiPolygon", "coordinates": [[[[29.892214737000074, -18.335948920999954], [29.89822487400005, -18.341305876999968], [29.895994706000067, -18.342494253999973], [29.893201793000173, -18.343408611999962], [29.891289118000145, -18.34306522099996], [29.890276256000163, -18.344460989999902], [29.887873131, -18.343684285999927], [29.890400967000062, -18.338176913999973], [29.890426003000186, -18.338097634999883], [29.892214737000074, -18.335948920999954]]]]}}, {"type": "Feature", "properties": {"GID_3": "ZWE.6.5.14_2", "GID_0": "ZWE", "COUNTRY": "Zimbabwe", "GID_1": "ZWE.6_1", "NAME_1": "Mashonaland West", "NL_NAME_1": "NA", "GID_2": "ZWE.6.5_2", "NAME_2": "Kadoma Urban", "NL_NAME_2": "NA", "NAME_3": "Ward 6", "VARNAME_3": "NA", "NL_NAME_3": "NA", "TYPE_3": "Ward", "ENGTYPE_3": "Ward", "CC_3": "NA", "HASC_3": "NA", "id": "ZWE.6.5.14_2", "name": "Ward 6"}, "geometry": {"type": "MultiPolygon", "coordinates": [[[[29.88930259100016, -18.33335309699993], [29.892214737000074, -18.335948920999954], [29.890426003000186, -18.338097634999883], [29.890400967000062, -18.338176913999973], [29.887873131, -18.343684285999927], [29.886772233000045, -18.346082655999965], [29.88129195800019, -18.3449958249999], [29.882056954000063, -18.34334424399998], [29.88500900800011, -18.336970542999893], [29.88930259100016, -18.33335309699993]]]]}}, {"type": "Feature", "properties": {"GID_3": "ZWE.6.5.15_2", "GID_0": "ZWE", "COUNTRY": "Zimbabwe", "GID_1": "ZWE.6_1", "NAME_1": "Mashonaland West", "NL_NAME_1": "NA", "GID_2": "ZWE.6.5_2", "NAME_2": "Kadoma Urban", "NL_NAME_2": "NA", "NAME_3": "Ward 7", "VARNAME_3": "NA", "NL_NAME_3": "NA", "TYPE_3": "Ward", "ENGTYPE_3": "Ward", "CC_3": "NA", "HASC_3": "NA", "id": "ZWE.6.5.15_2", "name": "Ward 7"}, "geometry": {"type": "MultiPolygon", "coordinates": [[[[29.889636673999973, -18.34534234599988], [29.89045210900008, -18.345852387999912], [29.89314982400009, -18.34753972499982], [29.89961091300006, -18.34746767499996], [29.890719328000046, -18.35395736199996], [29.886175214000104, -18.351771054999972], [29.88608739500006, -18.351721834999978], [29.88767668800017, -18.349527511999952], [29.886600133, -18.348916431999953], [29.887640238000188, -18.347227188999966], [29.88826148300018, -18.347237342999847], [29.889636673999973, -18.34534234599988]]]]}}, {"type": "Feature", "properties": {"GID_3": "ZWE.6.5.16_2", "GID_0": "ZWE", "COUNTRY": "Zimbabwe", "GID_1": "ZWE.6_1", "NAME_1": "Mashonaland West", "NL_NAME_1": "NA", "GID_2": "ZWE.6.5_2", "NAME_2": "Kadoma Urban", "NL_NAME_2": "NA", "NAME_3": "Ward 8", "VARNAME_3": "NA", "NL_NAME_3": "NA", "TYPE_3": "Ward", "ENGTYPE_3": "Ward", "CC_3": "NA", "HASC_3": "NA", "id": "ZWE.6.5.16_2", "name": "Ward 8"}, "geometry": {"type": "MultiPolygon", "coordinates": [[[[29.88666484500004, -18.33100177199998], [29.888648048999983, -18.332769637999945], [29.88930259100016, -18.33335309699993], [29.88500900800011, -18.336970542999893], [29.882056954000063, -18.34334424399998], [29.879584936000185, -18.342424650999817], [29.87878175500009, -18.343895173999897], [29.873787880000123, -18.347440328999937], [29.869431856000176, -18.340934735999895], [29.8724046640001, -18.33908523199989], [29.87911428400014, -18.334031772999936], [29.880645969000113, -18.33524380799986], [29.88666484500004, -18.33100177199998]]]]}}, {"type": "Feature", "properties": {"GID_3": "ZWE.6.5.17_2", "GID_0": "ZWE", "COUNTRY": "Zimbabwe", "GID_1": "ZWE.6_1", "NAME_1": "Mashonaland West", "NL_NAME_1": "NA", "GID_2": "ZWE.6.5_2", "NAME_2": "Kadoma Urban", "NL_NAME_2": "NA", "NAME_3": "Ward 9", "VARNAME_3": "NA", "NL_NAME_3": "NA", "TYPE_3": "Ward", "ENGTYPE_3": "Ward", "CC_3": "NA", "HASC_3": "NA", "id": "ZWE.6.5.17_2", "name": "Ward 9"}, "geometry": {"type": "MultiPolygon", "coordinates": [[[[29.90450987200012, -18.346464786999945], [29.905014703000063, -18.346361431999924], [29.90420889000012, -18.344671826999956], [29.905331513000192, -18.34395521199997], [29.9045985570001, -18.343121434999887], [29.90758244300008, -18.33968899599995], [29.90799071600003, -18.334205864999944], [29.90992023700005, -18.332174106999958], [29.9148379720001, -18.33648116699993], [29.917655692000153, -18.334172081999895], [29.91849536500007, -18.334096698999872], [29.91923403400017, -18.33446450799994], [29.92141680400016, -18.332186672999967], [29.92234968700012, -18.332643387999894], [29.91532044600001, -18.340856484999904], [29.909343307000086, -18.346374331999925], [29.909715817000176, -18.34638037799982], [29.91583163400003, -18.351521787999957], [29.923774265000077, -18.358198271999925], [29.925324579000062, -18.352351553999938], [29.92537155600013, -18.35217438199993], [29.93691630400002, -18.362267234999877], [29.934289478000096, -18.365998075999926], [29.933694605000028, -18.366187441999955], [29.962871773000074, -18.387260873999935], [29.947242006000124, -18.409974431999956], [29.904483986000116, -18.417822386999944], [29.907365963000075, -18.40428834499994], [29.90733450900018, -18.40433311399994], [29.896702796000056, -18.38480261099994], [29.88513835600014, -18.36050792599997], [29.890905587000077, -18.35396040399985], [29.890719328000046, -18.35395736199996], [29.89961091300006, -18.34746767499996], [29.90450987200012, -18.346464786999945]]]]}}]}