{"type": "FeatureCollection", "features": [{"type": "Feature", "properties": {"GID_3": "ZWE.2.2.1_2", "GID_0": "ZWE", "COUNTRY": "Zimbabwe", "GID_1": "ZWE.2_1", "NAME_1": "Harare", "NL_NAME_1": "NA", "GID_2": "ZWE.2.2_2", "NAME_2": "Epworth", "NL_NAME_2": "NA", "NAME_3": "Ward 1", "VARNAME_3": "NA", "NL_NAME_3": "NA", "TYPE_3": "Ward", "ENGTYPE_3": "Ward", "CC_3": "NA", "HASC_3": "NA", "id": "ZWE.2.2.1_2", "name": "Ward 1"}, "geometry": {"type": "MultiPolygon", "coordinates": [[[[31.130328491000057, -17.865350460999935], [31.15484753600009, -17.871864719999962], [31.154490648000092, -17.872498514999904], [31.15193694900006, -17.873563653999952], [31.150030153000046, -17.87509288299998], [31.146426222000173, -17.879433234999908], [31.146622295000157, -17.879883650999886], [31.14303306800008, -17.88314424999993], [31.141823306, -17.884074246999887], [31.141211059000057, -17.88545857999992], [31.142915419000076, -17.888870995999923], [31.14336894900009, -17.88925501199998], [31.14391044000007, -17.88971350299994], [31.144316802000105, -17.891042742999957], [31.141569724000192, -17.889200383999935], [31.139713404000076, -17.88953155599995], [31.132526573000064, -17.890075037999964], [31.131001012000013, -17.88877883899994], [31.125592627000117, -17.887637528999903], [31.124954781999975, -17.88799740099995], [31.117643714999986, -17.88201370899992], [31.12014073600011, -17.873643628999957], [31.122151264000024, -17.873342624999964], [31.124442858000066, -17.871762744999955], [31.130328491000057, -17.865350460999935]]]]}}, {"type": "Feature", "properties": {"GID_3": "ZWE.2.2.2_2", "GID_0": "ZWE", "COUNTRY": "Zimbabwe", "GID_1": "ZWE.2_1", "NAME_1": "Harare", "NL_NAME_1": "NA", "GID_2": "ZWE.2.2_2", "NAME_2": "Epworth", "NL_NAME_2": "NA", "NAME_3": "Ward 2", "VARNAME_3": "NA", "NL_NAME_3": "NA", "TYPE_3": "Ward", "ENGTYPE_3": "Ward", "CC_3": "NA", "HASC_3": "NA", "id": "ZWE.2.2.2_2", "name": "Ward 2"}, "geometry": {"type": "MultiPolygon", "coordinates": [[[[31.124954781999975, -17.88799740099995], [31.125592627000117, -17.887637528999903], [31.131001012000013, -17.88877883899994], [31.132526573000064, -17.890075037999964], [31.139713404000076, -17.88953155599995], [31.141569724000192, -17.889200383999935], [31.144316802000105, -17.891042742999957], [31.145010666000132, -17.893312381999976], [31.145192765, -17.89510831399997], [31.145726748000072, -17.895241557999896], [31.145783012000095, -17.89626734999996], [31.146311676000153, -17.896913169999834], [31.147535171000186, -17.901538469999878], [31.14806585100007, -17.90199206999995], [31.147911208000153, -17.902275319999944], [31.148719844000084, -17.90430663799998], [31.142591934, -17.903393937999965], [31.14291390400018, -17.902181008999946], [31.125008039000022, -17.888040986999897], [31.124954781999975, -17.88799740099995]]]]}}, {"type": "Feature", "properties": {"GID_3": "ZWE.2.2.3_2", "GID_0": "ZWE", "COUNTRY": "Zimbabwe", "GID_1": "ZWE.2_1", "NAME_1": "Harare", "NL_NAME_1": "NA", "GID_2": "ZWE.2.2_2", "NAME_2": "Epworth", "NL_NAME_2": "NA", "NAME_3": "Ward 3", "VARNAME_3": "NA", "NL_NAME_3": "NA", "TYPE_3": "Ward", "ENGTYPE_3": "Ward", "CC_3": "NA", "HASC_3": "NA", "id": "ZWE.2.2.3_2", "name": "Ward 3"}, "geometry": {"type": "MultiPolygon", "coordinates": [[[[31.142591934, -17.903393937999965], [31.148719844000084, -17.90430663799998], [31.149298313000088, -17.90575974299992], [31.150162938000108, -17.906280592999963], [31.151085189000128, -17.9076990879999], [31.151925925000057, -17.91052653299988], [31.151711216000137, -17.911870142999874], [31.152009010000086, -17.913114105999966], [31.15357162300012, -17.919641320999915], [31.153098507000095, -17.920085376999964], [31.153358900000057, -17.92079271399996], [31.152881797000077, -17.921621202999972], [31.151805687000035, -17.922123603999864], [31.151718824000056, -17.924045132999936], [31.151245027000186, -17.924553254999978], [31.151891685000066, -17.92673807199992], [31.150674102000096, -17.928516356999978], [31.13716595800014, -17.928857478999873], [31.136123960000077, -17.928883753999912], [31.142038931000172, -17.90547717399994], [31.142591934, -17.903393937999965]]]]}}, {"type": "Feature", "properties": {"GID_3": "ZWE.2.2.4_2", "GID_0": "ZWE", "COUNTRY": "Zimbabwe", "GID_1": "ZWE.2_1", "NAME_1": "Harare", "NL_NAME_1": "NA", "GID_2": "ZWE.2.2_2", "NAME_2": "Epworth", "NL_NAME_2": "NA", "NAME_3": "Ward 4", "VARNAME_3": "NA", "NL_NAME_3": "NA", "TYPE_3": "Ward", "ENGTYPE_3": "Ward", "CC_3": "NA", "HASC_3": "NA", "id": "ZWE.2.2.4_2", "name": "Ward 4"}, "geometry": {"type": "MultiPolygon", "coordinates": [[[[31.150674102000096, -17.928516356999978], [31.151891685000066, -17.92673807199992], [31.151245027000186, -17.924553254999978], [31.151718824000056, -17.924045132999936], [31.151805687000035, -17.922123603999864], [31.152881797000077, -17.921621202999972], [31.153358900000057, -17.92079271399996], [31.153098507000095, -17.920085376999964], [31.15357162300012, -17.919641320999915], [31.152009010000086, -17.913114105999966], [31.156998999000052, -17.907017046999954], [31.15714475800013, -17.906838870999877], [31.157156908000047, -17.906824019999874], [31.15717083100003, -17.906809839999937], [31.157136090000108, -17.906790813999976], [31.15491442700005, -17.905547202999855], [31.15493033200005, -17.904009464999888], [31.155404722000185, -17.903437253999982], [31.15524305600013, -17.899655077999967], [31.154977378000183, -17.89946032299997], [31.156324974000142, -17.898575990999916], [31.160559471000113, -17.898423053999977], [31.161948576000043, -17.898372862999906], [31.16564807300017, -17.896549471999947], [31.169575535000035, -17.896564057999967], [31.173109955000086, -17.89776993399994], [31.176718209000057, -17.89831640199992], [31.178460008000172, -17.898140471999966], [31.18088730100004, -17.896368946999928], [31.18425136600007, -17.894606126999975], [31.190011321000156, -17.89414712699994], [31.192429769000057, -17.893148883999856], [31.192643280000084, -17.893056406999847], [31.19632924800004, -17.891450325999926], [31.197010045000127, -17.890303191999863], [31.197671987000035, -17.890145337999854], [31.197253665000062, -17.89101296699988], [31.19771996000003, -17.89207288199998], [31.197716799000034, -17.89219251299994], [31.197708799000054, -17.892489535999914], [31.198209835000114, -17.896813762999955], [31.197304965000058, -17.89834887099994], [31.193721420000088, -17.90092360299991], [31.192030795000107, -17.903196514999934], [31.191627156000038, -17.904629797999974], [31.1923669680001, -17.906052964999958], [31.192590737000046, -17.90685533599998], [31.191054117000135, -17.909245711999972], [31.191194285000165, -17.910105121999948], [31.191084994999983, -17.91193905499989], [31.191082995000045, -17.911986057999968], [31.19108099500005, -17.912358086999916], [31.190969998000185, -17.91235608699992], [31.19096999900006, -17.9124610959999], [31.190642008000054, -17.91245909599985], [31.190532011000073, -17.912562103999846], [31.190924685000084, -17.913623882999957], [31.189577674000077, -17.914888709999957], [31.18626204399999, -17.91294177799989], [31.18470350500013, -17.913140131999967], [31.18094668200007, -17.911385216999975], [31.173606201000098, -17.907524986999874], [31.17329873000017, -17.90821598599996], [31.173261497, -17.909609880999824], [31.17325549700007, -17.909815896999817], [31.173144500000035, -17.909916904999932], [31.17314250000004, -17.91001991299993], [31.173137500000166, -17.910225928999978], [31.17313550000017, -17.910328936999974], [31.173057503, -17.910399941999913], [31.173049503000072, -17.911141], [31.172994505000133, -17.911525029999837], [31.17281251100019, -17.912816130999886], [31.172810511000193, -17.912921138999877], [31.17270051400004, -17.913129154999865], [31.17269651400005, -17.913442179999834], [31.172585517000016, -17.91354718799988], [31.17258251800007, -17.91406922899995], [31.172471521000034, -17.914174236999827], [31.172467521000044, -17.914449257999934], [31.172467521000044, -17.914487260999977], [31.172374524000077, -17.914575267999965], [31.172370524000087, -17.914739280999925], [31.17236452400016, -17.914945296999917], [31.172254527000177, -17.91504430499998], [31.172252528000115, -17.915147312999977], [31.172248528000125, -17.915250320999974], [31.172244528000135, -17.915456336999966], [31.172234528000047, -17.915765360999956], [31.172233528000163, -17.915868368999952], [31.17222952900005, -17.91597137699995], [31.17222752900011, -17.916074384999945], [31.17222352900012, -17.91617739299994], [31.17221952900013, -17.916383408999934], [31.17221552900014, -17.91648641699993], [31.172213528999976, -17.916589424999927], [31.172208530000034, -17.916795440999977], [31.172204530000045, -17.916898448999973], [31.17220253000005, -17.91700145699997], [31.17209053300013, -17.917203472999915], [31.172086924000098, -17.917327411999963], [31.170727536000072, -17.92060416499993], [31.17003016600006, -17.92073088399991], [31.163558287000058, -17.921906753999963], [31.163184092000108, -17.923281917999873], [31.165834327000084, -17.928132391999895], [31.150674102000096, -17.928516356999978]]]]}}, {"type": "Feature", "properties": {"GID_3": "ZWE.2.2.5_2", "GID_0": "ZWE", "COUNTRY": "Zimbabwe", "GID_1": "ZWE.2_1", "NAME_1": "Harare", "NL_NAME_1": "NA", "GID_2": "ZWE.2.2_2", "NAME_2": "Epworth", "NL_NAME_2": "NA", "NAME_3": "Ward 5", "VARNAME_3": "NA", "NL_NAME_3": "NA", "TYPE_3": "Ward", "ENGTYPE_3": "Ward", "CC_3": "NA", "HASC_3": "NA", "id": "ZWE.2.2.5_2", "name": "Ward 5"}, "geometry": {"type": "MultiPolygon", "coordinates": [[[[31.144316802000105, -17.891042742999957], [31.14391044000007, -17.88971350299994], [31.14336894900009, -17.88925501199998], [31.142915419000076, -17.888870995999923], [31.141211059000057, -17.88545857999992], [31.141823306, -17.884074246999887], [31.14303306800008, -17.88314424999993], [31.150879899000188, -17.88950462599996], [31.150608930000033, -17.889822444999936], [31.154804779000017, -17.89258522899985], [31.155055822000122, -17.892759075999948], [31.155070144000035, -17.89276899499987], [31.155801113000052, -17.893275188999894], [31.155705734000037, -17.893364077999877], [31.15492139800017, -17.894038964999936], [31.160559471000113, -17.898423053999977], [31.156324974000142, -17.898575990999916], [31.154977378000183, -17.89946032299997], [31.15524305600013, -17.899655077999967], [31.155404722000185, -17.903437253999982], [31.15493033200005, -17.904009464999888], [31.15491442700005, -17.905547202999855], [31.157136090000108, -17.906790813999976], [31.15717083100003, -17.906809839999937], [31.157156908000047, -17.906824019999874], [31.15714475800013, -17.906838870999877], [31.156998999000052, -17.907017046999954], [31.152009010000086, -17.913114105999966], [31.151711216000137, -17.911870142999874], [31.151925925000057, -17.91052653299988], [31.151085189000128, -17.9076990879999], [31.150162938000108, -17.906280592999963], [31.149298313000088, -17.90575974299992], [31.148719844000084, -17.90430663799998], [31.147911208000153, -17.902275319999944], [31.14806585100007, -17.90199206999995], [31.147535171000186, -17.901538469999878], [31.146311676000153, -17.896913169999834], [31.145783012000095, -17.89626734999996], [31.145726748000072, -17.895241557999896], [31.145192765, -17.89510831399997], [31.145010666000132, -17.893312381999976], [31.144316802000105, -17.891042742999957]]]]}}, {"type": "Feature", "properties": {"GID_3": "ZWE.2.2.6_2", "GID_0": "ZWE", "COUNTRY": "Zimbabwe", "GID_1": "ZWE.2_1", "NAME_1": "Harare", "NL_NAME_1": "NA", "GID_2": "ZWE.2.2_2", "NAME_2": "Epworth", "NL_NAME_2": "NA", "NAME_3": "Ward 6", "VARNAME_3": "NA", "NL_NAME_3": "NA", "TYPE_3": "Ward", "ENGTYPE_3": "Ward", "CC_3": "NA", "HASC_3": "NA", "id": "ZWE.2.2.6_2", "name": "Ward 6"}, "geometry": {"type": "MultiPolygon", "coordinates": [[[[31.197671987000035, -17.890145337999854], [31.197010045000127, -17.890303191999863], [31.19632924800004, -17.891450325999926], [31.192643280000084, -17.893056406999847], [31.192429769000057, -17.893148883999856], [31.190011321000156, -17.89414712699994], [31.18425136600007, -17.894606126999975], [31.18088730100004, -17.896368946999928], [31.178460008000172, -17.898140471999966], [31.176718209000057, -17.89831640199992], [31.173109955000086, -17.89776993399994], [31.169575535000035, -17.896564057999967], [31.16564807300017, -17.896549471999947], [31.161948576000043, -17.898372862999906], [31.160559471000113, -17.898423053999977], [31.15492139800017, -17.894038964999936], [31.155705734000037, -17.893364077999877], [31.155801113000052, -17.893275188999894], [31.155070144000035, -17.89276899499987], [31.155102098000043, -17.89271598499994], [31.156196438000165, -17.89064052799995], [31.157651432000137, -17.88914314599998], [31.156896993000146, -17.888283269999874], [31.156846313000187, -17.88809565199989], [31.155553811000175, -17.883310646999917], [31.154641131000176, -17.879931660999944], [31.15626348, -17.87834504999995], [31.159092785000098, -17.876513513999953], [31.15823685100014, -17.875159766999843], [31.158152499000096, -17.872742521999953], [31.16169642500006, -17.87368372199984], [31.193786322000165, -17.88173747899998], [31.197471577000158, -17.882684579999932], [31.19953550600013, -17.883728949999977], [31.2030560660001, -17.88632466899992], [31.202048497000135, -17.886699850999946], [31.201428852000106, -17.8884242929999], [31.200820815000156, -17.888995397999906], [31.197868834000076, -17.88973706099989], [31.197671987000035, -17.890145337999854]]]]}}, {"type": "Feature", "properties": {"GID_3": "ZWE.2.2.7_2", "GID_0": "ZWE", "COUNTRY": "Zimbabwe", "GID_1": "ZWE.2_1", "NAME_1": "Harare", "NL_NAME_1": "NA", "GID_2": "ZWE.2.2_2", "NAME_2": "Epworth", "NL_NAME_2": "NA", "NAME_3": "Ward 7", "VARNAME_3": "NA", "NL_NAME_3": "NA", "TYPE_3": "Ward", "ENGTYPE_3": "Ward", "CC_3": "NA", "HASC_3": "NA", "id": "ZWE.2.2.7_2", "name": "Ward 7"}, "geometry": {"type": "MultiPolygon", "coordinates": [[[[31.14303306800008, -17.88314424999993], [31.146622295000157, -17.879883650999886], [31.146426222000173, -17.879433234999908], [31.150030153000046, -17.87509288299998], [31.15193694900006, -17.873563653999952], [31.154490648000092, -17.872498514999904], [31.15484753600009, -17.871864719999962], [31.158152499000096, -17.872742521999953], [31.15823685100014, -17.875159766999843], [31.159092785000098, -17.876513513999953], [31.15626348, -17.87834504999995], [31.154641131000176, -17.879931660999944], [31.155553811000175, -17.883310646999917], [31.156846313000187, -17.88809565199989], [31.156896993000146, -17.888283269999874], [31.157651432000137, -17.88914314599998], [31.156196438000165, -17.89064052799995], [31.155102098000043, -17.89271598499994], [31.155070144000035, -17.89276899499987], [31.155055822000122, -17.892759075999948], [31.154804779000017, -17.89258522899985], [31.150608930000033, -17.889822444999936], [31.150879899000188, -17.88950462599996], [31.14303306800008, -17.88314424999993]]]]}}]}