{"type": "FeatureCollection", "features": [{"type": "Feature", "properties": {"GID_3": "ZWE.10.14.1_2", "GID_0": "ZWE", "COUNTRY": "Zimbabwe", "GID_1": "ZWE.10_1", "NAME_1": "Midlands", "NL_NAME_1": "NA", "GID_2": "ZWE.10.14_2", "NAME_2": "Zvishavane Urban", "NL_NAME_2": "NA", "NAME_3": "Ward 1", "VARNAME_3": "NA", "NL_NAME_3": "NA", "TYPE_3": "Ward", "ENGTYPE_3": "Ward", "CC_3": "NA", "HASC_3": "NA", "id": "ZWE.10.14.1_2", "name": "Ward 1"}, "geometry": {"type": "MultiPolygon", "coordinates": [[[[30.065157552000073, -20.301999614999943], [30.064901426000176, -20.29966521599988], [30.06483867700007, -20.29909328399998], [30.06557978799998, -20.29846801499997], [30.06657474499997, -20.29802006099993], [30.06757817500005, -20.298002461999886], [30.06785743100005, -20.296958375999907], [30.06903139100001, -20.296312284999942], [30.07378022400013, -20.313308154999845], [30.072445433000098, -20.313364615999888], [30.071649130000026, -20.31339829399991], [30.07082170900003, -20.31402204999995], [30.069808164999984, -20.305722008999908], [30.06743970000008, -20.305935786999953], [30.067348096000103, -20.301287918999947], [30.065157552000073, -20.301999614999943]]]]}}, {"type": "Feature", "properties": {"GID_3": "ZWE.10.14.2_2", "GID_0": "ZWE", "COUNTRY": "Zimbabwe", "GID_1": "ZWE.10_1", "NAME_1": "Midlands", "NL_NAME_1": "NA", "GID_2": "ZWE.10.14_2", "NAME_2": "Zvishavane Urban", "NL_NAME_2": "NA", "NAME_3": "Ward 10", "VARNAME_3": "NA", "NL_NAME_3": "NA", "TYPE_3": "Ward", "ENGTYPE_3": "Ward", "CC_3": "NA", "HASC_3": "NA", "id": "ZWE.10.14.2_2", "name": "Ward 10"}, "geometry": {"type": "MultiPolygon", "coordinates": [[[[30.05104280100005, -20.34434919499995], [30.05090580500007, -20.34428619099998], [30.050767809000035, -20.34416018099995], [30.050563814000157, -20.344034171999965], [30.05029182200019, -20.34391016299992], [30.05008882800007, -20.343849158999944], [30.049882834000073, -20.343723148999914], [30.04974783700004, -20.343660144999944], [30.049543843000038, -20.3435351359999], [30.049270851000188, -20.343348121999952], [30.0489298600001, -20.343159107999952], [30.04865686800008, -20.342970093999952], [30.04838387600006, -20.342909089999978], [30.04838387600006, -20.342846084999906], [30.048381876000064, -20.342653070999916], [30.048381876000064, -20.342590065999957], [30.048381876000064, -20.342526060999887], [30.04837987600007, -20.342463056999918], [30.048374875000093, -20.34188701399995], [30.048374875000093, -20.34182400899988], [30.048374875000093, -20.341759003999925], [30.048372875000155, -20.34156798999993], [30.04830387700008, -20.341439979999905], [30.048301877000142, -20.34137497599994], [30.04823387900018, -20.341249965999907], [30.04816488100016, -20.341121956999814], [30.04802788500018, -20.34093294299987], [30.047823890000075, -20.340806933999943], [30.047550898000054, -20.340617919999943], [30.047277906000033, -20.340428905999943], [30.04700491300008, -20.340304896999953], [30.046802919000072, -20.3403719019999], [30.046600925000064, -20.340501911999922], [30.046464929000024, -20.340631921999943], [30.046329933000038, -20.34069592599991], [30.046262935000186, -20.340697926999894], [30.046196937000047, -20.34076293199996], [30.04612793900003, -20.34076293199996], [30.045925945000192, -20.340764931999956], [30.045721950000086, -20.34083193699996], [30.044433987, -20.34084693899996], [30.04402799900015, -20.340852939999934], [30.043757007000124, -20.34085493999993], [30.043553012000018, -20.340793935999955], [30.043349018000015, -20.340795935999836], [30.04307802600016, -20.34067192699996], [30.042874032000157, -20.340610921999883], [30.042737036, -20.340547917999913], [30.042533041000127, -20.340358903999913], [30.04246404300011, -20.340358903999913], [30.042056055000103, -20.340171889999965], [30.04178306200015, -20.34004788099992], [30.04083308900016, -20.33993187299984], [30.04056009700014, -20.339807863999965], [30.040356103000136, -20.33961684999997], [30.040082111000174, -20.339364831999887], [30.038174164000168, -20.338365757999952], [30.038174164000168, -20.338300753999874], [30.038174164000168, -20.338172743999962], [30.038170164000178, -20.337852719999944], [30.038235162000035, -20.33759670099988], [30.03823316200004, -20.33740368699989], [30.038231162000045, -20.337213672999894], [30.038228162000166, -20.336701634999827], [30.038159163000046, -20.336639629999922], [30.03809016500003, -20.336511620999886], [30.038022167000065, -20.336448615999927], [30.03788417100003, -20.336322606999886], [30.037816173000124, -20.336259601999927], [30.037680177000027, -20.33613159299989], [30.037272188000145, -20.336009583999953], [30.037068194000142, -20.335948578999933], [30.036933198000156, -20.335950579999917], [30.03679720200006, -20.33588757499996], [30.036662206000074, -20.335889574999953], [30.03645821200007, -20.33589157499995], [30.03618721900017, -20.335895575999928], [30.036118221000095, -20.335895575999928], [30.035983225000166, -20.33589757599998], [30.035779231000163, -20.335836571999835], [30.035643235000066, -20.335710562999964], [30.035235246000184, -20.33552354899996], [30.034896256000025, -20.335654558999977], [30.033211303000144, -20.33381942299991], [30.03320930300015, -20.333757418999937], [30.033278301000166, -20.33369241399987], [30.03327630100017, -20.333564403999958], [30.033410297000046, -20.333369389999973], [30.033543293000037, -20.333177374999877], [30.03367728900014, -20.332919355999934], [30.033812285000124, -20.33285235099993], [30.033879283000147, -20.33285235099993], [30.033948281000164, -20.332788345999973], [30.034218273000135, -20.332784345999983], [30.034421267000027, -20.332719340999915], [30.03448926500016, -20.33271734099992], [30.03476025800012, -20.33271333999994], [30.03489625400016, -20.33271333999994], [30.035031250000145, -20.33271133999989], [30.03516624600013, -20.332709339999894], [30.035571234000088, -20.332513324999923], [30.035842227000046, -20.332446319999974], [30.036044221000054, -20.332379313999866], [30.03617921700004, -20.33231330899997], [30.036246215000062, -20.33224830499995], [30.036313213000085, -20.33218529999988], [30.03644820900007, -20.33211829499993], [30.036517207000088, -20.33211829499993], [30.036515207000093, -20.332053289999976], [30.03658420500011, -20.332053289999976], [30.03665020300008, -20.33198828499991], [30.036852197000087, -20.331859274999886], [30.03691919500011, -20.331794269999932], [30.037055191000036, -20.331727264999927], [30.037121189000175, -20.331662259999973], [30.03711918900018, -20.331472245999862], [30.037253185000054, -20.33121422699992], [30.037253185000054, -20.331086216999893], [30.03725118500006, -20.3308942029999], [30.037249185000064, -20.33083119799994], [30.037249185000064, -20.330703188999905], [30.037181187000158, -20.330640183999947], [30.037043191000066, -20.33051217499991], [30.036906195000142, -20.33032316099991], [30.03676919800006, -20.330195150999884], [30.03663320200019, -20.330070141999954], [30.03656420400017, -20.33000713799987], [30.036496206000038, -20.330009137999866], [30.03636021000017, -20.330009137999866], [30.03615821600016, -20.330012137999915], [30.035954222000157, -20.33001413799991], [30.035752227000046, -20.330016138999895], [30.035615231000065, -20.33001813899989], [30.035479235000025, -20.330020138999885], [30.035412237000173, -20.330020138999885], [30.03514224500003, -20.330024139999864], [30.034937251000088, -20.330091144999983], [30.03473525700008, -20.330157149999934], [30.034533261999968, -20.330222154999888], [30.034262270000113, -20.330291159999945], [30.033991278000087, -20.33029316099993], [30.033721286000116, -20.330297160999976], [30.033246299000155, -20.330302161999953], [30.03297530700013, -20.330306161999943], [30.032704315000103, -20.330308161999824], [30.0325003210001, -20.330312162999974], [30.03229832600016, -20.33031416299997], [30.032229328000142, -20.33031416299997], [30.03216233000012, -20.330316162999964], [30.032023334000144, -20.330062144999886], [30.031888338000158, -20.329934134999974], [30.031750342000123, -20.329745120999974], [30.031544347000022, -20.329555106999976], [30.03134035300002, -20.329366092999862], [30.031203357000095, -20.329175078999867], [30.031066361000114, -20.32904906999994], [30.030997362000164, -20.328923060999955], [30.030928364000147, -20.328796050999927], [30.030926364000152, -20.328733045999968], [30.030858366000018, -20.32860503699993], [30.03078936800017, -20.328542031999973], [30.030720370000154, -20.328351017999978], [30.03065237200002, -20.32822300899994], [30.030514376000156, -20.32809699899991], [30.030446377000146, -20.327969989999872], [30.030375379000134, -20.327778975999877], [30.030238383000153, -20.327587961999882], [30.030102387000113, -20.327461951999965], [30.029896393000115, -20.327335942999923], [30.02969239800018, -20.32708492499995], [30.0294204060001, -20.32689591099995], [30.0292144120001, -20.326704896999956], [30.029076416, -20.326515882999843], [30.028939419000153, -20.326389872999982], [30.02873542500015, -20.32626386399994], [30.028597429000115, -20.326073849999943], [30.028460433000134, -20.325947840999902], [30.028391435000117, -20.325819830999876], [30.028256438000028, -20.32569382199995], [30.02818744000018, -20.325630816999876], [30.028119442000104, -20.325567812999907], [30.027981446000013, -20.32537779899991], [30.02784445000009, -20.325186784999914], [30.027707454000108, -20.325060774999884], [30.02763845600009, -20.324997770999914], [30.02756945700014, -20.32487176099994], [30.027434461000155, -20.32480875699997], [30.027365463000137, -20.324745751999842], [30.027228467000157, -20.32461974299997], [30.02695747500013, -20.32449373399993], [30.026753480000025, -20.32449773399992], [30.026549486000192, -20.32443472899996], [30.02634549200019, -20.324373724999873], [30.02614349800018, -20.324375724999868], [30.02600750200014, -20.324377725999966], [30.025872506000155, -20.32450773499994], [30.025805508000133, -20.324572739999894], [30.025738510000053, -20.324636744999964], [30.025672512000142, -20.32476475499982], [30.025672512000142, -20.324829758999954], [30.025605514000063, -20.32495776899998], [30.02553851600004, -20.325087778999887], [30.025471518000188, -20.325214787999926], [30.025473518000183, -20.32534279799995], [30.02540652000016, -20.325407802999905], [30.025340522000192, -20.325537811999936], [30.02527352400017, -20.325602816999947], [30.02520652600009, -20.325729826999975], [30.02520652600009, -20.32585783599984], [30.025139528000068, -20.32598784599992], [30.025075530000095, -20.326115855999944], [30.025006532000077, -20.32618085999991], [30.024872536000032, -20.326309869999932], [30.024804537000136, -20.326309869999932], [30.024602543000128, -20.32637687499988], [30.024399549000066, -20.326443879999943], [30.024197555000057, -20.326572889999852], [30.023926562999975, -20.32663989499997], [30.02365557100012, -20.32664389599995], [30.023453576, -20.3267109009999], [30.023385578000102, -20.326775905999966], [30.023318580000023, -20.326839910999922], [30.023116586000015, -20.326841910999974], [30.022776596000142, -20.326845910999964], [30.022505604000116, -20.326849911999943], [30.02230160900018, -20.32685191199994], [30.022235611000042, -20.326853911999933], [30.022235611000042, -20.326916916999892], [30.022099615000172, -20.326918916999887], [30.021964619000187, -20.326983921999954], [30.021828623000147, -20.327049926999962], [30.02169362700016, -20.327051926999957], [30.02162662900014, -20.327114931999915], [30.021491633000153, -20.32711693199991], [30.021355637000056, -20.327118932999895], [30.021151642000177, -20.32712093299989], [30.021084644000155, -20.32705792799993], [30.02101664600019, -20.327059927999983], [30.020947648000174, -20.326996923999957], [30.02081265200019, -20.326933918999885], [30.02067665600015, -20.326935918999936], [30.020472662000145, -20.326874914999962], [30.020201669000187, -20.326876914999957], [30.019795681000176, -20.326881915999934], [30.019658685000024, -20.32688391599993], [30.019591687000172, -20.32688391599993], [30.019522689000098, -20.32688591599998], [30.019456691000187, -20.326948920999882], [30.019389693000107, -20.32701392599995], [30.019322695000085, -20.327143935999914], [30.019255697000062, -20.32720894099998], [30.01918869900004, -20.327335949999906], [30.019120701000077, -20.3273379499999], [30.01912270100007, -20.327400954999973], [30.019053703000054, -20.327465959999927], [30.01898670500003, -20.32753096499988], [30.018920707000063, -20.327532964999875], [30.018851709000046, -20.327532964999875], [30.018580716000088, -20.3274719609999], [30.01817272800008, -20.327349951999906], [30.018103730000064, -20.327349951999906], [30.0180357320001, -20.327221941999824], [30.0180357320001, -20.32715893799991], [30.017897735000133, -20.327032928999813], [30.017897735000133, -20.326967923999916], [30.01789573500014, -20.32677790999992], [30.01789573500014, -20.326712904999965], [30.017893734999973, -20.326649899999893], [30.017893734999973, -20.326456885999846], [30.017958733000057, -20.326328875999934], [30.017956733000062, -20.32613686199994], [30.017956733000062, -20.326071856999874], [30.018023731000085, -20.325943846999962], [30.01802173100009, -20.325815837999983], [30.01802173100009, -20.325750832999972], [30.018088729000112, -20.325686827999903], [30.01799172900013, -20.322363580999934], [30.01805772700004, -20.32236158099994], [30.01812672500006, -20.32229657599987], [30.018191723000143, -20.32210456199988], [30.018189723000148, -20.32184854199994], [30.01825672100017, -20.32165552799995], [30.01825272100001, -20.321337503999928], [30.018250721000015, -20.321144489999938], [30.018250721000015, -20.32108148499998], [30.018181723, -20.320953475999943], [30.018179723, -20.32089047099987], [30.018179723, -20.320826465999914], [30.018111725000097, -20.320698456999878], [30.01804072600015, -20.320507442999883], [30.017905730000166, -20.320381432999966], [30.017768734000015, -20.320255423999924], [30.017563740000128, -20.32006640999998], [30.017291747000115, -20.31994140099988], [30.017222749000098, -20.31987839599998], [30.017018755000095, -20.319817391999834], [30.01688375900011, -20.319754386999932], [30.016678765000165, -20.319693382999958], [30.016474771000162, -20.319695382999953], [30.01627277600005, -20.319698383999935], [30.015864788000044, -20.31970238399998], [30.01559379600019, -20.319641379999837], [30.015254805000154, -20.319645379999884], [30.015051811000035, -20.319712385999935], [30.014781819000063, -20.319716385999982], [30.014645823000023, -20.31971738599998], [30.01444182900019, -20.319719385999974], [30.01437483100017, -20.319784390999928], [30.014239835000183, -20.31984939599988], [30.01417283700016, -20.319851395999876], [30.01403784000007, -20.319916400999944], [30.01397084200005, -20.319981405999897], [30.013903844000026, -20.320045410999967], [30.013835846000063, -20.32011041599992], [30.01376884800004, -20.32011041599992], [30.013632852000114, -20.32017742099987], [30.013566854000032, -20.32017742099987], [30.013430858000106, -20.32017942099992], [30.013226864000103, -20.320118416999946], [30.012683879000065, -20.319996407999895], [30.012410887000044, -20.319935403999978], [30.01220689300004, -20.319874398999843], [30.011935900000083, -20.319876399999828], [30.011799903999986, -20.31981539499992], [30.01173190600008, -20.31981539499992], [30.011664908, -20.319752390999952], [30.011595909999983, -20.319754390999947], [30.01139191599998, -20.319691385999874], [30.011189922000142, -20.319695386999967], [30.010985927000092, -20.319632381999952], [30.010712935000015, -20.319571377999978], [30.010508941000012, -20.319510373999833], [30.01044194300016, -20.319511373999887], [30.010373945000083, -20.319511373999887], [30.010306947, -20.319511373999887], [30.010171951000018, -20.319513373999882], [30.010035954000045, -20.319515373999877], [30.009900958000117, -20.319517373999872], [30.009762962000025, -20.319454369999903], [30.00962796600004, -20.319456369999955], [30.009423972000036, -20.319330360999857], [30.009150980000015, -20.31920635199998], [30.008607995000148, -20.31908434299993], [30.008540997000125, -20.31902133799997], [30.00847199900005, -20.319023338999955], [30.00840500100003, -20.319023338999955], [30.008337003000122, -20.31908834399991], [30.00820300700019, -20.31915334799993], [30.007797018000076, -20.319286358999932], [30.007595024000068, -20.319416367999963], [30.007459028000028, -20.3194833739999], [30.007461028000023, -20.319611382999938], [30.00739403000017, -20.319675387999894], [30.007328032000032, -20.31980339699993], [30.00726103400018, -20.319931406999956], [30.007126038000024, -20.31999841199996], [30.006992042000093, -20.320128421999982], [30.006857046000107, -20.32025743199989], [30.006723050000062, -20.320385440999928], [30.00665605200004, -20.32051545099995], [30.006521056000054, -20.320644460999972], [30.006454057999974, -20.320709464999936], [30.006319062000046, -20.320774469999947], [30.006185066000114, -20.320839474999843], [30.005983071, -20.320971484999916], [30.005781077000165, -20.32110049499994], [30.005577083000162, -20.321167499999888], [30.005375089000154, -20.32123450499995], [30.00530809100013, -20.32123450499995], [30.005170095000096, -20.321108495999965], [30.00496610000016, -20.320982486999867], [30.00482910400018, -20.320791472999872], [30.00469010800009, -20.320538453999973], [30.004552112, -20.320347439999978], [30.004484114000093, -20.320156425999983], [30.004346117000125, -20.320030415999952], [30.004278119000162, -20.319840401999954], [30.004209121000144, -20.319712392999918], [30.00414112300001, -20.31964938799996], [30.004072125000164, -20.319521378999923], [30.004003127000146, -20.319395368999892], [30.00372913400014, -20.3190143409999], [30.00352314000014, -20.3188253269999], [30.003454142000123, -20.318634312999905], [30.003445312999986, -20.318618177999895], [30.013673206000078, -20.31325302099998], [30.02026879800013, -20.31451682799991], [30.02116855800017, -20.311702959999877], [30.021215832000166, -20.311829020999937], [30.03207752000003, -20.311899233999952], [30.03672227100003, -20.30898162899996], [30.036766131000093, -20.30897642299982], [30.04124686800003, -20.30476557599991], [30.04750235200015, -20.311975361999885], [30.049984143000017, -20.31287919499988], [30.053001135999978, -20.314889070999982], [30.05327414700014, -20.315655023999966], [30.058248447000096, -20.319733548999977], [30.05731390600016, -20.32025670799993], [30.056012835000047, -20.320279470999935], [30.055945383000164, -20.320280649999972], [30.05504318000004, -20.32081304099995], [30.05423389700013, -20.321429905999935], [30.05341953600015, -20.32178854899996], [30.05241931900008, -20.32197823299998], [30.0511453900001, -20.322172691999924], [30.05033270500013, -20.322617394999952], [30.050261732000024, -20.323651861999906], [30.04973456900018, -20.324694293999926], [30.04939325400011, -20.325905685999885], [30.04886776800015, -20.327034189999893], [30.04815473100018, -20.32790765899989], [30.04836253300016, -20.329195567999875], [30.048109067000155, -20.330233220999844], [30.047946841000055, -20.331269280999948], [30.04687556200014, -20.33249340999987], [30.046713328000067, -20.333529469999974], [30.047189800000012, -20.334554384999876], [30.047575035000193, -20.335580889999903], [30.048411436000038, -20.336341209999944], [30.048527628000045, -20.337332669999967], [30.048537762000024, -20.337849106999897], [30.04854958499999, -20.33845161599993], [30.049112267, -20.339216709999903], [30.050041632999978, -20.340061497999898], [30.05069219500018, -20.340652844999966], [30.051623269000117, -20.341583694999827], [30.05236678400007, -20.342259510999952], [30.052839943000095, -20.343112256999973], [30.052028854000184, -20.343643052999937], [30.05104280100005, -20.34434919499995]]]]}}, {"type": "Feature", "properties": {"GID_3": "ZWE.10.14.3_2", "GID_0": "ZWE", "COUNTRY": "Zimbabwe", "GID_1": "ZWE.10_1", "NAME_1": "Midlands", "NL_NAME_1": "NA", "GID_2": "ZWE.10.14_2", "NAME_2": "Zvishavane Urban", "NL_NAME_2": "NA", "NAME_3": "Ward 2", "VARNAME_3": "NA", "NL_NAME_3": "NA", "TYPE_3": "Ward", "ENGTYPE_3": "Ward", "CC_3": "NA", "HASC_3": "NA", "id": "ZWE.10.14.3_2", "name": "Ward 2"}, "geometry": {"type": "MultiPolygon", "coordinates": [[[[30.065157552000073, -20.301999614999943], [30.067348096000103, -20.301287918999947], [30.06743970000008, -20.305935786999953], [30.069808164999984, -20.305722008999908], [30.07082170900003, -20.31402204999995], [30.069557643000053, -20.313779447999934], [30.068836294000164, -20.31422262299992], [30.068114940000157, -20.31466579599993], [30.06658837600014, -20.31503838099991], [30.065157552000073, -20.301999614999943]]]]}}, {"type": "Feature", "properties": {"GID_3": "ZWE.10.14.4_2", "GID_0": "ZWE", "COUNTRY": "Zimbabwe", "GID_1": "ZWE.10_1", "NAME_1": "Midlands", "NL_NAME_1": "NA", "GID_2": "ZWE.10.14_2", "NAME_2": "Zvishavane Urban", "NL_NAME_2": "NA", "NAME_3": "Ward 3", "VARNAME_3": "NA", "NL_NAME_3": "NA", "TYPE_3": "Ward", "ENGTYPE_3": "Ward", "CC_3": "NA", "HASC_3": "NA", "id": "ZWE.10.14.4_2", "name": "Ward 3"}, "geometry": {"type": "MultiPolygon", "coordinates": [[[[30.06483867700007, -20.29909328399998], [30.064901426000176, -20.29966521599988], [30.065157552000073, -20.301999614999943], [30.06658837600014, -20.31503838099991], [30.068114940000157, -20.31466579599993], [30.068836294000164, -20.31422262299992], [30.069557643000053, -20.313779447999934], [30.07082170900003, -20.31402204999995], [30.071649130000026, -20.31339829399991], [30.072445433000098, -20.313364615999888], [30.072406117000185, -20.313772809999932], [30.072370703000104, -20.3142900389999], [30.072063297000057, -20.314898149999863], [30.07134280200006, -20.315384370999936], [30.07085377800007, -20.316038723999895], [30.070178889000147, -20.316524139999842], [30.069821608000154, -20.316917871999976], [30.069604571000013, -20.317481342999884], [30.069526081000106, -20.31812847999987], [30.069264274000034, -20.31873578799997], [30.06903397700006, -20.319326820999834], [30.068960247000177, -20.31951603899995], [30.068194953000102, -20.320046087999913], [30.06717745000003, -20.320405414999982], [30.066696385000114, -20.320416803999933], [30.06569705300018, -20.320649595999953], [30.06519950600017, -20.320873579999898], [30.06455916800013, -20.32079871199994], [30.063923918000114, -20.32098205699998], [30.06329121100009, -20.321294506999834], [30.06256896000008, -20.321694626999886], [30.06117276700013, -20.322196945999963], [30.059237719000066, -20.320544624999968], [30.058248447000096, -20.319733548999977], [30.05327414700014, -20.315655023999966], [30.059612415000174, -20.31175568099991], [30.059525304000147, -20.30245565599995], [30.05951964600007, -20.30185124299993], [30.060271372000045, -20.301832867999906], [30.062159976000032, -20.3004221729999], [30.06278668100009, -20.299808484999915], [30.062948802999983, -20.298772423999935], [30.06483867700007, -20.29909328399998]]]]}}, {"type": "Feature", "properties": {"GID_3": "ZWE.10.14.5_2", "GID_0": "ZWE", "COUNTRY": "Zimbabwe", "GID_1": "ZWE.10_1", "NAME_1": "Midlands", "NL_NAME_1": "NA", "GID_2": "ZWE.10.14_2", "NAME_2": "Zvishavane Urban", "NL_NAME_2": "NA", "NAME_3": "Ward 4", "VARNAME_3": "NA", "NL_NAME_3": "NA", "TYPE_3": "Ward", "ENGTYPE_3": "Ward", "CC_3": "NA", "HASC_3": "NA", "id": "ZWE.10.14.5_2", "name": "Ward 4"}, "geometry": {"type": "MultiPolygon", "coordinates": [[[[30.06903139100001, -20.296312284999942], [30.06785743100005, -20.296958375999907], [30.06757817500005, -20.298002461999886], [30.06657474499997, -20.29802006099993], [30.06557978799998, -20.29846801499997], [30.06483867700007, -20.29909328399998], [30.062948802999983, -20.298772423999935], [30.06278668100009, -20.299808484999915], [30.062159976000032, -20.3004221729999], [30.060271372000045, -20.301832867999906], [30.05951964600007, -20.30185124299993], [30.05937552, -20.286441878999938], [30.05971351000011, -20.28637487399982], [30.059984503000067, -20.28637087299984], [30.06018849700007, -20.286368872999958], [30.060255495000092, -20.286366872999963], [30.060257495000087, -20.286494881999886], [30.060325493, -20.286557886999958], [30.060325493, -20.28662289199991], [30.060394491000068, -20.286750900999948], [30.060531487, -20.28687691099998], [30.060735482000098, -20.28700191999991], [30.060873478000133, -20.28706392399988], [30.06107547199997, -20.28712492899996], [30.061279465999974, -20.287122928999963], [30.06141446200013, -20.28712092799998], [30.06161645700007, -20.287053922999974], [30.06175245300011, -20.287053922999974], [30.063303408000138, -20.28626786399991], [30.063505402000146, -20.28613685399995], [30.063774394000177, -20.285941838999975], [30.064045386000032, -20.285746823999887], [30.06424738000004, -20.285615813999982], [30.06431337800018, -20.285550808999915], [30.065794335000078, -20.284573735999913], [30.065929332000167, -20.284572735999916], [30.065998330000184, -20.284572735999916], [30.068531259000054, -20.28729093599992], [30.068599257000187, -20.287417945999948], [30.068670254999972, -20.287671964999845], [30.06873825400004, -20.28786497899989], [30.068740254000033, -20.28799198799993], [30.06880925200005, -20.28811799799996], [30.068811252000046, -20.288246006999827], [30.068880250000063, -20.28837401699991], [30.06888225000006, -20.288565030999905], [30.068883250000113, -20.288692039999944], [30.06895224800013, -20.28882004999997], [30.06895224800013, -20.288948058999893], [30.068954248000125, -20.28907606899992], [30.069023246000143, -20.28913907399982], [30.069023247000075, -20.289204077999955], [30.06902524700007, -20.289331087999983], [30.069027247000065, -20.289522101999978], [30.06909524499997, -20.289585106999937], [30.06909524499997, -20.289778120999927], [30.069234241000117, -20.29015914899992], [30.069236241000112, -20.290224153999873], [30.06930523900013, -20.290350163999904], [30.06930523900013, -20.29041516899997], [30.069307239000125, -20.290543177999893], [30.06930923900012, -20.29073319199989], [30.069242241000097, -20.290863201999912], [30.06884725400016, -20.292082292999964], [30.06871425800017, -20.29233931199991], [30.068580262000125, -20.292534326999885], [30.068580262000125, -20.292597331999957], [30.068395534000103, -20.294036209999888], [30.068391268000084, -20.294069440999976], [30.068419396000138, -20.29412162599988], [30.06903139100001, -20.296312284999942]]]]}}, {"type": "Feature", "properties": {"GID_3": "ZWE.10.14.6_2", "GID_0": "ZWE", "COUNTRY": "Zimbabwe", "GID_1": "ZWE.10_1", "NAME_1": "Midlands", "NL_NAME_1": "NA", "GID_2": "ZWE.10.14_2", "NAME_2": "Zvishavane Urban", "NL_NAME_2": "NA", "NAME_3": "Ward 5", "VARNAME_3": "NA", "NL_NAME_3": "NA", "TYPE_3": "Ward", "ENGTYPE_3": "Ward", "CC_3": "NA", "HASC_3": "NA", "id": "ZWE.10.14.6_2", "name": "Ward 5"}, "geometry": {"type": "MultiPolygon", "coordinates": [[[[30.072445433000098, -20.313364615999888], [30.07378022400013, -20.313308154999845], [30.074476553000068, -20.315799873999936], [30.075588611000057, -20.31809132099994], [30.076334218000056, -20.319627630999946], [30.07338474300019, -20.321139308999875], [30.072449444000142, -20.319993396999905], [30.06745645000018, -20.323654334999958], [30.06695380399998, -20.32362010999998], [30.066080272000193, -20.323291038999912], [30.06539260900007, -20.32313090499997], [30.064702403000126, -20.322841659999938], [30.06377902100013, -20.32229819799994], [30.063421711000046, -20.322691919999897], [30.062783908000142, -20.322746154999948], [30.062249504000135, -20.323116334999952], [30.06117276700013, -20.322196945999963], [30.06256896000008, -20.321694626999886], [30.06329121100009, -20.321294506999834], [30.063923918000114, -20.32098205699998], [30.06455916800013, -20.32079871199994], [30.06519950600017, -20.320873579999898], [30.06569705300018, -20.320649595999953], [30.066696385000114, -20.320416803999933], [30.06717745000003, -20.320405414999982], [30.068194953000102, -20.320046087999913], [30.068960247000177, -20.31951603899995], [30.06903397700006, -20.319326820999834], [30.069264274000034, -20.31873578799997], [30.069526081000106, -20.31812847999987], [30.069604571000013, -20.317481342999884], [30.069821608000154, -20.316917871999976], [30.070178889000147, -20.316524139999842], [30.07085377800007, -20.316038723999895], [30.07134280200006, -20.315384370999936], [30.072063297000057, -20.314898149999863], [30.072370703000104, -20.3142900389999], [30.072406117000185, -20.313772809999932], [30.072445433000098, -20.313364615999888]]]]}}, {"type": "Feature", "properties": {"GID_3": "ZWE.10.14.7_2", "GID_0": "ZWE", "COUNTRY": "Zimbabwe", "GID_1": "ZWE.10_1", "NAME_1": "Midlands", "NL_NAME_1": "NA", "GID_2": "ZWE.10.14_2", "NAME_2": "Zvishavane Urban", "NL_NAME_2": "NA", "NAME_3": "Ward 6", "VARNAME_3": "NA", "NL_NAME_3": "NA", "TYPE_3": "Ward", "ENGTYPE_3": "Ward", "CC_3": "NA", "HASC_3": "NA", "id": "ZWE.10.14.7_2", "name": "Ward 6"}, "geometry": {"type": "MultiPolygon", "coordinates": [[[[30.053001135999978, -20.314889070999982], [30.049984143000017, -20.31287919499988], [30.04750235200015, -20.311975361999885], [30.04124686800003, -20.30476557599991], [30.036766131000093, -20.30897642299982], [30.03672227100003, -20.30898162899996], [30.03207752000003, -20.311899233999952], [30.021215832000166, -20.311829020999937], [30.02116855800017, -20.311702959999877], [30.02026879800013, -20.31451682799991], [30.013673206000078, -20.31325302099998], [30.003445312999986, -20.318618177999895], [30.003315146000148, -20.31838029399995], [30.00324614800013, -20.318190279999953], [30.003175149000015, -20.31780625199997], [30.003105151000113, -20.317551232999904], [30.003036153000096, -20.317425222999873], [30.00296715500008, -20.31729721399995], [30.00289715700012, -20.317169203999924], [30.00289715700012, -20.317106199999955], [30.002828159000103, -20.31697818999993], [30.002760160000093, -20.316916185999958], [30.002691162000076, -20.316853180999885], [30.00255516600015, -20.316727171999958], [30.002351172000147, -20.316666166999937], [30.002147178000143, -20.316540157999896], [30.00187518500013, -20.316414148999968], [30.001806187000113, -20.316351143999896], [30.001737189000096, -20.316225134999968], [30.001669191000133, -20.316162129999896], [30.001533195000093, -20.316099125999926], [30.001531195000098, -20.316034120999973], [30.001394199000117, -20.315781101999903], [30.00125720200009, -20.315655092999975], [30.001188204000016, -20.31552708299995], [30.001051208000092, -20.31533806899995], [30.000915212, -20.315210059999913], [30.00077821600007, -20.315022045999967], [30.000776216000077, -20.31489403599994], [30.00064121900016, -20.314831031999972], [30.000368227000138, -20.314642017999972], [30.000164233000135, -20.31451600899993], [29.99110648500016, -20.306149391999952], [29.99168746800018, -20.305589349999877], [29.994486387, -20.303142165999816], [29.994619382999986, -20.30302515699998], [29.995016370000087, -20.301856068999882], [29.994842374000086, -20.299894923999886], [29.995050367000147, -20.298508819999938], [29.995132365000188, -20.298307804999922], [29.995273360000056, -20.297430739999925], [29.99531935800013, -20.296389661999967], [29.99536535599998, -20.296234650999907], [29.99539735500008, -20.29616064499993], [29.99608433500009, -20.29548459399996], [29.996257330000105, -20.295366584999954], [29.999679232000062, -20.294273501999896], [30.000017222000167, -20.29474653699998], [30.00606104700006, -20.291370280999956], [30.03088632900011, -20.280093424999848], [30.031029325000077, -20.279939412999965], [30.039479081000025, -20.276160125999922], [30.04982579000017, -20.282472589999884], [30.049879788, -20.28239558399997], [30.05019178000009, -20.28258859799996], [30.05305669900008, -20.28460074599991], [30.053194695000116, -20.28472675499995], [30.041352381000138, -20.29401749999994], [30.043824206000068, -20.299115939999922], [30.04977380100007, -20.304695038999967], [30.050956268999983, -20.30915172999994], [30.053001135999978, -20.314889070999982]]]]}}, {"type": "Feature", "properties": {"GID_3": "ZWE.10.14.8_2", "GID_0": "ZWE", "COUNTRY": "Zimbabwe", "GID_1": "ZWE.10_1", "NAME_1": "Midlands", "NL_NAME_1": "NA", "GID_2": "ZWE.10.14_2", "NAME_2": "Zvishavane Urban", "NL_NAME_2": "NA", "NAME_3": "Ward 7", "VARNAME_3": "NA", "NL_NAME_3": "NA", "TYPE_3": "Ward", "ENGTYPE_3": "Ward", "CC_3": "NA", "HASC_3": "NA", "id": "ZWE.10.14.8_2", "name": "Ward 7"}, "geometry": {"type": "MultiPolygon", "coordinates": [[[[30.05327414700014, -20.315655023999966], [30.053001135999978, -20.314889070999982], [30.050956268999983, -20.30915172999994], [30.04977380100007, -20.304695038999967], [30.043824206000068, -20.299115939999922], [30.041352381000138, -20.29401749999994], [30.053194695000116, -20.28472675499995], [30.05346468800019, -20.28485076399994], [30.05367068200013, -20.284976773999972], [30.053875676000075, -20.2851027829999], [30.05407967100018, -20.285163786999874], [30.054283665000185, -20.285289796999905], [30.054487659000188, -20.28541380599995], [30.054622655000117, -20.28547680999992], [30.05489564800007, -20.285600818999967], [30.055030644000055, -20.285600818999967], [30.05523463800006, -20.285661823999874], [30.0553706340001, -20.28565982299989], [30.055439632000173, -20.28565982299989], [30.055505630000084, -20.285657822999895], [30.05564162600018, -20.2856558229999], [30.055709624000087, -20.2856558229999], [30.05591261900014, -20.285653822999905], [30.056182611000054, -20.28564982199987], [30.05631860700015, -20.285647821999873], [30.05631860700015, -20.28558281699992], [30.056387605000168, -20.28558281699992], [30.05686059100003, -20.285577815999943], [30.057064586000138, -20.285638820999907], [30.057199582000123, -20.285636820999855], [30.05733457800011, -20.285636819999922], [30.057403576000127, -20.285699824999938], [30.057403576000127, -20.285762829999953], [30.05740557600012, -20.28582783499985], [30.057472574000144, -20.285890838999933], [30.05747457400014, -20.28608085299993], [30.057476574000134, -20.286208862999956], [30.057546572000035, -20.28639987699995], [30.05754657300014, -20.28659189099983], [30.05761757100015, -20.286719900999856], [30.057619571000146, -20.28691091499985], [30.057685569000057, -20.28697391999998], [30.05775456700013, -20.28703692399995], [30.05782356500015, -20.287099928999965], [30.058027559000152, -20.28716293399998], [30.05857054400019, -20.287410951999902], [30.058841536000045, -20.287408950999918], [30.058979532000137, -20.287406950999923], [30.05904553000005, -20.28734194599997], [30.05904353000011, -20.287213936999876], [30.05904353000011, -20.28714893199998], [30.05904253000017, -20.28702192199995], [30.059040530000175, -20.28689391299997], [30.059040530000175, -20.286830907999956], [30.059040530000175, -20.286765902999946], [30.059040530000175, -20.286702898999977], [30.05903853, -20.28663789399991], [30.05903853, -20.28657488899995], [30.059104528000148, -20.286509883999884], [30.05937552, -20.286441878999938], [30.05951964600007, -20.30185124299993], [30.059525304000147, -20.30245565599995], [30.059612415000174, -20.31175568099991], [30.05327414700014, -20.315655023999966]]]]}}, {"type": "Feature", "properties": {"GID_3": "ZWE.10.14.9_2", "GID_0": "ZWE", "COUNTRY": "Zimbabwe", "GID_1": "ZWE.10_1", "NAME_1": "Midlands", "NL_NAME_1": "NA", "GID_2": "ZWE.10.14_2", "NAME_2": "Zvishavane Urban", "NL_NAME_2": "NA", "NAME_3": "Ward 8", "VARNAME_3": "NA", "NL_NAME_3": "NA", "TYPE_3": "Ward", "ENGTYPE_3": "Ward", "CC_3": "NA", "HASC_3": "NA", "id": "ZWE.10.14.9_2", "name": "Ward 8"}, "geometry": {"type": "MultiPolygon", "coordinates": [[[[30.062249504000135, -20.323116334999952], [30.062783908000142, -20.322746154999948], [30.063421711000046, -20.322691919999897], [30.06377902100013, -20.32229819799994], [30.064702403000126, -20.322841659999938], [30.06539260900007, -20.32313090499997], [30.066080272000193, -20.323291038999912], [30.06695380399998, -20.32362010999998], [30.06745645000018, -20.323654334999958], [30.072449444000142, -20.319993396999905], [30.07338474300019, -20.321139308999875], [30.076334218000056, -20.319627630999946], [30.07961437500012, -20.326385865999896], [30.077794675000177, -20.335889002999977], [30.066944952000142, -20.327125396999918], [30.062249504000135, -20.323116334999952]]]]}}, {"type": "Feature", "properties": {"GID_3": "ZWE.10.14.10_2", "GID_0": "ZWE", "COUNTRY": "Zimbabwe", "GID_1": "ZWE.10_1", "NAME_1": "Midlands", "NL_NAME_1": "NA", "GID_2": "ZWE.10.14_2", "NAME_2": "Zvishavane Urban", "NL_NAME_2": "NA", "NAME_3": "Ward 9", "VARNAME_3": "NA", "NL_NAME_3": "NA", "TYPE_3": "Ward", "ENGTYPE_3": "Ward", "CC_3": "NA", "HASC_3": "NA", "id": "ZWE.10.14.10_2", "name": "Ward 9"}, "geometry": {"type": "MultiPolygon", "coordinates": [[[[30.07378022400013, -20.313308154999845], [30.06903139100001, -20.296312284999942], [30.068419396000138, -20.29412162599988], [30.06852926400012, -20.294325459999868], [30.068597262000083, -20.294323459999873], [30.068664261000038, -20.294323459999873], [30.07391911300016, -20.298088736999944], [30.085989774000097, -20.30612732799989], [30.08353184800012, -20.31133671699996], [30.083464850000098, -20.31133671699996], [30.101874334000115, -20.325817782999877], [30.10176533800012, -20.32601479799996], [30.101698340000098, -20.32601479799996], [30.098753442000145, -20.350733638999884], [30.098031469000034, -20.360074333999933], [30.098395471000117, -20.3765665599999], [30.09586054100015, -20.373848359999897], [30.095793543000127, -20.373848359999897], [30.095519551000166, -20.37359634099994], [30.095246559000145, -20.37347233199995], [30.09252663600006, -20.37261026999994], [30.09245763800004, -20.37254726499998], [30.09245763800004, -20.37248325999991], [30.092389640000135, -20.37242025599994], [30.092389640000135, -20.372357250999983], [30.092320642000118, -20.37229424599991], [30.092251643000168, -20.372103231999915], [30.092114647000187, -20.37191221799992], [30.092043649000175, -20.371721203999925], [30.091547662000096, -20.36955304299994], [30.091547662000096, -20.36949003799998], [30.09161466000012, -20.369425033999846], [30.091610659000082, -20.36910500999994], [30.091677657000105, -20.368977], [30.09167565700011, -20.368783985999983], [30.091673657000115, -20.36859297199993], [30.09167165700012, -20.36840095699995], [30.091603658999986, -20.368144937999887], [30.091530661000036, -20.367826914999966], [30.091393665000055, -20.367507890999946], [30.09132266600011, -20.36725387199988], [30.091116672000112, -20.366937848999953], [30.090977676000193, -20.366746834999958], [30.090842680000037, -20.366620825999973], [30.0906386850001, -20.366494815999943], [30.08735377700009, -20.363465592999944], [30.086613799000133, -20.364114641999947], [30.08654680100011, -20.364116641999942], [30.086415805000115, -20.36450167099997], [30.086501804000193, -20.366481817999954], [30.086569802000156, -20.366544822999913], [30.08657180200015, -20.36660982799998], [30.086573802000146, -20.366800841999975], [30.08650480400013, -20.366801841999973], [30.08650480400013, -20.36686484699993], [30.086371808000138, -20.36693185199988], [30.086236812000152, -20.366996856999947], [30.086100816000055, -20.367061860999968], [30.085965819000023, -20.367128866999906], [30.085831823000092, -20.367192870999872], [30.085762825000074, -20.36725787599994], [30.085696827000106, -20.367259875999935], [30.085492833000103, -20.36726187699992], [30.08528983900004, -20.36732888199998], [30.08501984700007, -20.367332881999914], [30.084881851000034, -20.367269877999945], [30.084813851999968, -20.36714186799992], [30.084675856000104, -20.36701585899982], [30.084540860000118, -20.36688984999995], [30.084403864000024, -20.366826844999878], [30.084267868000097, -20.36670083599995], [30.08413087100007, -20.36657482699991], [30.084061873000053, -20.36644781699988], [30.083991875000095, -20.366321807999952], [30.083991875000095, -20.366256802999885], [30.08385387900006, -20.366130793999957], [30.083785881000097, -20.36600278399993], [30.08358088700004, -20.36581376999993], [30.083443890000126, -20.365688760999944], [30.083304894000037, -20.365306732999954], [30.08323589600019, -20.36517872299987], [30.08316589800006, -20.36498870899993], [30.082961904000058, -20.36479969499993], [30.082755909000184, -20.364545676999967], [30.08248091700017, -20.364293657999895], [30.08213992600008, -20.36397763499997], [30.081797936000044, -20.36366261099994], [30.081591942000045, -20.363473597999928], [30.081454946000065, -20.363347587999954], [30.081318949000092, -20.363284583999928], [30.081250951000186, -20.363221578999912], [30.081112955000094, -20.363095569999814], [30.08090896100009, -20.36303356499991], [30.080637969000065, -20.362973560999933], [30.080365976000053, -20.36284755199989], [30.080092984000032, -20.362724542999956], [30.07988899000003, -20.362662537999938], [30.079752994000103, -20.362600533999967], [30.07968699600019, -20.362601533999964], [30.079483001000085, -20.36260353399996], [30.079279007000082, -20.36254252999987], [30.079074012999968, -20.36254452999998], [30.07493913100018, -20.362468526999976], [30.07216621100008, -20.36320458399996], [30.072031215000095, -20.363206583999954], [30.071828221000146, -20.36327358899996], [30.0710832420001, -20.36328058999993], [30.070812250000017, -20.363221585999952], [30.07054125700006, -20.363223585999947], [30.070337263000056, -20.363162581999916], [30.070064271000035, -20.363166581999906], [30.069658283000024, -20.36317258299988], [30.069387290000066, -20.363111578999963], [30.06911629800004, -20.363113578999958], [30.068981302000054, -20.363115578999953], [30.068708310000034, -20.363055574999976], [30.06802932900007, -20.362935565999976], [30.067825335000066, -20.362874561999888], [30.067689339000026, -20.36281155699993], [30.067621341000063, -20.36281155699993], [30.067485345000193, -20.362750552999955], [30.067144354000106, -20.36262654399991], [30.066738366000095, -20.362502534999862], [30.065788393000105, -20.36245153199991], [30.06544840200013, -20.36239252799993], [30.065311405999978, -20.362329522999914], [30.065107411999975, -20.36226851899994], [30.06483642000012, -20.362207513999977], [30.0645634280001, -20.36214650999989], [30.06429243500014, -20.362149509999938], [30.064157439000155, -20.36208650599997], [30.064088441000138, -20.362024500999837], [30.063953445000152, -20.361962496999922], [30.063884447000135, -20.361898491999966], [30.063747450999983, -20.361772482999925], [30.063678453000136, -20.361709477999966], [30.063610454000127, -20.361583468999925], [30.06354145600011, -20.36151846399997], [30.063472458000092, -20.3614554589999], [30.06340446000013, -20.36132944999997], [30.06333546200011, -20.3612664449999], [30.063266464000094, -20.361139435999974], [30.063129468000113, -20.361013426999932], [30.062994472000128, -20.3608874169999], [30.06285647500016, -20.360761407999973], [30.062788477000083, -20.360696402999906], [30.06278647700009, -20.36056839399987], [30.062719479, -20.36050538899991], [30.062648481, -20.36037937999987], [30.06258048300009, -20.360252369999955], [30.062511485000073, -20.360189365999872], [30.062511485000073, -20.36012636099997], [30.062511485000073, -20.36006135599996], [30.062509485000078, -20.35986834199997], [30.062507485000083, -20.359677327999975], [30.062505485000088, -20.359550317999947], [30.062503484, -20.359294298999885], [30.06257048200007, -20.359164289999967], [30.063228462000154, -20.35717514099997], [30.063228462000154, -20.357110135999903], [30.06322646200016, -20.35691912199991], [30.063224462000164, -20.356727107999916], [30.063291460000187, -20.35659909799989], [30.063289460000192, -20.356471088999967], [30.063289460000192, -20.3564060839999], [30.063287460000026, -20.356216069999903], [30.063287460000026, -20.35615106499995], [30.063219461000187, -20.356025055999908], [30.063148463000175, -20.355897045999882], [30.063148463000175, -20.35583204099993], [30.063079465000158, -20.35576903699996], [30.063011467000024, -20.355706031999887], [30.062944469000172, -20.35564302699993], [30.062875471000154, -20.35558002299996], [30.06280747300019, -20.355518017999884], [30.062738475000174, -20.355455013999915], [30.062669477000156, -20.355455013999915], [30.062603479000188, -20.35545701399991], [30.062465483000153, -20.35539400899995], [30.062194490000024, -20.355333004999977], [30.061924498000053, -20.355273000999944], [30.06178650200019, -20.355209995999815], [30.061718504000055, -20.35514799099991], [30.061380513000074, -20.355213996999964], [30.061178519000066, -20.355281001999913], [30.06090752700004, -20.355350006999856], [30.06084052900019, -20.35541301199993], [30.06084052900019, -20.355477015999952], [30.060772531000055, -20.355477015999952], [30.060705533000032, -20.355542020999906], [30.06063853500018, -20.355607025999973], [30.0605715370001, -20.355672030999926], [30.060436541000172, -20.355739035999875], [30.06016554900009, -20.355741036999973], [30.060030552000057, -20.355743036999968], [30.059825558000114, -20.355746036999847], [30.059555565999972, -20.35568503299993], [30.05860559299998, -20.355632028999935], [30.05826560300011, -20.355508019999945], [30.058061609000106, -20.35544701599997], [30.057992610000156, -20.3553840109999], [30.05792461200008, -20.35532100699993], [30.057788616000153, -20.35525800199997], [30.057582621999984, -20.355133992999924], [30.05731263000007, -20.355007983999883], [30.057039637000116, -20.35488397499995], [30.056833643000118, -20.354757965999966], [30.056697647000078, -20.354632955999932], [30.056560651000098, -20.354569951999963], [30.056493653000075, -20.35450694699989], [30.056425655000112, -20.354508946999886], [30.056221660000176, -20.354445942999916], [30.05601666600012, -20.35444894299991], [30.055746674000147, -20.354387938999935], [30.05547568200012, -20.35439193899998], [30.055339686000025, -20.354393938999976], [30.05520268900017, -20.354330934999894], [30.055135691000146, -20.354330934999894], [30.054931697000143, -20.354334934999883], [30.054660705000117, -20.354273930999966], [30.05432171500013, -20.354277931999945], [30.05405072200017, -20.35421692699998], [30.05391372600019, -20.3541539229999], [30.05377773000015, -20.354155922999894], [30.053709732000186, -20.354092917999935], [30.05364073400017, -20.354029913999966], [30.053436740000166, -20.353903903999935], [30.05323274500006, -20.353779894999946], [30.053028751000056, -20.353653885999847], [30.052822757000058, -20.353464871999904], [30.05275375900004, -20.353401866999945], [30.05268676100019, -20.353401866999945], [30.05261876200018, -20.353274857999907], [30.05254976400016, -20.353211852999948], [30.052480766000087, -20.353212853999935], [30.052480766000087, -20.35314884899998], [30.05241276800018, -20.353085843999907], [30.052343770000164, -20.353022838999948], [30.052274772000146, -20.35289482999991], [30.052137776000166, -20.35276882099987], [30.05200278000018, -20.352642810999953], [30.051864784000145, -20.35257980699987], [30.05179678500008, -20.352453797999942], [30.051658789000044, -20.352327787999968], [30.051523793000058, -20.35226578399994], [30.05145479500004, -20.35213777399997], [30.051452795000046, -20.352009764999877], [30.051315799000065, -20.351820750999877], [30.051178802000038, -20.351629736999882], [30.05110980400019, -20.35156673199998], [30.05110980400019, -20.35143972299994], [30.051107804000026, -20.35137471799993], [30.051103804000036, -20.350990688999957], [30.051103804000036, -20.35092768399994], [30.05110180400004, -20.35080067499996], [30.05110180400004, -20.35060766099997], [30.051233800000148, -20.35035064099992], [30.051231800000153, -20.350094621999972], [30.051298798000175, -20.350029617999894], [30.051298798000175, -20.349901607999982], [30.05129679800001, -20.34983860299991], [30.05136379600009, -20.349646588999917], [30.051361796000094, -20.349516578999896], [30.051427794, -20.349388569999974], [30.051427794, -20.349260559999948], [30.05149279200009, -20.34913355099991], [30.051492791000157, -20.34894053599993], [30.051490791000163, -20.348875531999965], [30.051488791, -20.348620512999958], [30.051488791, -20.348557507999942], [30.05148579100012, -20.348301488999937], [30.051483791000123, -20.348108473999957], [30.05148179100013, -20.34791845999996], [30.05154878899998, -20.34778845099993], [30.05154878899998, -20.34772544599997], [30.05154878899998, -20.347660440999903], [30.052619757000173, -20.346375344999956], [30.052686755000025, -20.346247334999873], [30.05268475500003, -20.346054320999883], [30.052682755000035, -20.345863306999888], [30.05268175500015, -20.345671291999906], [30.05254375900006, -20.345417273999942], [30.052473761000158, -20.345226258999958], [30.052337764000185, -20.34510124999997], [30.052200768000034, -20.34497524099993], [30.052063772000054, -20.34491223599997], [30.052063772000054, -20.34484723199995], [30.05192577600019, -20.344721221999976], [30.051790780000033, -20.344660217999888], [30.05158678600003, -20.34459721299993], [30.05138279100015, -20.344473203999883], [30.051178797000148, -20.344410199999913], [30.051109799000074, -20.344347194999955], [30.05104280100005, -20.34434919499995], [30.052028854000184, -20.343643052999937], [30.052839943000095, -20.343112256999973], [30.05236678400007, -20.342259510999952], [30.051623269000117, -20.341583694999827], [30.05069219500018, -20.340652844999966], [30.050041632999978, -20.340061497999898], [30.049112267, -20.339216709999903], [30.04854958499999, -20.33845161599993], [30.048537762000024, -20.337849106999897], [30.048527628000045, -20.337332669999967], [30.048411436000038, -20.336341209999944], [30.047575035000193, -20.335580889999903], [30.047189800000012, -20.334554384999876], [30.046713328000067, -20.333529469999974], [30.04687556200014, -20.33249340999987], [30.047946841000055, -20.331269280999948], [30.048109067000155, -20.330233220999844], [30.04836253300016, -20.329195567999875], [30.04815473100018, -20.32790765899989], [30.04886776800015, -20.327034189999893], [30.04939325400011, -20.325905685999885], [30.04973456900018, -20.324694293999926], [30.050261732000024, -20.323651861999906], [30.05033270500013, -20.322617394999952], [30.0511453900001, -20.322172691999924], [30.05241931900008, -20.32197823299998], [30.05341953600015, -20.32178854899996], [30.05423389700013, -20.321429905999935], [30.05504318000004, -20.32081304099995], [30.055945383000164, -20.320280649999972], [30.056012835000047, -20.320279470999935], [30.05731390600016, -20.32025670799993], [30.058248447000096, -20.319733548999977], [30.059237719000066, -20.320544624999968], [30.06117276700013, -20.322196945999963], [30.062249504000135, -20.323116334999952], [30.066944952000142, -20.327125396999918], [30.077794675000177, -20.335889002999977], [30.07961437500012, -20.326385865999896], [30.076334218000056, -20.319627630999946], [30.075588611000057, -20.31809132099994], [30.074476553000068, -20.315799873999936], [30.07378022400013, -20.313308154999845]]]]}}]}