{"type": "FeatureCollection", "features": [{"type": "Feature", "properties": {"GID_3": "ZWE.10.4.1_2", "GID_0": "ZWE", "COUNTRY": "Zimbabwe", "GID_1": "ZWE.10_1", "NAME_1": "Midlands", "NL_NAME_1": "NA", "GID_2": "ZWE.10.4_2", "NAME_2": "Gokwe South Urban", "NL_NAME_2": "NA", "NAME_3": "Ward 1", "VARNAME_3": "NA", "NL_NAME_3": "NA", "TYPE_3": "Ward", "ENGTYPE_3": "Ward", "CC_3": "NA", "HASC_3": "NA", "id": "ZWE.10.4.1_2", "name": "Ward 1"}, "geometry": {"type": "MultiPolygon", "coordinates": [[[[28.940760884000042, -18.210193454999967], [28.941726707999976, -18.206861138999955], [28.95985952200016, -18.21038402599993], [28.95860231800009, -18.215096287999927], [28.95530703100019, -18.21416882099993], [28.95539051600008, -18.215641664999907], [28.95615649700011, -18.218196796999962], [28.9561231080001, -18.221208598999908], [28.953215067000087, -18.22495453399989], [28.94870042500014, -18.221355358999972], [28.94233790100003, -18.21628255099995], [28.943382490000033, -18.21493081099993], [28.943032401000096, -18.213588803999983], [28.940760884000042, -18.210193454999967]]]]}}, {"type": "Feature", "properties": {"GID_3": "ZWE.10.4.2_2", "GID_0": "ZWE", "COUNTRY": "Zimbabwe", "GID_1": "ZWE.10_1", "NAME_1": "Midlands", "NL_NAME_1": "NA", "GID_2": "ZWE.10.4_2", "NAME_2": "Gokwe South Urban", "NL_NAME_2": "NA", "NAME_3": "Ward 2", "VARNAME_3": "NA", "NL_NAME_3": "NA", "TYPE_3": "Ward", "ENGTYPE_3": "Ward", "CC_3": "NA", "HASC_3": "NA", "id": "ZWE.10.4.2_2", "name": "Ward 2"}, "geometry": {"type": "MultiPolygon", "coordinates": [[[[28.917269122000164, -18.232350956999937], [28.91473886100016, -18.227826950999884], [28.914418285000124, -18.22639639099998], [28.917623613000103, -18.225762549999956], [28.925204461000135, -18.22619912799985], [28.925939913000036, -18.21382534499992], [28.926734436000118, -18.212920316999828], [28.927953004000074, -18.21399733499993], [28.940056426000183, -18.217271168999844], [28.940937091000137, -18.218095216999814], [28.93670789100014, -18.22364837999993], [28.936025070000028, -18.22858899499994], [28.936288580000166, -18.234224860999973], [28.936941212000193, -18.23878468099997], [28.93169286900013, -18.239202778999925], [28.92314821500014, -18.236533578999968], [28.917269122000164, -18.232350956999937]]]]}}, {"type": "Feature", "properties": {"GID_3": "ZWE.10.4.3_2", "GID_0": "ZWE", "COUNTRY": "Zimbabwe", "GID_1": "ZWE.10_1", "NAME_1": "Midlands", "NL_NAME_1": "NA", "GID_2": "ZWE.10.4_2", "NAME_2": "Gokwe South Urban", "NL_NAME_2": "NA", "NAME_3": "Ward 3", "VARNAME_3": "NA", "NL_NAME_3": "NA", "TYPE_3": "Ward", "ENGTYPE_3": "Ward", "CC_3": "NA", "HASC_3": "NA", "id": "ZWE.10.4.3_2", "name": "Ward 3"}, "geometry": {"type": "MultiPolygon", "coordinates": [[[[28.940760884000042, -18.210193454999967], [28.943032401000096, -18.213588803999983], [28.943382490000033, -18.21493081099993], [28.94233790100003, -18.21628255099995], [28.940937091000137, -18.218095216999814], [28.940056426000183, -18.217271168999844], [28.927953004000074, -18.21399733499993], [28.926734436000118, -18.212920316999828], [28.925939913000036, -18.21382534499992], [28.925204461000135, -18.22619912799985], [28.917623613000103, -18.225762549999956], [28.914418285000124, -18.22639639099998], [28.912976773000025, -18.21996333599992], [28.91341072700004, -18.204454588999965], [28.914717715000165, -18.20136594499985], [28.916669238999987, -18.202051280999967], [28.92404937700013, -18.202618146999896], [28.93058004900007, -18.20517958599993], [28.93838374800015, -18.207663847999925], [28.93973427200018, -18.20854723099984], [28.940648483000018, -18.210025437999946], [28.940760884000042, -18.210193454999967]]]]}}, {"type": "Feature", "properties": {"GID_3": "ZWE.10.4.4_2", "GID_0": "ZWE", "COUNTRY": "Zimbabwe", "GID_1": "ZWE.10_1", "NAME_1": "Midlands", "NL_NAME_1": "NA", "GID_2": "ZWE.10.4_2", "NAME_2": "Gokwe South Urban", "NL_NAME_2": "NA", "NAME_3": "Ward 4", "VARNAME_3": "NA", "NL_NAME_3": "NA", "TYPE_3": "Ward", "ENGTYPE_3": "Ward", "CC_3": "NA", "HASC_3": "NA", "id": "ZWE.10.4.4_2", "name": "Ward 4"}, "geometry": {"type": "MultiPolygon", "coordinates": [[[[28.94233790100003, -18.21628255099995], [28.94870042500014, -18.221355358999972], [28.94544602800005, -18.225674308999942], [28.947474939000188, -18.227255544999935], [28.946553528000038, -18.22880268199998], [28.945948, -18.234639556999923], [28.946815232, -18.23684034799993], [28.942746220000174, -18.238322068999878], [28.936941212000193, -18.23878468099997], [28.936288580000166, -18.234224860999973], [28.936025070000028, -18.22858899499994], [28.93670789100014, -18.22364837999993], [28.940937091000137, -18.218095216999814], [28.94233790100003, -18.21628255099995]]]]}}, {"type": "Feature", "properties": {"GID_3": "ZWE.10.4.5_2", "GID_0": "ZWE", "COUNTRY": "Zimbabwe", "GID_1": "ZWE.10_1", "NAME_1": "Midlands", "NL_NAME_1": "NA", "GID_2": "ZWE.10.4_2", "NAME_2": "Gokwe South Urban", "NL_NAME_2": "NA", "NAME_3": "Ward 5", "VARNAME_3": "NA", "NL_NAME_3": "NA", "TYPE_3": "Ward", "ENGTYPE_3": "Ward", "CC_3": "NA", "HASC_3": "NA", "id": "ZWE.10.4.5_2", "name": "Ward 5"}, "geometry": {"type": "MultiPolygon", "coordinates": [[[[28.94870042500014, -18.221355358999972], [28.953215067000087, -18.22495453399989], [28.959913058000154, -18.23039714999993], [28.949624313000186, -18.235817364999946], [28.946815232, -18.23684034799993], [28.945948, -18.234639556999923], [28.946553528000038, -18.22880268199998], [28.947474939000188, -18.227255544999935], [28.94544602800005, -18.225674308999942], [28.94870042500014, -18.221355358999972]]]]}}, {"type": "Feature", "properties": {"GID_3": "ZWE.10.4.6_2", "GID_0": "ZWE", "COUNTRY": "Zimbabwe", "GID_1": "ZWE.10_1", "NAME_1": "Midlands", "NL_NAME_1": "NA", "GID_2": "ZWE.10.4_2", "NAME_2": "Gokwe South Urban", "NL_NAME_2": "NA", "NAME_3": "Ward 6", "VARNAME_3": "NA", "NL_NAME_3": "NA", "TYPE_3": "Ward", "ENGTYPE_3": "Ward", "CC_3": "NA", "HASC_3": "NA", "id": "ZWE.10.4.6_2", "name": "Ward 6"}, "geometry": {"type": "MultiPolygon", "coordinates": [[[[28.953215067000087, -18.22495453399989], [28.9561231080001, -18.221208598999908], [28.95615649700011, -18.218196796999962], [28.95539051600008, -18.215641664999907], [28.95530703100019, -18.21416882099993], [28.95860231800009, -18.215096287999927], [28.95985952200016, -18.21038402599993], [28.964604136000162, -18.211305508999885], [28.963584091000087, -18.215993319999882], [28.971280322000098, -18.21752970499989], [28.973114723000094, -18.219306429999904], [28.973185721000107, -18.21937143499997], [28.975840648000144, -18.22092255299998], [28.97597964400012, -18.220920552999814], [28.977098613000067, -18.221633607999934], [28.977098613000067, -18.22170061299994], [28.977102613, -18.221898627999906], [28.977102613, -18.221963632999973], [28.977190611000026, -18.22308972099995], [28.977194612000062, -18.223354740999866], [28.977198612000052, -18.22355275599989], [28.977198612000052, -18.223617760999957], [28.977146614, -18.224744848999933], [28.977146614, -18.22481185399988], [28.97707961600014, -18.224878858999944], [28.977081616000135, -18.225009868999962], [28.977013618, -18.225076874999957], [28.977016618000107, -18.22527688999992], [28.976948620000144, -18.225408900999923], [28.97695062000014, -18.225541910999823], [28.976883622000116, -18.225608915999942], [28.9768146240001, -18.22567592099989], [28.9768146240001, -18.225742926999942], [28.96777588500015, -18.23262246699983], [28.964868967000143, -18.232729476999964], [28.964495977000183, -18.232769480999934], [28.964386870000112, -18.23278968799997], [28.96416073800009, -18.23284960899997], [28.96004268700017, -18.230328853999936], [28.959913058000154, -18.23039714999993], [28.953215067000087, -18.22495453399989]]]]}}]}