{"type": "FeatureCollection", "features": [{"type": "Feature", "properties": {"GID_3": "ZWE.7.7.1_2", "GID_0": "ZWE", "COUNTRY": "Zimbabwe", "GID_1": "ZWE.7_1", "NAME_1": "Masvingo", "NL_NAME_1": "NA", "GID_2": "ZWE.7.7_2", "NAME_2": "Masvingo Urban", "NL_NAME_2": "NA", "NAME_3": "Ward 1", "VARNAME_3": "NA", "NL_NAME_3": "NA", "TYPE_3": "Ward", "ENGTYPE_3": "Ward", "CC_3": "NA", "HASC_3": "NA", "id": "ZWE.7.7.1_2", "name": "Ward 1"}, "geometry": {"type": "MultiPolygon", "coordinates": [[[[30.815931515999978, -20.073983885999894], [30.81646564500005, -20.073839644999964], [30.818169355000123, -20.07279654299998], [30.81964196300015, -20.072176234999915], [30.820751768000036, -20.073360513999944], [30.820729707000055, -20.074956485999905], [30.82230317000017, -20.075188732999948], [30.824214442000027, -20.07542512799995], [30.826017521000097, -20.075340921999953], [30.82758660200011, -20.075892317999887], [30.828127620000146, -20.077495223999904], [30.829360387000065, -20.07793605199987], [30.83060927000014, -20.07720648499992], [30.832293919000165, -20.07754642899988], [30.832840842, -20.078723728999876], [30.832535970000038, -20.07991390299992], [30.825417095000148, -20.078677524999932], [30.824554859000045, -20.07957036799985], [30.822257389000185, -20.080620613999884], [30.822040099000162, -20.082529062999868], [30.82123545200011, -20.082468392999886], [30.82021815300004, -20.082252877999906], [30.819852151000134, -20.08153801599991], [30.820553622000148, -20.0812929839999], [30.82082908300015, -20.080788996999956], [30.82099786600014, -20.08023295399994], [30.82063152400019, -20.07859127999984], [30.81665788100014, -20.07859291999995], [30.815931515999978, -20.073983885999894]]]]}}, {"type": "Feature", "properties": {"GID_3": "ZWE.7.7.2_2", "GID_0": "ZWE", "COUNTRY": "Zimbabwe", "GID_1": "ZWE.7_1", "NAME_1": "Masvingo", "NL_NAME_1": "NA", "GID_2": "ZWE.7.7_2", "NAME_2": "Masvingo Urban", "NL_NAME_2": "NA", "NAME_3": "Ward 10", "VARNAME_3": "NA", "NL_NAME_3": "NA", "TYPE_3": "Ward", "ENGTYPE_3": "Ward", "CC_3": "NA", "HASC_3": "NA", "id": "ZWE.7.7.2_2", "name": "Ward 10"}, "geometry": {"type": "MultiPolygon", "coordinates": [[[[30.839583432000154, -20.027527465999867], [30.88677259200017, -20.04146299499996], [30.886931065, -20.041524380999874], [30.88689299100008, -20.04158936999994], [30.857857082000066, -20.092744721999907], [30.85366833700016, -20.096304985999893], [30.85852926000007, -20.09907712899991], [30.86078183500001, -20.101386219999938], [30.860898790000192, -20.103440678999846], [30.861023184000032, -20.104947749999837], [30.86217084600014, -20.105782881999914], [30.864204353000048, -20.105396913999982], [30.866354878000095, -20.107065382999906], [30.866158118000158, -20.109517858999936], [30.865787843000135, -20.111907266999935], [30.863008896000167, -20.11165866499988], [30.846616316999985, -20.126540249999948], [30.84656104100003, -20.13057534299992], [30.83663888300015, -20.14173142599998], [30.830154988000174, -20.113593855999966], [30.81774943100004, -20.116414407999912], [30.826123715000165, -20.109347984999943], [30.83180231300014, -20.105080630999907], [30.832843749000176, -20.103071515999943], [30.833224083, -20.09999010499996], [30.83183528800015, -20.08933464499995], [30.83790267600017, -20.087383890999945], [30.83868656900006, -20.087712744999976], [30.839722204000054, -20.094323288999874], [30.846186402000058, -20.091103379999936], [30.8478639760001, -20.091975189999914], [30.85108249700005, -20.087225617999877], [30.852328473000114, -20.086708696999835], [30.853020087000175, -20.085546514999976], [30.85258849700017, -20.08415783099997], [30.851804586000014, -20.083829037999976], [30.851141992000123, -20.082863211999893], [30.851062753, -20.080414636999876], [30.849968622000176, -20.078060121999954], [30.85031078900016, -20.077745034999964], [30.84783930700013, -20.077289252999947], [30.84773541900006, -20.076649479999844], [30.84627564100009, -20.076334117999863], [30.84493749699999, -20.07536003099989], [30.845313111000166, -20.072597756999983], [30.844211838000092, -20.07077521699989], [30.842530135000118, -20.070222591999936], [30.841874930000188, -20.068724740999983], [30.841908416000138, -20.066277547999903], [30.842604364000124, -20.06479620399989], [30.843740490000187, -20.0640651519999], [30.84397876600019, -20.06311030199987], [30.844815278000112, -20.06125975699996], [30.844273433000126, -20.058515770999918], [30.84373160100006, -20.055771783999944], [30.843778340000142, -20.052350634999982], [30.844118404000028, -20.048659323999857], [30.843871789000104, -20.045508330999894], [30.84216042500009, -20.043571286999963], [30.8407293300001, -20.042321995999885], [30.839877422000143, -20.041079770999943], [30.838461349000113, -20.03873569899997], [30.83834464900002, -20.036681242999975], [30.839397458000178, -20.03381986499994], [30.83986548400003, -20.03136194299998], [30.839595588000066, -20.029556894999928], [30.839583432000154, -20.027527465999867]]]]}}, {"type": "Feature", "properties": {"GID_3": "ZWE.7.7.3_2", "GID_0": "ZWE", "COUNTRY": "Zimbabwe", "GID_1": "ZWE.7_1", "NAME_1": "Masvingo", "NL_NAME_1": "NA", "GID_2": "ZWE.7.7_2", "NAME_2": "Masvingo Urban", "NL_NAME_2": "NA", "NAME_3": "Ward 2", "VARNAME_3": "NA", "NL_NAME_3": "NA", "TYPE_3": "Ward", "ENGTYPE_3": "Ward", "CC_3": "NA", "HASC_3": "NA", "id": "ZWE.7.7.3_2", "name": "Ward 2"}, "geometry": {"type": "MultiPolygon", "coordinates": [[[[30.815931515999978, -20.073983885999894], [30.81665788100014, -20.07859291999995], [30.82063152400019, -20.07859127999984], [30.82099786600014, -20.08023295399994], [30.82082908300015, -20.080788996999956], [30.820553622000148, -20.0812929839999], [30.819852151000134, -20.08153801599991], [30.82021815300004, -20.082252877999906], [30.82123545200011, -20.082468392999886], [30.822040099000162, -20.082529062999868], [30.821032994, -20.08545948099993], [30.82047643700008, -20.08687329399993], [30.81912994200013, -20.087161091999974], [30.81659469800013, -20.08702880599992], [30.815542604000143, -20.0862857489999], [30.813669844000117, -20.08496305299991], [30.810983377000127, -20.080370773999903], [30.811116529000117, -20.079350166999916], [30.80889614199998, -20.074916448999886], [30.809918661000154, -20.074929134999877], [30.811509821000186, -20.073884705999944], [30.81276464400014, -20.072729679999952], [30.815335233000155, -20.074144909999916], [30.815931515999978, -20.073983885999894]]]]}}, {"type": "Feature", "properties": {"GID_3": "ZWE.7.7.4_2", "GID_0": "ZWE", "COUNTRY": "Zimbabwe", "GID_1": "ZWE.7_1", "NAME_1": "Masvingo", "NL_NAME_1": "NA", "GID_2": "ZWE.7.7_2", "NAME_2": "Masvingo Urban", "NL_NAME_2": "NA", "NAME_3": "Ward 3", "VARNAME_3": "NA", "NL_NAME_3": "NA", "TYPE_3": "Ward", "ENGTYPE_3": "Ward", "CC_3": "NA", "HASC_3": "NA", "id": "ZWE.7.7.4_2", "name": "Ward 3"}, "geometry": {"type": "MultiPolygon", "coordinates": [[[[30.80889614199998, -20.074916448999886], [30.811116529000117, -20.079350166999916], [30.810983377000127, -20.080370773999903], [30.813669844000117, -20.08496305299991], [30.815542604000143, -20.0862857489999], [30.814362168000173, -20.087837471999876], [30.80846012300009, -20.083824188999927], [30.808210831000054, -20.08459037299997], [30.80766122500006, -20.085496837999926], [30.80580396200014, -20.087756982999963], [30.804786473000036, -20.089208867999844], [30.80256519400018, -20.091165329999967], [30.79975273700012, -20.092410816999916], [30.791606722000154, -20.07112457199986], [30.79374019500017, -20.072173761999977], [30.79609727900015, -20.072735270999885], [30.798233646000085, -20.072974752999983], [30.800371507000136, -20.07310781199982], [30.802180480000175, -20.07259826099994], [30.804085740000062, -20.073260456999833], [30.806448813000088, -20.07339624399998], [30.806991083000185, -20.07489279699996], [30.80889614199998, -20.074916448999886]]]]}}, {"type": "Feature", "properties": {"GID_3": "ZWE.7.7.5_2", "GID_0": "ZWE", "COUNTRY": "Zimbabwe", "GID_1": "ZWE.7_1", "NAME_1": "Masvingo", "NL_NAME_1": "NA", "GID_2": "ZWE.7.7_2", "NAME_2": "Masvingo Urban", "NL_NAME_2": "NA", "NAME_3": "Ward 4", "VARNAME_3": "NA", "NL_NAME_3": "NA", "TYPE_3": "Ward", "ENGTYPE_3": "Ward", "CC_3": "NA", "HASC_3": "NA", "id": "ZWE.7.7.5_2", "name": "Ward 4"}, "geometry": {"type": "MultiPolygon", "coordinates": [[[[30.79975273700012, -20.092410816999916], [30.80256519400018, -20.091165329999967], [30.804786473000036, -20.089208867999844], [30.80580396200014, -20.087756982999963], [30.80766122500006, -20.085496837999926], [30.808210831000054, -20.08459037299997], [30.80846012300009, -20.083824188999927], [30.814362168000173, -20.087837471999876], [30.813233456000034, -20.089321161999976], [30.81387423900003, -20.089582793999966], [30.811198091000108, -20.093109435999907], [30.81173235000017, -20.093588182999895], [30.812239733000183, -20.094042842999954], [30.809983722000084, -20.09592541899991], [30.809164029000044, -20.100771877999932], [30.80359295100004, -20.10023848299994], [30.802908421000097, -20.10065547499994], [30.802716689000192, -20.100154570999905], [30.79975273700012, -20.092410816999916]]]]}}, {"type": "Feature", "properties": {"GID_3": "ZWE.7.7.6_2", "GID_0": "ZWE", "COUNTRY": "Zimbabwe", "GID_1": "ZWE.7_1", "NAME_1": "Masvingo", "NL_NAME_1": "NA", "GID_2": "ZWE.7.7_2", "NAME_2": "Masvingo Urban", "NL_NAME_2": "NA", "NAME_3": "Ward 5", "VARNAME_3": "NA", "NL_NAME_3": "NA", "TYPE_3": "Ward", "ENGTYPE_3": "Ward", "CC_3": "NA", "HASC_3": "NA", "id": "ZWE.7.7.6_2", "name": "Ward 5"}, "geometry": {"type": "MultiPolygon", "coordinates": [[[[30.822040099000162, -20.082529062999868], [30.822257389000185, -20.080620613999884], [30.824554859000045, -20.07957036799985], [30.825417095000148, -20.078677524999932], [30.832535970000038, -20.07991390299992], [30.83165069300003, -20.083369763999883], [30.831390334000105, -20.085920566999903], [30.83183528800015, -20.08933464499995], [30.830536902000176, -20.089432726999974], [30.827673712000035, -20.09066597499998], [30.823986160000118, -20.093258955999943], [30.821385351000117, -20.09104509399998], [30.820904027000097, -20.09054641599994], [30.817136089000087, -20.096969551999905], [30.813328617000025, -20.095018565999965], [30.812239733000183, -20.094042842999954], [30.81173235000017, -20.093588182999895], [30.811198091000108, -20.093109435999907], [30.81387423900003, -20.089582793999966], [30.813233456000034, -20.089321161999976], [30.814362168000173, -20.087837471999876], [30.815542604000143, -20.0862857489999], [30.81659469800013, -20.08702880599992], [30.81912994200013, -20.087161091999974], [30.82047643700008, -20.08687329399993], [30.821032994, -20.08545948099993], [30.822040099000162, -20.082529062999868]]]]}}, {"type": "Feature", "properties": {"GID_3": "ZWE.7.7.7_2", "GID_0": "ZWE", "COUNTRY": "Zimbabwe", "GID_1": "ZWE.7_1", "NAME_1": "Masvingo", "NL_NAME_1": "NA", "GID_2": "ZWE.7.7_2", "NAME_2": "Masvingo Urban", "NL_NAME_2": "NA", "NAME_3": "Ward 6", "VARNAME_3": "NA", "NL_NAME_3": "NA", "TYPE_3": "Ward", "ENGTYPE_3": "Ward", "CC_3": "NA", "HASC_3": "NA", "id": "ZWE.7.7.7_2", "name": "Ward 6"}, "geometry": {"type": "MultiPolygon", "coordinates": [[[[30.83183528800015, -20.08933464499995], [30.833224083, -20.09999010499996], [30.832843749000176, -20.103071515999943], [30.83180231300014, -20.105080630999907], [30.826123715000165, -20.109347984999943], [30.8066344720001, -20.11038926799995], [30.802908421000097, -20.10065547499994], [30.80359295100004, -20.10023848299994], [30.809164029000044, -20.100771877999932], [30.809983722000084, -20.09592541899991], [30.812239733000183, -20.094042842999954], [30.813328617000025, -20.095018565999965], [30.817136089000087, -20.096969551999905], [30.820904027000097, -20.09054641599994], [30.821385351000117, -20.09104509399998], [30.823986160000118, -20.093258955999943], [30.827673712000035, -20.09066597499998], [30.830536902000176, -20.089432726999974], [30.83183528800015, -20.08933464499995]]]]}}, {"type": "Feature", "properties": {"GID_3": "ZWE.7.7.8_2", "GID_0": "ZWE", "COUNTRY": "Zimbabwe", "GID_1": "ZWE.7_1", "NAME_1": "Masvingo", "NL_NAME_1": "NA", "GID_2": "ZWE.7.7_2", "NAME_2": "Masvingo Urban", "NL_NAME_2": "NA", "NAME_3": "Ward 7", "VARNAME_3": "NA", "NL_NAME_3": "NA", "TYPE_3": "Ward", "ENGTYPE_3": "Ward", "CC_3": "NA", "HASC_3": "NA", "id": "ZWE.7.7.8_2", "name": "Ward 7"}, "geometry": {"type": "MultiPolygon", "coordinates": [[[[30.832535970000038, -20.07991390299992], [30.832840842, -20.078723728999876], [30.835084149000068, -20.07938975499991], [30.837445923000132, -20.079631536999955], [30.83903406000013, -20.078799646999926], [30.84141478000015, -20.07765818199988], [30.84412600000013, -20.077052804999823], [30.84627564100009, -20.076334117999863], [30.84773541900006, -20.076649479999844], [30.84783930700013, -20.077289252999947], [30.85031078900016, -20.077745034999964], [30.849968622000176, -20.078060121999954], [30.851062753, -20.080414636999876], [30.851141992000123, -20.082863211999893], [30.851804586000014, -20.083829037999976], [30.85258849700017, -20.08415783099997], [30.853020087000175, -20.085546514999976], [30.852328473000114, -20.086708696999835], [30.85108249700005, -20.087225617999877], [30.8478639760001, -20.091975189999914], [30.846186402000058, -20.091103379999936], [30.839722204000054, -20.094323288999874], [30.83868656900006, -20.087712744999976], [30.83790267600017, -20.087383890999945], [30.83183528800015, -20.08933464499995], [30.831390334000105, -20.085920566999903], [30.83165069300003, -20.083369763999883], [30.832535970000038, -20.07991390299992]]]]}}, {"type": "Feature", "properties": {"GID_3": "ZWE.7.7.9_2", "GID_0": "ZWE", "COUNTRY": "Zimbabwe", "GID_1": "ZWE.7_1", "NAME_1": "Masvingo", "NL_NAME_1": "NA", "GID_2": "ZWE.7.7_2", "NAME_2": "Masvingo Urban", "NL_NAME_2": "NA", "NAME_3": "Ward 8", "VARNAME_3": "NA", "NL_NAME_3": "NA", "TYPE_3": "Ward", "ENGTYPE_3": "Ward", "CC_3": "NA", "HASC_3": "NA", "id": "ZWE.7.7.9_2", "name": "Ward 8"}, "geometry": {"type": "MultiPolygon", "coordinates": [[[[30.832840842, -20.078723728999876], [30.832293919000165, -20.07754642899988], [30.83060927000014, -20.07720648499992], [30.829360387000065, -20.07793605199987], [30.828127620000146, -20.077495223999904], [30.82758660200011, -20.075892317999887], [30.826017521000097, -20.075340921999953], [30.824214442000027, -20.07542512799995], [30.82230317000017, -20.075188732999948], [30.820729707000055, -20.074956485999905], [30.820751768000036, -20.073360513999944], [30.81964196300015, -20.072176234999915], [30.818169355000123, -20.07279654299998], [30.81646564500005, -20.073839644999964], [30.815931515999978, -20.073983885999894], [30.815335233000155, -20.074144909999916], [30.81276464400014, -20.072729679999952], [30.811509821000186, -20.073884705999944], [30.809918661000154, -20.074929134999877], [30.80889614199998, -20.074916448999886], [30.806991083000185, -20.07489279699996], [30.806448813000088, -20.07339624399998], [30.804085740000062, -20.073260456999833], [30.802180480000175, -20.07259826099994], [30.800371507000136, -20.07310781199982], [30.798233646000085, -20.072974752999983], [30.79609727900015, -20.072735270999885], [30.79374019500017, -20.072173761999977], [30.791606722000154, -20.07112457199986], [30.78878343300005, -20.063745838999978], [30.790264589, -20.061973813999884], [30.79417793100015, -20.05723054499998], [30.790508313000146, -20.057543515999953], [30.79004424400017, -20.054505552999956], [30.801878508000073, -20.04140731299998], [30.80505389100017, -20.04404593099997], [30.809996184000056, -20.038053499999933], [30.81673262200019, -20.04904946199997], [30.819697371000075, -20.05451329799996], [30.82110222100016, -20.058787284999937], [30.823846495000055, -20.063929103999953], [30.825839431000077, -20.066401227999847], [30.82929471600005, -20.06899772999992], [30.830825809000032, -20.069653549999828], [30.8321269220001, -20.066712998999947], [30.837288798000145, -20.06805328599995], [30.837957370000083, -20.066974149999908], [30.839315807000105, -20.066458686999965], [30.841908416000138, -20.066277547999903], [30.841874930000188, -20.068724740999983], [30.842530135000118, -20.070222591999936], [30.844211838000092, -20.07077521699989], [30.845313111000166, -20.072597756999983], [30.84493749699999, -20.07536003099989], [30.84627564100009, -20.076334117999863], [30.84412600000013, -20.077052804999823], [30.84141478000015, -20.07765818199988], [30.83903406000013, -20.078799646999926], [30.837445923000132, -20.079631536999955], [30.835084149000068, -20.07938975499991], [30.832840842, -20.078723728999876]]]]}}, {"type": "Feature", "properties": {"GID_3": "ZWE.7.7.10_2", "GID_0": "ZWE", "COUNTRY": "Zimbabwe", "GID_1": "ZWE.7_1", "NAME_1": "Masvingo", "NL_NAME_1": "NA", "GID_2": "ZWE.7.7_2", "NAME_2": "Masvingo Urban", "NL_NAME_2": "NA", "NAME_3": "Ward 9", "VARNAME_3": "NA", "NL_NAME_3": "NA", "TYPE_3": "Ward", "ENGTYPE_3": "Ward", "CC_3": "NA", "HASC_3": "NA", "id": "ZWE.7.7.10_2", "name": "Ward 9"}, "geometry": {"type": "MultiPolygon", "coordinates": [[[[30.839583432000154, -20.027527465999867], [30.839595588000066, -20.029556894999928], [30.83986548400003, -20.03136194299998], [30.839397458000178, -20.03381986499994], [30.83834464900002, -20.036681242999975], [30.838461349000113, -20.03873569899997], [30.839877422000143, -20.041079770999943], [30.8407293300001, -20.042321995999885], [30.84216042500009, -20.043571286999963], [30.843871789000104, -20.045508330999894], [30.844118404000028, -20.048659323999857], [30.843778340000142, -20.052350634999982], [30.84373160100006, -20.055771783999944], [30.844273433000126, -20.058515770999918], [30.844815278000112, -20.06125975699996], [30.84397876600019, -20.06311030199987], [30.843740490000187, -20.0640651519999], [30.842604364000124, -20.06479620399989], [30.841908416000138, -20.066277547999903], [30.839315807000105, -20.066458686999965], [30.837957370000083, -20.066974149999908], [30.837288798000145, -20.06805328599995], [30.8321269220001, -20.066712998999947], [30.830825809000032, -20.069653549999828], [30.82929471600005, -20.06899772999992], [30.825839431000077, -20.066401227999847], [30.823846495000055, -20.063929103999953], [30.82110222100016, -20.058787284999937], [30.819697371000075, -20.05451329799996], [30.81673262200019, -20.04904946199997], [30.809996184000056, -20.038053499999933], [30.811360943000125, -20.03596612599995], [30.812274645, -20.034294013999897], [30.83687396200014, -20.026878355999884], [30.839583432000154, -20.027527465999867]]]]}}]}