{"type": "FeatureCollection", "features": [{"type": "Feature", "properties": {"GID_3": "ZWE.9.5.1_2", "GID_0": "ZWE", "COUNTRY": "Zimbabwe", "GID_1": "ZWE.9_1", "NAME_1": "Matabeleland South", "NL_NAME_1": "NA", "GID_2": "ZWE.9.5_2", "NAME_2": "Gwanda Urban", "NL_NAME_2": "NA", "NAME_3": "Ward 1", "VARNAME_3": "NA", "NL_NAME_3": "NA", "TYPE_3": "Ward", "ENGTYPE_3": "Ward", "CC_3": "NA", "HASC_3": "NA", "id": "ZWE.9.5.1_2", "name": "Ward 1"}, "geometry": {"type": "MultiPolygon", "coordinates": [[[[28.988601362999987, -20.943292301999975], [28.994295794000152, -20.93499818899994], [28.995801324000013, -20.9368342919999], [28.996698791000142, -20.93884864599994], [28.996886478000135, -20.93986910399991], [28.996812975000182, -20.940892618999953], [28.997531256000173, -20.940884207999943], [28.998118344999966, -20.94247267199995], [28.999809919000143, -20.944102107999925], [29.000548622000053, -20.94399117899991], [29.001345826000147, -20.943368233999877], [29.00223661700005, -20.94323505999995], [29.006714991000024, -20.94113712299992], [29.00716258, -20.942052240999885], [29.008533747000058, -20.941692651999972], [29.0098072830001, -20.94486567399997], [29.010585250000076, -20.94680390399992], [29.01273271900004, -20.948305328999822], [29.017751021000095, -20.953214897999942], [29.001869342000134, -20.95896427399998], [29.00164034900007, -20.95891826999997], [29.001543352000112, -20.958828263999976], [29.001347357000157, -20.95847023799996], [28.999815394000166, -20.951534729999935], [28.999672935000035, -20.950521996999896], [28.994604574000164, -20.95071270699998], [28.99457988000006, -20.947677563999946], [28.99179654800014, -20.947462010999857], [28.99116362500007, -20.94725012599997], [28.99056040500011, -20.94688881199994], [28.9899664940001, -20.946505616999957], [28.98971317700017, -20.946169496999914], [28.989200774000153, -20.944876594999982], [28.98915061200006, -20.94476141399997], [28.988601362999987, -20.943292301999975]]]]}}, {"type": "Feature", "properties": {"GID_3": "ZWE.9.5.2_2", "GID_0": "ZWE", "COUNTRY": "Zimbabwe", "GID_1": "ZWE.9_1", "NAME_1": "Matabeleland South", "NL_NAME_1": "NA", "GID_2": "ZWE.9.5_2", "NAME_2": "Gwanda Urban", "NL_NAME_2": "NA", "NAME_3": "Ward 10", "VARNAME_3": "NA", "NL_NAME_3": "NA", "TYPE_3": "Ward", "ENGTYPE_3": "Ward", "CC_3": "NA", "HASC_3": "NA", "id": "ZWE.9.5.2_2", "name": "Ward 10"}, "geometry": {"type": "MultiPolygon", "coordinates": [[[[28.994295794000152, -20.93499818899994], [28.988601362999987, -20.943292301999975], [28.98844538900005, -20.94287510199996], [28.98199647700011, -20.941313924999974], [28.973727216000043, -20.93959864699991], [28.95012279400015, -20.92723098599987], [28.94965221900003, -20.919751270999882], [28.98174678500004, -20.92778131999995], [28.98569527000018, -20.92882035899993], [28.989433327000086, -20.929807339999968], [28.99224254300003, -20.93062699399985], [28.991698342000177, -20.92955077099998], [28.991441443000156, -20.929152416999955], [28.991218415, -20.928738610999915], [28.991093266000064, -20.92841451499993], [28.990911923000056, -20.928106216999822], [28.99074679400013, -20.927805300999978], [28.990547377999974, -20.92734589199995], [28.990174537000144, -20.926738125999975], [28.989854130000026, -20.926154232999977], [28.98942692500009, -20.925375706999944], [28.98851255200003, -20.923801328999957], [28.98960484600019, -20.915809365999962], [28.992402768000034, -20.916560242999935], [28.99496364600003, -20.91733832699998], [28.995135319999974, -20.916528330999938], [28.99523240000002, -20.91598853599993], [28.995644174000176, -20.91363320799985], [28.996312044000035, -20.910226684999884], [29.000093215000163, -20.91118166799987], [29.001007602000016, -20.911366830999896], [29.00562660500003, -20.912414438999974], [29.004371668000033, -20.91617135499996], [29.004427432, -20.91618633199988], [29.001652742000147, -20.92168413199994], [29.001658370000087, -20.921694945999946], [28.996508057000142, -20.931775682999955], [28.994295794000152, -20.93499818899994]]]]}}, {"type": "Feature", "properties": {"GID_3": "ZWE.9.5.3_2", "GID_0": "ZWE", "COUNTRY": "Zimbabwe", "GID_1": "ZWE.9_1", "NAME_1": "Matabeleland South", "NL_NAME_1": "NA", "GID_2": "ZWE.9.5_2", "NAME_2": "Gwanda Urban", "NL_NAME_2": "NA", "NAME_3": "Ward 2", "VARNAME_3": "NA", "NL_NAME_3": "NA", "TYPE_3": "Ward", "ENGTYPE_3": "Ward", "CC_3": "NA", "HASC_3": "NA", "id": "ZWE.9.5.3_2", "name": "Ward 2"}, "geometry": {"type": "MultiPolygon", "coordinates": [[[[29.008533747000058, -20.941692651999972], [29.00716258, -20.942052240999885], [29.006714991000024, -20.94113712299992], [29.00223661700005, -20.94323505999995], [29.001345826000147, -20.943368233999877], [29.000548622000053, -20.94399117899991], [28.999809919000143, -20.944102107999925], [28.998118344999966, -20.94247267199995], [28.997531256000173, -20.940884207999943], [28.996812975000182, -20.940892618999953], [28.996886478000135, -20.93986910399991], [28.996698791000142, -20.93884864599994], [28.995801324000013, -20.9368342919999], [28.994295794000152, -20.93499818899994], [28.996508057000142, -20.931775682999955], [29.001658370000087, -20.921694945999946], [29.001891143000023, -20.922142184999927], [29.002085822000083, -20.923195001999886], [29.002094988000124, -20.924856373999944], [29.00231548300019, -20.925908886999935], [29.005280900000116, -20.9335874329999], [29.008533747000058, -20.941692651999972]]]]}}, {"type": "Feature", "properties": {"GID_3": "ZWE.9.5.4_2", "GID_0": "ZWE", "COUNTRY": "Zimbabwe", "GID_1": "ZWE.9_1", "NAME_1": "Matabeleland South", "NL_NAME_1": "NA", "GID_2": "ZWE.9.5_2", "NAME_2": "Gwanda Urban", "NL_NAME_2": "NA", "NAME_3": "Ward 3", "VARNAME_3": "NA", "NL_NAME_3": "NA", "TYPE_3": "Ward", "ENGTYPE_3": "Ward", "CC_3": "NA", "HASC_3": "NA", "id": "ZWE.9.5.4_2", "name": "Ward 3"}, "geometry": {"type": "MultiPolygon", "coordinates": [[[[29.001658370000087, -20.921694945999946], [29.001652742000147, -20.92168413199994], [29.004427432, -20.91618633199988], [29.018311297000082, -20.919914553999888], [29.016889131000028, -20.926409040999886], [29.01542402500013, -20.93309913999991], [29.01466865000009, -20.93328928099993], [29.009714604000123, -20.93346898599998], [29.008792336000056, -20.933031127999982], [29.007769226000107, -20.933376254999928], [29.007490454000163, -20.932797412999946], [29.005280900000116, -20.9335874329999], [29.00231548300019, -20.925908886999935], [29.002094988000124, -20.924856373999944], [29.002085822000083, -20.923195001999886], [29.001891143000023, -20.922142184999927], [29.001658370000087, -20.921694945999946]]]]}}, {"type": "Feature", "properties": {"GID_3": "ZWE.9.5.5_2", "GID_0": "ZWE", "COUNTRY": "Zimbabwe", "GID_1": "ZWE.9_1", "NAME_1": "Matabeleland South", "NL_NAME_1": "NA", "GID_2": "ZWE.9.5_2", "NAME_2": "Gwanda Urban", "NL_NAME_2": "NA", "NAME_3": "Ward 4", "VARNAME_3": "NA", "NL_NAME_3": "NA", "TYPE_3": "Ward", "ENGTYPE_3": "Ward", "CC_3": "NA", "HASC_3": "NA", "id": "ZWE.9.5.5_2", "name": "Ward 4"}, "geometry": {"type": "MultiPolygon", "coordinates": [[[[29.0098072830001, -20.94486567399997], [29.008533747000058, -20.941692651999972], [29.005280900000116, -20.9335874329999], [29.007490454000163, -20.932797412999946], [29.007769226000107, -20.933376254999928], [29.008792336000056, -20.933031127999982], [29.009714604000123, -20.93346898599998], [29.01466865000009, -20.93328928099993], [29.01542402500013, -20.93309913999991], [29.01536140100012, -20.933385088999955], [29.01702034800013, -20.932961861999956], [29.01973880600019, -20.933863003999875], [29.020240501000046, -20.93723738999995], [29.02022911800009, -20.937247887999945], [29.017541430000108, -20.939726606999955], [29.018072595000092, -20.94060253999993], [29.017660215000035, -20.943542267999874], [29.01719802800011, -20.94372964799993], [29.01654890700013, -20.944416463999914], [29.015016687000184, -20.944031725999878], [29.01477944700008, -20.9441981519999], [29.014450371, -20.94374848199982], [29.01369374700016, -20.942779270999893], [29.013364793000108, -20.942599077999944], [29.01242611500004, -20.942405627999904], [29.01104638000004, -20.941787860999966], [29.010482374000105, -20.9419376809999], [29.010311796000167, -20.94220557999995], [29.010488656000064, -20.942408024999907], [29.01073982900016, -20.94328454099997], [29.010705037000093, -20.943939445999888], [29.01036469500019, -20.944536593999942], [29.010255590000156, -20.944517427999926], [29.0098072830001, -20.94486567399997]]]]}}, {"type": "Feature", "properties": {"GID_3": "ZWE.9.5.6_2", "GID_0": "ZWE", "COUNTRY": "Zimbabwe", "GID_1": "ZWE.9_1", "NAME_1": "Matabeleland South", "NL_NAME_1": "NA", "GID_2": "ZWE.9.5_2", "NAME_2": "Gwanda Urban", "NL_NAME_2": "NA", "NAME_3": "Ward 5", "VARNAME_3": "NA", "NL_NAME_3": "NA", "TYPE_3": "Ward", "ENGTYPE_3": "Ward", "CC_3": "NA", "HASC_3": "NA", "id": "ZWE.9.5.6_2", "name": "Ward 5"}, "geometry": {"type": "MultiPolygon", "coordinates": [[[[29.016889131000028, -20.926409040999886], [29.018311297000082, -20.919914553999888], [29.028167260000146, -20.922163181999963], [29.031446307000124, -20.922909966999953], [29.032592250000164, -20.9233249319999], [29.03562130400013, -20.924407351999946], [29.03390966500018, -20.930809865999947], [29.029113809000023, -20.930433724999943], [29.029115769000043, -20.930579229999978], [29.026676069000132, -20.93055971699988], [29.025790003000168, -20.931855747999975], [29.024613323000153, -20.932658], [29.023342361000175, -20.93211409999998], [29.02289784500016, -20.932652978999954], [29.022585840000033, -20.932486893999908], [29.022128252000186, -20.93301379899998], [29.021240605000173, -20.932272413999897], [29.020008976000156, -20.93090446799988], [29.01957400400005, -20.930230477999885], [29.018670300000053, -20.928288646999818], [29.017646992000095, -20.92705161699996], [29.016889131000028, -20.926409040999886]]]]}}, {"type": "Feature", "properties": {"GID_3": "ZWE.9.5.7_2", "GID_0": "ZWE", "COUNTRY": "Zimbabwe", "GID_1": "ZWE.9_1", "NAME_1": "Matabeleland South", "NL_NAME_1": "NA", "GID_2": "ZWE.9.5_2", "NAME_2": "Gwanda Urban", "NL_NAME_2": "NA", "NAME_3": "Ward 6", "VARNAME_3": "NA", "NL_NAME_3": "NA", "TYPE_3": "Ward", "ENGTYPE_3": "Ward", "CC_3": "NA", "HASC_3": "NA", "id": "ZWE.9.5.7_2", "name": "Ward 6"}, "geometry": {"type": "MultiPolygon", "coordinates": [[[[29.01542402500013, -20.93309913999991], [29.016889131000028, -20.926409040999886], [29.017646992000095, -20.92705161699996], [29.018670300000053, -20.928288646999818], [29.01957400400005, -20.930230477999885], [29.020008976000156, -20.93090446799988], [29.021240605000173, -20.932272413999897], [29.022128252000186, -20.93301379899998], [29.022585840000033, -20.932486893999908], [29.02289784500016, -20.932652978999954], [29.023342361000175, -20.93211409999998], [29.024613323000153, -20.932658], [29.025790003000168, -20.931855747999975], [29.026676069000132, -20.93055971699988], [29.029115769000043, -20.930579229999978], [29.029113809000023, -20.930433724999943], [29.03390966500018, -20.930809865999947], [29.03439948700003, -20.935237726999958], [29.034391145000086, -20.93526518099992], [29.031658856000035, -20.935126285999957], [29.025024103000078, -20.93638938999993], [29.024951223000073, -20.93640326299993], [29.023955572000034, -20.93657340699997], [29.02223585100012, -20.93657334999989], [29.02121453600006, -20.936708170999964], [29.020240501000046, -20.93723738999995], [29.01973880600019, -20.933863003999875], [29.01702034800013, -20.932961861999956], [29.01536140100012, -20.933385088999955], [29.01542402500013, -20.93309913999991]]]]}}, {"type": "Feature", "properties": {"GID_3": "ZWE.9.5.8_2", "GID_0": "ZWE", "COUNTRY": "Zimbabwe", "GID_1": "ZWE.9_1", "NAME_1": "Matabeleland South", "NL_NAME_1": "NA", "GID_2": "ZWE.9.5_2", "NAME_2": "Gwanda Urban", "NL_NAME_2": "NA", "NAME_3": "Ward 7", "VARNAME_3": "NA", "NL_NAME_3": "NA", "TYPE_3": "Ward", "ENGTYPE_3": "Ward", "CC_3": "NA", "HASC_3": "NA", "id": "ZWE.9.5.8_2", "name": "Ward 7"}, "geometry": {"type": "MultiPolygon", "coordinates": [[[[29.01654890700013, -20.944416463999914], [29.01719802800011, -20.94372964799993], [29.017660215000035, -20.943542267999874], [29.018072595000092, -20.94060253999993], [29.017541430000108, -20.939726606999955], [29.02022911800009, -20.937247887999945], [29.020240501000046, -20.93723738999995], [29.02121453600006, -20.936708170999964], [29.02223585100012, -20.93657334999989], [29.023955572000034, -20.93657340699997], [29.024951223000073, -20.93640326299993], [29.025024103000078, -20.93638938999993], [29.02471765400003, -20.94137270599998], [29.024571862000187, -20.94188361599987], [29.024471112000015, -20.94223668099994], [29.02149282199997, -20.944418567999946], [29.018553711000095, -20.945678256999884], [29.01654890700013, -20.944416463999914]]]]}}, {"type": "Feature", "properties": {"GID_3": "ZWE.9.5.9_2", "GID_0": "ZWE", "COUNTRY": "Zimbabwe", "GID_1": "ZWE.9_1", "NAME_1": "Matabeleland South", "NL_NAME_1": "NA", "GID_2": "ZWE.9.5_2", "NAME_2": "Gwanda Urban", "NL_NAME_2": "NA", "NAME_3": "Ward 8", "VARNAME_3": "NA", "NL_NAME_3": "NA", "TYPE_3": "Ward", "ENGTYPE_3": "Ward", "CC_3": "NA", "HASC_3": "NA", "id": "ZWE.9.5.9_2", "name": "Ward 8"}, "geometry": {"type": "MultiPolygon", "coordinates": [[[[29.017751021000095, -20.953214897999942], [29.01273271900004, -20.948305328999822], [29.010585250000076, -20.94680390399992], [29.0098072830001, -20.94486567399997], [29.010255590000156, -20.944517427999926], [29.01036469500019, -20.944536593999942], [29.010705037000093, -20.943939445999888], [29.01073982900016, -20.94328454099997], [29.010488656000064, -20.942408024999907], [29.010311796000167, -20.94220557999995], [29.010482374000105, -20.9419376809999], [29.01104638000004, -20.941787860999966], [29.01242611500004, -20.942405627999904], [29.013364793000108, -20.942599077999944], [29.01369374700016, -20.942779270999893], [29.014450371, -20.94374848199982], [29.01477944700008, -20.9441981519999], [29.015016687000184, -20.944031725999878], [29.01654890700013, -20.944416463999914], [29.018553711000095, -20.945678256999884], [29.02149282199997, -20.944418567999946], [29.024471112000015, -20.94223668099994], [29.024571862000187, -20.94188361599987], [29.026447786000176, -20.942576120999888], [29.027432131000182, -20.944946717999926], [29.02872412500011, -20.946279381999943], [29.029047156000104, -20.94681694299993], [29.029359807000162, -20.947782839999945], [29.017751021000095, -20.953214897999942]]]]}}, {"type": "Feature", "properties": {"GID_3": "ZWE.9.5.10_2", "GID_0": "ZWE", "COUNTRY": "Zimbabwe", "GID_1": "ZWE.9_1", "NAME_1": "Matabeleland South", "NL_NAME_1": "NA", "GID_2": "ZWE.9.5_2", "NAME_2": "Gwanda Urban", "NL_NAME_2": "NA", "NAME_3": "Ward 9", "VARNAME_3": "NA", "NL_NAME_3": "NA", "TYPE_3": "Ward", "ENGTYPE_3": "Ward", "CC_3": "NA", "HASC_3": "NA", "id": "ZWE.9.5.10_2", "name": "Ward 9"}, "geometry": {"type": "MultiPolygon", "coordinates": [[[[29.025024103000078, -20.93638938999993], [29.031658856000035, -20.935126285999957], [29.034391145000086, -20.93526518099992], [29.030760445000055, -20.947212987999933], [29.029359807000162, -20.947782839999945], [29.029047156000104, -20.94681694299993], [29.02872412500011, -20.946279381999943], [29.027432131000182, -20.944946717999926], [29.026447786000176, -20.942576120999888], [29.024571862000187, -20.94188361599987], [29.02471765400003, -20.94137270599998], [29.025024103000078, -20.93638938999993]]]]}}]}