{"type": "FeatureCollection", "features": [{"type": "Feature", "properties": {"GID_3": "ZWE.8.9.1_2", "GID_0": "ZWE", "COUNTRY": "Zimbabwe", "GID_1": "ZWE.8_1", "NAME_1": "Matabeleland North", "NL_NAME_1": "NA", "GID_2": "ZWE.8.9_2", "NAME_2": "Victoria Falls", "NL_NAME_2": "NA", "NAME_3": "Ward 1", "VARNAME_3": "NA", "NL_NAME_3": "NA", "TYPE_3": "Ward", "ENGTYPE_3": "Ward", "CC_3": "NA", "HASC_3": "NA", "id": "ZWE.8.9.1_2", "name": "Ward 1"}, "geometry": {"type": "MultiPolygon", "coordinates": [[[[25.809616532, -17.934854424999912], [25.809539215000086, -17.925242606999916], [25.816253, -17.911340076999977], [25.820047058000114, -17.918408882999927], [25.821656166000025, -17.921539374999952], [25.822946924000064, -17.92175337599997], [25.825239499000133, -17.92245451799988], [25.82688105000011, -17.92390771099997], [25.826230454000097, -17.924591061999934], [25.82869474800009, -17.927245846999938], [25.82354761, -17.92862977699997], [25.824110114000177, -17.930420098999946], [25.820947804000184, -17.930950761999952], [25.820941435000123, -17.93191290899989], [25.820651095000073, -17.932392239999956], [25.820553472000086, -17.933481034999886], [25.818070507000073, -17.934425629999964], [25.811462673000108, -17.934866418999945], [25.809616532, -17.934854424999912]]]]}}, {"type": "Feature", "properties": {"GID_3": "ZWE.8.9.2_2", "GID_0": "ZWE", "COUNTRY": "Zimbabwe", "GID_1": "ZWE.8_1", "NAME_1": "Matabeleland North", "NL_NAME_1": "NA", "GID_2": "ZWE.8.9_2", "NAME_2": "Victoria Falls", "NL_NAME_2": "NA", "NAME_3": "Ward 10", "VARNAME_3": "NA", "NL_NAME_3": "NA", "TYPE_3": "Ward", "ENGTYPE_3": "Ward", "CC_3": "NA", "HASC_3": "NA", "id": "ZWE.8.9.2_2", "name": "Ward 10"}, "geometry": {"type": "MultiPolygon", "coordinates": [[[[25.832239541000035, -17.956091945999958], [25.830239065000058, -17.959570559999918], [25.830219681000074, -17.95960426599993], [25.829767694000054, -17.959852285999943], [25.82227122300003, -17.96396517799991], [25.818747421000126, -17.95771850699998], [25.818635463000078, -17.957520030999888], [25.81799735700008, -17.955648070999928], [25.818126108000115, -17.952827385999854], [25.818750731000023, -17.951192586999923], [25.826850448000073, -17.953460206999978], [25.827214872000013, -17.952637677999974], [25.825997497000117, -17.95214922799994], [25.82731113000017, -17.94892697199998], [25.832528762000038, -17.952532247999955], [25.832735569000192, -17.952509308999822], [25.832239541000035, -17.956091945999958]]]]}}, {"type": "Feature", "properties": {"GID_3": "ZWE.8.9.3_2", "GID_0": "ZWE", "COUNTRY": "Zimbabwe", "GID_1": "ZWE.8_1", "NAME_1": "Matabeleland North", "NL_NAME_1": "NA", "GID_2": "ZWE.8.9_2", "NAME_2": "Victoria Falls", "NL_NAME_2": "NA", "NAME_3": "Ward 11", "VARNAME_3": "NA", "NL_NAME_3": "NA", "TYPE_3": "Ward", "ENGTYPE_3": "Ward", "CC_3": "NA", "HASC_3": "NA", "id": "ZWE.8.9.3_2", "name": "Ward 11"}, "geometry": {"type": "MultiPolygon", "coordinates": [[[[25.82227122300003, -17.96396517799991], [25.813443162000112, -17.968808003999925], [25.810275256000182, -17.973298357999965], [25.809970266000164, -17.973727391999944], [25.809916111, -17.969516467999938], [25.80986025800013, -17.965173724999886], [25.809618633000127, -17.935115692999943], [25.80961763200014, -17.934991175999983], [25.809616532, -17.934854424999912], [25.811462673000108, -17.934866418999945], [25.818070507000073, -17.934425629999964], [25.820553472000086, -17.933481034999886], [25.8210934010001, -17.93327562399986], [25.823681441000133, -17.932741485999884], [25.825501664000058, -17.93399848399997], [25.825096245000168, -17.93458278299994], [25.82429011700009, -17.936693076999916], [25.823747245000106, -17.938114182999982], [25.823059300000125, -17.939915016999976], [25.822792481000135, -17.940613457999916], [25.821720970000058, -17.943418242999826], [25.821295704000192, -17.944531386999927], [25.821009591000063, -17.94528028799988], [25.819709609000142, -17.948682893999944], [25.818750731000023, -17.951192586999923], [25.818126108000115, -17.952827385999854], [25.81799735700008, -17.955648070999928], [25.818635463000078, -17.957520030999888], [25.818747421000126, -17.95771850699998], [25.82227122300003, -17.96396517799991]]]]}}, {"type": "Feature", "properties": {"GID_3": "ZWE.8.9.4_2", "GID_0": "ZWE", "COUNTRY": "Zimbabwe", "GID_1": "ZWE.8_1", "NAME_1": "Matabeleland North", "NL_NAME_1": "NA", "GID_2": "ZWE.8.9_2", "NAME_2": "Victoria Falls", "NL_NAME_2": "NA", "NAME_3": "Ward 2", "VARNAME_3": "NA", "NL_NAME_3": "NA", "TYPE_3": "Ward", "ENGTYPE_3": "Ward", "CC_3": "NA", "HASC_3": "NA", "id": "ZWE.8.9.4_2", "name": "Ward 2"}, "geometry": {"type": "MultiPolygon", "coordinates": [[[[25.82123614500017, -17.88489929499991], [25.831037939000055, -17.885276286999954], [25.836737939000102, -17.88737628699988], [25.839837939000063, -17.88967628699993], [25.843837939000082, -17.89337628699991], [25.845837939000035, -17.89857628699997], [25.849837939000054, -17.901576286999898], [25.851537939000025, -17.90567628699995], [25.852937939000014, -17.90957628699988], [25.85133793900019, -17.917876286999956], [25.854637938999986, -17.922376286999963], [25.854637938999986, -17.9255762869999], [25.853177326000036, -17.927523770999926], [25.853137939000078, -17.92757628699991], [25.84913793900006, -17.93107628699994], [25.847537939000176, -17.934376286999964], [25.849689925000064, -17.93886738699996], [25.849543114000085, -17.939000634999957], [25.847231180999984, -17.940851781999925], [25.847166183000127, -17.940896784999893], [25.836758482999983, -17.948233370999958], [25.832239541000035, -17.956091945999958], [25.832735569000192, -17.952509308999822], [25.83330612500015, -17.948388166999962], [25.83331460000005, -17.948326946999885], [25.834723489, -17.938149458999874], [25.836075334000043, -17.928382680999846], [25.83128512500008, -17.930224603999932], [25.8306107410001, -17.930549178999968], [25.83007620000018, -17.929287729999942], [25.830079810000143, -17.92873792999984], [25.82869474800009, -17.927245846999938], [25.826230454000097, -17.924591061999934], [25.82688105000011, -17.92390771099997], [25.825239499000133, -17.92245451799988], [25.822946924000064, -17.92175337599997], [25.821656166000025, -17.921539374999952], [25.820047058000114, -17.918408882999927], [25.816253, -17.911340076999977], [25.81722197900001, -17.909333354999944], [25.81722997900016, -17.90929935299988], [25.817261978000033, -17.909232346999943], [25.820301878000066, -17.897713443999976], [25.820240873000046, -17.89200199699991], [25.82123614500017, -17.88489929499991]]]]}}, {"type": "Feature", "properties": {"GID_3": "ZWE.8.9.5_2", "GID_0": "ZWE", "COUNTRY": "Zimbabwe", "GID_1": "ZWE.8_1", "NAME_1": "Matabeleland North", "NL_NAME_1": "NA", "GID_2": "ZWE.8.9_2", "NAME_2": "Victoria Falls", "NL_NAME_2": "NA", "NAME_3": "Ward 3", "VARNAME_3": "NA", "NL_NAME_3": "NA", "TYPE_3": "Ward", "ENGTYPE_3": "Ward", "CC_3": "NA", "HASC_3": "NA", "id": "ZWE.8.9.5_2", "name": "Ward 3"}, "geometry": {"type": "MultiPolygon", "coordinates": [[[[25.820553472000086, -17.933481034999886], [25.820651095000073, -17.932392239999956], [25.820941435000123, -17.93191290899989], [25.820947804000184, -17.930950761999952], [25.824110114000177, -17.930420098999946], [25.82354761, -17.92862977699997], [25.82869474800009, -17.927245846999938], [25.830079810000143, -17.92873792999984], [25.83007620000018, -17.929287729999942], [25.8306107410001, -17.930549178999968], [25.82990310400004, -17.930889754999896], [25.827677097000162, -17.931961073999958], [25.82583020800007, -17.933524975999887], [25.825501664000058, -17.93399848399997], [25.823681441000133, -17.932741485999884], [25.8210934010001, -17.93327562399986], [25.820553472000086, -17.933481034999886]]]]}}, {"type": "Feature", "properties": {"GID_3": "ZWE.8.9.6_2", "GID_0": "ZWE", "COUNTRY": "Zimbabwe", "GID_1": "ZWE.8_1", "NAME_1": "Matabeleland North", "NL_NAME_1": "NA", "GID_2": "ZWE.8.9_2", "NAME_2": "Victoria Falls", "NL_NAME_2": "NA", "NAME_3": "Ward 4", "VARNAME_3": "NA", "NL_NAME_3": "NA", "TYPE_3": "Ward", "ENGTYPE_3": "Ward", "CC_3": "NA", "HASC_3": "NA", "id": "ZWE.8.9.6_2", "name": "Ward 4"}, "geometry": {"type": "MultiPolygon", "coordinates": [[[[25.823747245000106, -17.938114182999982], [25.82429011700009, -17.936693076999916], [25.825096245000168, -17.93458278299994], [25.825501664000058, -17.93399848399997], [25.82583020800007, -17.933524975999887], [25.827677097000162, -17.931961073999958], [25.82990310400004, -17.930889754999896], [25.82911119900018, -17.936760481999897], [25.829895884000166, -17.936872619999917], [25.830468452000105, -17.93779957199996], [25.82989231600004, -17.938071013999945], [25.828599622000013, -17.938131951999935], [25.828524665000145, -17.938612592999903], [25.823747245000106, -17.938114182999982]]]]}}, {"type": "Feature", "properties": {"GID_3": "ZWE.8.9.7_2", "GID_0": "ZWE", "COUNTRY": "Zimbabwe", "GID_1": "ZWE.8_1", "NAME_1": "Matabeleland North", "NL_NAME_1": "NA", "GID_2": "ZWE.8.9_2", "NAME_2": "Victoria Falls", "NL_NAME_2": "NA", "NAME_3": "Ward 5", "VARNAME_3": "NA", "NL_NAME_3": "NA", "TYPE_3": "Ward", "ENGTYPE_3": "Ward", "CC_3": "NA", "HASC_3": "NA", "id": "ZWE.8.9.7_2", "name": "Ward 5"}, "geometry": {"type": "MultiPolygon", "coordinates": [[[[25.8306107410001, -17.930549178999968], [25.83128512500008, -17.930224603999932], [25.836075334000043, -17.928382680999846], [25.834723489, -17.938149458999874], [25.83276486900013, -17.93795083699996], [25.832627144000014, -17.937056547999873], [25.83212280400005, -17.937328428999876], [25.831479842000135, -17.93684346899994], [25.830834628000048, -17.936702131999937], [25.83011536600003, -17.936903985999948], [25.829895884000166, -17.936872619999917], [25.82911119900018, -17.936760481999897], [25.82990310400004, -17.930889754999896], [25.8306107410001, -17.930549178999968]]]]}}, {"type": "Feature", "properties": {"GID_3": "ZWE.8.9.8_2", "GID_0": "ZWE", "COUNTRY": "Zimbabwe", "GID_1": "ZWE.8_1", "NAME_1": "Matabeleland North", "NL_NAME_1": "NA", "GID_2": "ZWE.8.9_2", "NAME_2": "Victoria Falls", "NL_NAME_2": "NA", "NAME_3": "Ward 6", "VARNAME_3": "NA", "NL_NAME_3": "NA", "TYPE_3": "Ward", "ENGTYPE_3": "Ward", "CC_3": "NA", "HASC_3": "NA", "id": "ZWE.8.9.8_2", "name": "Ward 6"}, "geometry": {"type": "MultiPolygon", "coordinates": [[[[25.823059300000125, -17.939915016999976], [25.823747245000106, -17.938114182999982], [25.828524665000145, -17.938612592999903], [25.828599622000013, -17.938131951999935], [25.82989231600004, -17.938071013999945], [25.830468452000105, -17.93779957199996], [25.829895884000166, -17.936872619999917], [25.83011536600003, -17.936903985999948], [25.830834628000048, -17.936702131999937], [25.831479842000135, -17.93684346899994], [25.83212280400005, -17.937328428999876], [25.832627144000014, -17.937056547999873], [25.83276486900013, -17.93795083699996], [25.834723489, -17.938149458999874], [25.832754055000123, -17.939600236999922], [25.832461479000074, -17.940423211999814], [25.83196118799998, -17.940076565999902], [25.831956679000086, -17.940763815999844], [25.8312419130001, -17.940278422999825], [25.830376344000115, -17.940891762999968], [25.830091432000188, -17.940546408999978], [25.829148641000074, -17.941984009999885], [25.82886327800003, -17.941707378999922], [25.82793133100006, -17.941495575999966], [25.82808034500016, -17.94067174299994], [25.823059300000125, -17.939915016999976]]]]}}, {"type": "Feature", "properties": {"GID_3": "ZWE.8.9.9_2", "GID_0": "ZWE", "COUNTRY": "Zimbabwe", "GID_1": "ZWE.8_1", "NAME_1": "Matabeleland North", "NL_NAME_1": "NA", "GID_2": "ZWE.8.9_2", "NAME_2": "Victoria Falls", "NL_NAME_2": "NA", "NAME_3": "Ward 7", "VARNAME_3": "NA", "NL_NAME_3": "NA", "TYPE_3": "Ward", "ENGTYPE_3": "Ward", "CC_3": "NA", "HASC_3": "NA", "id": "ZWE.8.9.9_2", "name": "Ward 7"}, "geometry": {"type": "MultiPolygon", "coordinates": [[[[25.821295704000192, -17.944531386999927], [25.821720970000058, -17.943418242999826], [25.822792481000135, -17.940613457999916], [25.823059300000125, -17.939915016999976], [25.82808034500016, -17.94067174299994], [25.82793133100006, -17.941495575999966], [25.82886327800003, -17.941707378999922], [25.829148641000074, -17.941984009999885], [25.830091432000188, -17.940546408999978], [25.830376344000115, -17.940891762999968], [25.8312419130001, -17.940278422999825], [25.831956679000086, -17.940763815999844], [25.831874514000106, -17.942344059999925], [25.830867606000083, -17.94261291299989], [25.83064680900003, -17.943436315999975], [25.832223109000097, -17.94392689299997], [25.831495697000094, -17.945365798999944], [25.83213913900005, -17.94578203499998], [25.832258055000125, -17.94607188099991], [25.83176108500004, -17.947126381999965], [25.82955680100008, -17.945422851999865], [25.828052744000104, -17.944863961999886], [25.826184742000066, -17.94505886399992], [25.825672208000128, -17.94656777199998], [25.821295704000192, -17.944531386999927]]]]}}, {"type": "Feature", "properties": {"GID_3": "ZWE.8.9.10_2", "GID_0": "ZWE", "COUNTRY": "Zimbabwe", "GID_1": "ZWE.8_1", "NAME_1": "Matabeleland North", "NL_NAME_1": "NA", "GID_2": "ZWE.8.9_2", "NAME_2": "Victoria Falls", "NL_NAME_2": "NA", "NAME_3": "Ward 8", "VARNAME_3": "NA", "NL_NAME_3": "NA", "TYPE_3": "Ward", "ENGTYPE_3": "Ward", "CC_3": "NA", "HASC_3": "NA", "id": "ZWE.8.9.10_2", "name": "Ward 8"}, "geometry": {"type": "MultiPolygon", "coordinates": [[[[25.834723489, -17.938149458999874], [25.83331460000005, -17.948326946999885], [25.83176108500004, -17.947126381999965], [25.832258055000125, -17.94607188099991], [25.83213913900005, -17.94578203499998], [25.831495697000094, -17.945365798999944], [25.832223109000097, -17.94392689299997], [25.83064680900003, -17.943436315999975], [25.830867606000083, -17.94261291299989], [25.831874514000106, -17.942344059999925], [25.831956679000086, -17.940763815999844], [25.83196118799998, -17.940076565999902], [25.832461479000074, -17.940423211999814], [25.832754055000123, -17.939600236999922], [25.834723489, -17.938149458999874]]]]}}, {"type": "Feature", "properties": {"GID_3": "ZWE.8.9.11_2", "GID_0": "ZWE", "COUNTRY": "Zimbabwe", "GID_1": "ZWE.8_1", "NAME_1": "Matabeleland North", "NL_NAME_1": "NA", "GID_2": "ZWE.8.9_2", "NAME_2": "Victoria Falls", "NL_NAME_2": "NA", "NAME_3": "Ward 9", "VARNAME_3": "NA", "NL_NAME_3": "NA", "TYPE_3": "Ward", "ENGTYPE_3": "Ward", "CC_3": "NA", "HASC_3": "NA", "id": "ZWE.8.9.11_2", "name": "Ward 9"}, "geometry": {"type": "MultiPolygon", "coordinates": [[[[25.832735569000192, -17.952509308999822], [25.832528762000038, -17.952532247999955], [25.82731113000017, -17.94892697199998], [25.825997497000117, -17.95214922799994], [25.827214872000013, -17.952637677999974], [25.826850448000073, -17.953460206999978], [25.818750731000023, -17.951192586999923], [25.819709609000142, -17.948682893999944], [25.821009591000063, -17.94528028799988], [25.821295704000192, -17.944531386999927], [25.825672208000128, -17.94656777199998], [25.826184742000066, -17.94505886399992], [25.828052744000104, -17.944863961999886], [25.82955680100008, -17.945422851999865], [25.83176108500004, -17.947126381999965], [25.83331460000005, -17.948326946999885], [25.83330612500015, -17.948388166999962], [25.832735569000192, -17.952509308999822]]]]}}]}