{"type": "FeatureCollection", "features": [{"type": "Feature", "properties": {"GID_3": "ZWE.10.8.1_2", "GID_0": "ZWE", "COUNTRY": "Zimbabwe", "GID_1": "ZWE.10_1", "NAME_1": "Midlands", "NL_NAME_1": "NA", "GID_2": "ZWE.10.8_2", "NAME_2": "Kwekwe Urban", "NL_NAME_2": "NA", "NAME_3": "Ward 1", "VARNAME_3": "NA", "NL_NAME_3": "NA", "TYPE_3": "Ward", "ENGTYPE_3": "Ward", "CC_3": "NA", "HASC_3": "NA", "id": "ZWE.10.8.1_2", "name": "Ward 1"}, "geometry": {"type": "MultiPolygon", "coordinates": [[[[29.840626601000054, -18.90396888399988], [29.84083014400011, -18.904444257999955], [29.839798175000055, -18.912250946999904], [29.839646655000138, -18.913397074999978], [29.83961820100012, -18.914910257999964], [29.839232923, -18.918317010999942], [29.836508471000172, -18.91830838399983], [29.83699799800013, -18.91541778199985], [29.836604590000036, -18.91320234999995], [29.830539245000125, -18.904125925999892], [29.830393063000088, -18.88852256599995], [29.830390860000193, -18.88828758799997], [29.830378786999972, -18.88817444299991], [29.830970330000184, -18.888520266999933], [29.831829503000108, -18.889520026999946], [29.832530962000135, -18.890774396999916], [29.834089264000113, -18.89273360199985], [29.83480373000009, -18.893297962999895], [29.83547667199997, -18.896070338999948], [29.836620887000095, -18.896918109999945], [29.837169647000167, -18.898584005999965], [29.838997273000075, -18.901652137999974], [29.8404133520001, -18.90347084299998], [29.840626601000054, -18.90396888399988]]]]}}, {"type": "Feature", "properties": {"GID_3": "ZWE.10.8.2_2", "GID_0": "ZWE", "COUNTRY": "Zimbabwe", "GID_1": "ZWE.10_1", "NAME_1": "Midlands", "NL_NAME_1": "NA", "GID_2": "ZWE.10.8_2", "NAME_2": "Kwekwe Urban", "NL_NAME_2": "NA", "NAME_3": "Ward 10", "VARNAME_3": "NA", "NL_NAME_3": "NA", "TYPE_3": "Ward", "ENGTYPE_3": "Ward", "CC_3": "NA", "HASC_3": "NA", "id": "ZWE.10.8.2_2", "name": "Ward 10"}, "geometry": {"type": "MultiPolygon", "coordinates": [[[[29.819846620000135, -18.968165944999896], [29.782264435000172, -18.959305859999915], [29.78467408400013, -18.94646077999994], [29.788803883000185, -18.947995446999983], [29.78901493000012, -18.944548108999925], [29.790354324000077, -18.942776799999933], [29.790763093000066, -18.936572076999937], [29.794135034000078, -18.934697870999912], [29.79678717600018, -18.93253507399993], [29.796249873000193, -18.93031943999995], [29.796845095000094, -18.92949917699991], [29.797577972000056, -18.929097715999944], [29.799178192000113, -18.928849268999954], [29.799787234000064, -18.930167470999947], [29.800013981000063, -18.930658232999974], [29.79971609400019, -18.93106721399988], [29.802465806000157, -18.931390748999945], [29.803491307, -18.930856268999946], [29.80391054100005, -18.931691747999878], [29.805218161000084, -18.931576246999896], [29.806098658, -18.93103925299988], [29.80622003100018, -18.93228372099992], [29.804337659000055, -18.93211323599985], [29.804324525000027, -18.932803217999833], [29.804886141000168, -18.933779191999918], [29.806043526000053, -18.933937180999862], [29.806149143000027, -18.93600962799991], [29.80498386400012, -18.936265625999965], [29.804968103000192, -18.937093603999813], [29.806964032000053, -18.93892254799988], [29.809418642000082, -18.93951699699994], [29.81569715600017, -18.952169985999944], [29.81570561300009, -18.95218702699998], [29.819846620000135, -18.968165944999896]]]]}}, {"type": "Feature", "properties": {"GID_3": "ZWE.10.8.3_2", "GID_0": "ZWE", "COUNTRY": "Zimbabwe", "GID_1": "ZWE.10_1", "NAME_1": "Midlands", "NL_NAME_1": "NA", "GID_2": "ZWE.10.8_2", "NAME_2": "Kwekwe Urban", "NL_NAME_2": "NA", "NAME_3": "Ward 11", "VARNAME_3": "NA", "NL_NAME_3": "NA", "TYPE_3": "Ward", "ENGTYPE_3": "Ward", "CC_3": "NA", "HASC_3": "NA", "id": "ZWE.10.8.3_2", "name": "Ward 11"}, "geometry": {"type": "MultiPolygon", "coordinates": [[[[29.862446644000045, -18.90018678699994], [29.86462437400013, -18.896400718999928], [29.867321996000044, -18.917678618999958], [29.86967693800017, -18.930008561999955], [29.865844047000053, -18.93054060499992], [29.856659683000032, -18.93447689699991], [29.85260629900006, -18.926134542999876], [29.851534238000056, -18.921422753999934], [29.854812014, -18.91678476899989], [29.85516914500016, -18.913201596999954], [29.85681307400006, -18.910606555999948], [29.859523408000086, -18.905268587999956], [29.862446644000045, -18.90018678699994]]]]}}, {"type": "Feature", "properties": {"GID_3": "ZWE.10.8.4_2", "GID_0": "ZWE", "COUNTRY": "Zimbabwe", "GID_1": "ZWE.10_1", "NAME_1": "Midlands", "NL_NAME_1": "NA", "GID_2": "ZWE.10.8_2", "NAME_2": "Kwekwe Urban", "NL_NAME_2": "NA", "NAME_3": "Ward 12", "VARNAME_3": "NA", "NL_NAME_3": "NA", "TYPE_3": "Ward", "ENGTYPE_3": "Ward", "CC_3": "NA", "HASC_3": "NA", "id": "ZWE.10.8.4_2", "name": "Ward 12"}, "geometry": {"type": "MultiPolygon", "coordinates": [[[[29.86462437400013, -18.896400718999928], [29.862446644000045, -18.90018678699994], [29.85849500300003, -18.898210750999965], [29.856172777000097, -18.89830948799988], [29.850790528000175, -18.899184593999962], [29.850672936000024, -18.89892014199995], [29.849677226000097, -18.896680862999972], [29.84854819600008, -18.887274522999974], [29.84680578200016, -18.87965238599992], [29.845894438000073, -18.87411505299997], [29.844004023000082, -18.866662243999883], [29.843263677000095, -18.85854030299987], [29.84509958300015, -18.858349089999876], [29.845694567000123, -18.85830908599985], [29.84621555200016, -18.858273082999972], [29.846436546000177, -18.85823507999993], [29.84665953900003, -18.858164074999934], [29.84680853500015, -18.858092068999838], [29.846957531000044, -18.85805606599996], [29.847031529000105, -18.85802106299991], [29.847142525000038, -18.857985059999862], [29.84725552200007, -18.857949057999974], [29.849335463000102, -18.85815107199994], [29.849448460000133, -18.858292082999867], [29.84955945700017, -18.858468095999967], [29.849671454000145, -18.85864510899995], [29.849784451000176, -18.858857125999975], [29.849784451000176, -18.85889312799992], [29.849784451000176, -18.85890317099995], [29.849784451000176, -18.858927130999916], [29.849784451000176, -18.859105144999887], [29.850169443000027, -18.862889433999953], [29.850280440000063, -18.863064447999932], [29.850392436999982, -18.86320645799998], [29.850467435000155, -18.863347468999905], [29.854155333000108, -18.866267690999962], [29.854378326000187, -18.866336695999962], [29.854899312000157, -18.866404700999908], [29.855494295000085, -18.86647370599991], [29.856089278000184, -18.866576712999915], [29.85661026300005, -18.866643717999978], [29.856797258000142, -18.866749725999966], [29.85698225300007, -18.866784727999914], [29.857169248, -18.866852733999963], [29.85739224100007, -18.866923738999958], [29.858432212000082, -18.86705874899991], [29.86122213300007, -18.867505780999977], [29.861815117000106, -18.867537782999932], [29.861995498, -18.867558362999887], [29.86196611200006, -18.86767879399997], [29.861928114000136, -18.86771579699996], [29.86193011400013, -18.86782580499988], [29.861932114000126, -18.868319842999938], [29.86252791700008, -18.869697604999942], [29.862294105000103, -18.86982295799993], [29.864131069000052, -18.892506693999906], [29.86413806900009, -18.89256469899982], [29.86462437400013, -18.896400718999928]]]]}}, {"type": "Feature", "properties": {"GID_3": "ZWE.10.8.5_2", "GID_0": "ZWE", "COUNTRY": "Zimbabwe", "GID_1": "ZWE.10_1", "NAME_1": "Midlands", "NL_NAME_1": "NA", "GID_2": "ZWE.10.8_2", "NAME_2": "Kwekwe Urban", "NL_NAME_2": "NA", "NAME_3": "Ward 13", "VARNAME_3": "NA", "NL_NAME_3": "NA", "TYPE_3": "Ward", "ENGTYPE_3": "Ward", "CC_3": "NA", "HASC_3": "NA", "id": "ZWE.10.8.5_2", "name": "Ward 13"}, "geometry": {"type": "MultiPolygon", "coordinates": [[[[29.81569715600017, -18.952169985999944], [29.809418642000082, -18.93951699699994], [29.80807617300013, -18.933834154999943], [29.812273370000014, -18.934320515999957], [29.81236245300005, -18.92962860399996], [29.814389819000098, -18.929801495999982], [29.81605022300016, -18.926378947999922], [29.816928048000022, -18.925979890999884], [29.8172389610001, -18.92488088399989], [29.8186915280001, -18.924767767999867], [29.82187359800014, -18.92523646599983], [29.823339221000026, -18.92443331899989], [29.82587872900018, -18.928203994999876], [29.826828528000135, -18.931671354999878], [29.82661048600005, -18.935532853999973], [29.82770077100008, -18.93924369599989], [29.827558371000066, -18.939103213999886], [29.826858291, -18.945441246999962], [29.824775851000027, -18.94816643899992], [29.822276587000033, -18.94991814399998], [29.81569715600017, -18.952169985999944]]]]}}, {"type": "Feature", "properties": {"GID_3": "ZWE.10.8.6_2", "GID_0": "ZWE", "COUNTRY": "Zimbabwe", "GID_1": "ZWE.10_1", "NAME_1": "Midlands", "NL_NAME_1": "NA", "GID_2": "ZWE.10.8_2", "NAME_2": "Kwekwe Urban", "NL_NAME_2": "NA", "NAME_3": "Ward 14", "VARNAME_3": "NA", "NL_NAME_3": "NA", "TYPE_3": "Ward", "ENGTYPE_3": "Ward", "CC_3": "NA", "HASC_3": "NA", "id": "ZWE.10.8.6_2", "name": "Ward 14"}, "geometry": {"type": "MultiPolygon", "coordinates": [[[[29.819846620000135, -18.968165944999896], [29.81570561300009, -18.95218702699998], [29.81569715600017, -18.952169985999944], [29.822276587000033, -18.94991814399998], [29.824775851000027, -18.94816643899992], [29.826858291, -18.945441246999962], [29.827558371000066, -18.939103213999886], [29.82770077100008, -18.93924369599989], [29.831073437999976, -18.939882163999982], [29.83344206100014, -18.934786419999966], [29.832774309000115, -18.93173802799987], [29.834169653000117, -18.926970140999913], [29.837323781000123, -18.92122607099992], [29.839232923, -18.918317010999942], [29.856444109000165, -18.934569280999938], [29.848227552000026, -18.938090193999926], [29.848096487000134, -18.93832225099993], [29.83346698800017, -18.964219201999924], [29.820324364000044, -18.96827852099989], [29.819846620000135, -18.968165944999896]]]]}}, {"type": "Feature", "properties": {"GID_3": "ZWE.10.8.7_2", "GID_0": "ZWE", "COUNTRY": "Zimbabwe", "GID_1": "ZWE.10_1", "NAME_1": "Midlands", "NL_NAME_1": "NA", "GID_2": "ZWE.10.8_2", "NAME_2": "Kwekwe Urban", "NL_NAME_2": "NA", "NAME_3": "Ward 2", "VARNAME_3": "NA", "NL_NAME_3": "NA", "TYPE_3": "Ward", "ENGTYPE_3": "Ward", "CC_3": "NA", "HASC_3": "NA", "id": "ZWE.10.8.7_2", "name": "Ward 2"}, "geometry": {"type": "MultiPolygon", "coordinates": [[[[29.839232923, -18.918317010999942], [29.83961820100012, -18.914910257999964], [29.839646655000138, -18.913397074999978], [29.839798175000055, -18.912250946999904], [29.848232006000046, -18.912957401999847], [29.847745876000147, -18.91695030799997], [29.847538743000143, -18.920259900999895], [29.851534238000056, -18.921422753999934], [29.85260629900006, -18.926134542999876], [29.856659683000032, -18.93447689699991], [29.856444109000165, -18.934569280999938], [29.839232923, -18.918317010999942]]]]}}, {"type": "Feature", "properties": {"GID_3": "ZWE.10.8.8_2", "GID_0": "ZWE", "COUNTRY": "Zimbabwe", "GID_1": "ZWE.10_1", "NAME_1": "Midlands", "NL_NAME_1": "NA", "GID_2": "ZWE.10.8_2", "NAME_2": "Kwekwe Urban", "NL_NAME_2": "NA", "NAME_3": "Ward 3", "VARNAME_3": "NA", "NL_NAME_3": "NA", "TYPE_3": "Ward", "ENGTYPE_3": "Ward", "CC_3": "NA", "HASC_3": "NA", "id": "ZWE.10.8.8_2", "name": "Ward 3"}, "geometry": {"type": "MultiPolygon", "coordinates": [[[[29.839798175000055, -18.912250946999904], [29.84083014400011, -18.904444257999955], [29.840626601000054, -18.90396888399988], [29.84710741400005, -18.901515472999847], [29.847709117000193, -18.90107750699991], [29.849288789000184, -18.904276232999905], [29.848232006000046, -18.912957401999847], [29.839798175000055, -18.912250946999904]]]]}}, {"type": "Feature", "properties": {"GID_3": "ZWE.10.8.9_2", "GID_0": "ZWE", "COUNTRY": "Zimbabwe", "GID_1": "ZWE.10_1", "NAME_1": "Midlands", "NL_NAME_1": "NA", "GID_2": "ZWE.10.8_2", "NAME_2": "Kwekwe Urban", "NL_NAME_2": "NA", "NAME_3": "Ward 4", "VARNAME_3": "NA", "NL_NAME_3": "NA", "TYPE_3": "Ward", "ENGTYPE_3": "Ward", "CC_3": "NA", "HASC_3": "NA", "id": "ZWE.10.8.9_2", "name": "Ward 4"}, "geometry": {"type": "MultiPolygon", "coordinates": [[[[29.862446644000045, -18.90018678699994], [29.859523408000086, -18.905268587999956], [29.85681307400006, -18.910606555999948], [29.85516914500016, -18.913201596999954], [29.854812014, -18.91678476899989], [29.851534238000056, -18.921422753999934], [29.847538743000143, -18.920259900999895], [29.847745876000147, -18.91695030799997], [29.848232006000046, -18.912957401999847], [29.849288789000184, -18.904276232999905], [29.847709117000193, -18.90107750699991], [29.850672936000024, -18.89892014199995], [29.850790528000175, -18.899184593999962], [29.856172777000097, -18.89830948799988], [29.85849500300003, -18.898210750999965], [29.862446644000045, -18.90018678699994]]]]}}, {"type": "Feature", "properties": {"GID_3": "ZWE.10.8.10_2", "GID_0": "ZWE", "COUNTRY": "Zimbabwe", "GID_1": "ZWE.10_1", "NAME_1": "Midlands", "NL_NAME_1": "NA", "GID_2": "ZWE.10.8_2", "NAME_2": "Kwekwe Urban", "NL_NAME_2": "NA", "NAME_3": "Ward 5", "VARNAME_3": "NA", "NL_NAME_3": "NA", "TYPE_3": "Ward", "ENGTYPE_3": "Ward", "CC_3": "NA", "HASC_3": "NA", "id": "ZWE.10.8.10_2", "name": "Ward 5"}, "geometry": {"type": "MultiPolygon", "coordinates": [[[[29.840626601000054, -18.90396888399988], [29.8404133520001, -18.90347084299998], [29.838997273000075, -18.901652137999974], [29.837169647000167, -18.898584005999965], [29.836620887000095, -18.896918109999945], [29.83547667199997, -18.896070338999948], [29.83480373000009, -18.893297962999895], [29.834089264000113, -18.89273360199985], [29.832530962000135, -18.890774396999916], [29.831829503000108, -18.889520026999946], [29.830970330000184, -18.888520266999933], [29.830378786999972, -18.88817444299991], [29.830015418000016, -18.87070496199982], [29.830153484999983, -18.870551020999983], [29.830255152000177, -18.87045564399989], [29.832125958000063, -18.868289859999834], [29.832185956000046, -18.86811584599991], [29.832246954000084, -18.867942832999972], [29.832244954000146, -18.867766819999815], [29.832305952000183, -18.86759380599989], [29.83230395200019, -18.867129770999952], [29.83230395200019, -18.867015761999937], [29.83230395200019, -18.866841748999832], [29.832242953000048, -18.866667734999908], [29.832240953000053, -18.86649472199997], [29.832179955000186, -18.86632070899998], [29.831317977000083, -18.86261842599987], [29.831315977000088, -18.86238740799996], [29.831315976000155, -18.86192437299991], [29.831374975000188, -18.8618083639999], [29.831847959000072, -18.85888013899995], [29.831992955000146, -18.85865812199995], [29.83213195100012, -18.85865812199995], [29.83231694600005, -18.858657121999954], [29.832503940000038, -18.858691123999904], [29.83272693400005, -18.858691123999904], [29.83298692700015, -18.858689123999852], [29.833096924000074, -18.85868912299992], [29.83328391800012, -18.858687122999868], [29.83395389900005, -18.858685122999873], [29.834063896000146, -18.858685122999873], [29.834361888000103, -18.85868312199989], [29.834584881000183, -18.85871812499994], [29.834807874999967, -18.85875212699989], [29.83499287000012, -18.858750126999837], [29.835179865000043, -18.858750126999837], [29.83529086200008, -18.8587841289999], [29.835364859000094, -18.8587841289999], [29.83543985700004, -18.85881913199995], [29.835551854000187, -18.85881913199995], [29.835662851000052, -18.8588531339999], [29.83584784600015, -18.8588531339999], [29.83595984300007, -18.858887136999897], [29.83603484100007, -18.858887136999897], [29.83614483700012, -18.858887136999897], [29.83625783400015, -18.858922138999958], [29.836554826000054, -18.858920138999963], [29.83673982100015, -18.858954140999913], [29.83696281400006, -18.858954140999913], [29.83733480400008, -18.85902314599997], [29.83752179900017, -18.859021145999975], [29.837706793000052, -18.859021145999975], [29.83789178800015, -18.85901914599998], [29.838189780000107, -18.859019144999877], [29.838263778000055, -18.859019144999877], [29.838338775000125, -18.85905314799993], [29.843263677000095, -18.85854030299987], [29.844004023000082, -18.866662243999883], [29.845894438000073, -18.87411505299997], [29.84680578200016, -18.87965238599992], [29.84854819600008, -18.887274522999974], [29.849677226000097, -18.896680862999972], [29.850672936000024, -18.89892014199995], [29.847709117000193, -18.90107750699991], [29.84710741400005, -18.901515472999847], [29.840626601000054, -18.90396888399988]]]]}}, {"type": "Feature", "properties": {"GID_3": "ZWE.10.8.11_2", "GID_0": "ZWE", "COUNTRY": "Zimbabwe", "GID_1": "ZWE.10_1", "NAME_1": "Midlands", "NL_NAME_1": "NA", "GID_2": "ZWE.10.8_2", "NAME_2": "Kwekwe Urban", "NL_NAME_2": "NA", "NAME_3": "Ward 6", "VARNAME_3": "NA", "NL_NAME_3": "NA", "TYPE_3": "Ward", "ENGTYPE_3": "Ward", "CC_3": "NA", "HASC_3": "NA", "id": "ZWE.10.8.11_2", "name": "Ward 6"}, "geometry": {"type": "MultiPolygon", "coordinates": [[[[29.830378786999972, -18.88817444299991], [29.830390860000193, -18.88828758799997], [29.830393063000088, -18.88852256599995], [29.830539245000125, -18.904125925999892], [29.836604590000036, -18.91320234999995], [29.83699799800013, -18.91541778199985], [29.836508471000172, -18.91830838399983], [29.839232923, -18.918317010999942], [29.837323781000123, -18.92122607099992], [29.834169653000117, -18.926970140999913], [29.832774309000115, -18.93173802799987], [29.83344206100014, -18.934786419999966], [29.831073437999976, -18.939882163999982], [29.82770077100008, -18.93924369599989], [29.82661048600005, -18.935532853999973], [29.826828528000135, -18.931671354999878], [29.82587872900018, -18.928203994999876], [29.823339221000026, -18.92443331899989], [29.82187359800014, -18.92523646599983], [29.8186915280001, -18.924767767999867], [29.8172389610001, -18.92488088399989], [29.816928048000022, -18.925979890999884], [29.81605022300016, -18.926378947999922], [29.814389819000098, -18.929801495999982], [29.81236245300005, -18.92962860399996], [29.812273370000014, -18.934320515999957], [29.80807617300013, -18.933834154999943], [29.809418642000082, -18.93951699699994], [29.806964032000053, -18.93892254799988], [29.804968103000192, -18.937093603999813], [29.80498386400012, -18.936265625999965], [29.806149143000027, -18.93600962799991], [29.806043526000053, -18.933937180999862], [29.804886141000168, -18.933779191999918], [29.804324525000027, -18.932803217999833], [29.804337659000055, -18.93211323599985], [29.80622003100018, -18.93228372099992], [29.806098658, -18.93103925299988], [29.805218161000084, -18.931576246999896], [29.80391054100005, -18.931691747999878], [29.803491307, -18.930856268999946], [29.802465806000157, -18.931390748999945], [29.79971609400019, -18.93106721399988], [29.800013981000063, -18.930658232999974], [29.799787234000064, -18.930167470999947], [29.799178192000113, -18.928849268999954], [29.797577972000056, -18.929097715999944], [29.796845095000094, -18.92949917699991], [29.796249873000193, -18.93031943999995], [29.793824288000167, -18.93069130399988], [29.793720023000162, -18.92957380599995], [29.79410762100008, -18.928398891999905], [29.79383681200011, -18.927282098999967], [29.794757915000048, -18.921111904999975], [29.79366673800007, -18.917061639999872], [29.78317654400007, -18.92334409999995], [29.783745954000096, -18.924118546999978], [29.782855242000096, -18.924867664999965], [29.77964989100019, -18.920641651999972], [29.7791228750001, -18.921466573999908], [29.777604442000154, -18.92067562899996], [29.776793398, -18.921078569999963], [29.77659005600009, -18.92406379399995], [29.777906822000148, -18.92394766799987], [29.777790135000146, -18.922416506999923], [29.778449844000136, -18.92228895699992], [29.77837921000014, -18.925971551999965], [29.77792104400004, -18.926488001999928], [29.77727878100012, -18.926230451999913], [29.766103747999978, -18.929381356999954], [29.75423220600004, -18.926428362999957], [29.75052431000006, -18.92527027599988], [29.75013032100003, -18.925239273999978], [29.74507946300014, -18.923904174999905], [29.742529534000084, -18.922842095999954], [29.74249553499999, -18.922842095999954], [29.74239053800011, -18.922842095999954], [29.742218543000035, -18.9228080929999], [29.735689727000192, -18.92176401799992], [29.73555273100004, -18.92173001499998], [29.73544773400016, -18.921663009999918], [29.735378736000143, -18.921663009999918], [29.733585786000106, -18.921063965999906], [29.733414791000087, -18.9209649579999], [29.73330979399998, -18.92089795299995], [29.733171798000114, -18.920798945999934], [29.733137799000076, -18.920766942999933], [29.73310379999998, -18.920766942999933], [29.73306880100006, -18.92073394099998], [29.732624813000086, -18.920007884999848], [29.73262681300008, -18.91994287999995], [29.73262681300008, -18.919907877999833], [29.73266081200012, -18.919843872999934], [29.732697599000062, -18.91940462599996], [29.732808579000164, -18.919360466999933], [29.73284180600018, -18.919349834999935], [29.738182654000127, -18.91746068699996], [29.738251652000145, -18.91746068699996], [29.73842464700016, -18.91746068699996], [29.73863264100015, -18.917462686999954], [29.740986574000146, -18.917207664999978], [29.74328250800005, -18.916360598999972], [29.747030401000075, -18.9144644509999], [29.747101399000087, -18.914399445999948], [29.747206396000138, -18.914332440999942], [29.74832036300006, -18.91325135799991], [29.74832036300006, -18.913218354999856], [29.748356362000095, -18.913186352999958], [29.748356362000095, -18.913119347999896], [29.748390361000133, -18.91302033999989], [29.74842636, -18.912923332999867], [29.74846335900014, -18.912791321999975], [29.748646353000026, -18.911408215999927], [29.748646353000026, -18.91131120899996], [29.74868235200006, -18.911212200999955], [29.74868235200006, -18.911113193999938], [29.748684351000122, -18.911013185999934], [29.748650352000084, -18.910949180999864], [29.748650352000084, -18.910882175999916], [29.748030370000095, -18.91041814099998], [29.747927372000106, -18.91041814099998], [29.74785837400009, -18.910386138999968], [29.747719378000113, -18.910386138999968], [29.74754738300004, -18.910384138999916], [29.747374388000026, -18.910384138999916], [29.747166394000033, -18.910384138999916], [29.745575439000106, -18.91057515499989], [29.745401444000038, -18.91057515499989], [29.745264448000057, -18.910540151999953], [29.74512545200008, -18.910540151999953], [29.745022455000026, -18.910540151999953], [29.74488345900005, -18.91050614999989], [29.744711464000147, -18.910474147999878], [29.74457246800017, -18.910472146999894], [29.744295475000058, -18.910405142999878], [29.743124508000108, -18.909974109999894], [29.742985512000132, -18.909907104999945], [29.742847516000097, -18.909873102999825], [29.742744518999984, -18.909808097999928], [29.74260752300006, -18.909774094999875], [29.742502526000123, -18.90974109299998], [29.742399528000135, -18.90967508799997], [29.742330530000118, -18.909642084999973], [29.74222753300006, -18.90960808299991], [29.740225590000023, -18.90920505299988], [29.74015459200001, -18.909238055999936], [29.740051595000125, -18.909238055999936], [29.739843601000132, -18.909238055999936], [29.739359614000136, -18.909268058999942], [29.73915162000003, -18.909301060999894], [29.73897962500007, -18.909333063999895], [29.73887462800019, -18.90936606699995], [29.738840629000094, -18.90936606699995], [29.738806630000056, -18.90936606699995], [29.738666634000026, -18.90936606699995], [29.73856363700014, -18.909398068999963], [29.738459640000144, -18.909396068999968], [29.738424641000165, -18.909396068999968], [29.73835664300003, -18.909396068999968], [29.738321644000052, -18.909396068999968], [29.737415668999972, -18.909295061999956], [29.737415668999972, -18.90926105899996], [29.737381670000104, -18.90919605499994], [29.737347671000066, -18.909161051999945], [29.73715067600017, -18.907877953999957], [29.73715067600017, -18.907810948999895], [29.737152676000164, -18.907678938999823], [29.737152676000164, -18.907547927999815], [29.737154675000056, -18.907450920999963], [29.73730167000008, -18.906362837999893], [29.737335669000117, -18.906298832999937], [29.737335669000117, -18.90623382799987], [29.737337669000112, -18.90613381999998], [29.737337669000112, -18.90600280999996], [29.737339669000107, -18.905836796999893], [29.737341669000102, -18.905672784999922], [29.737274670000147, -18.905342759999883], [29.73634969600016, -18.904022658999963], [29.736315697000123, -18.904022658999963], [29.736315697000123, -18.903990656999895], [29.73628269800014, -18.903923651999946], [29.736214699000072, -18.903826643999935], [29.736145701000055, -18.903692633999924], [29.73604270400017, -18.903560623999965], [29.735939707000057, -18.903461615999845], [29.73587070900004, -18.90339661099995], [29.735802711000133, -18.90333060599994], [29.73569971400019, -18.90326360099988], [29.73563071500007, -18.903198595999925], [29.735561717000053, -18.903099588999908], [29.735493719000146, -18.90303258399996], [29.73542472100013, -18.902965578999897], [29.735355723000055, -18.902933575999953], [29.73525272600017, -18.90286657099989], [29.735149729000113, -18.902801565999937], [29.734978734000038, -18.902700558999925], [29.734840737000127, -18.902601550999975], [29.732662799000025, -18.90233053199995], [29.732593801000178, -18.90233053199995], [29.732525803000044, -18.902298529999882], [29.73242280600016, -18.902296529999887], [29.732214812000166, -18.902296529999887], [29.732075815000144, -18.902296529999887], [29.73090084900008, -18.902258527999948], [29.730762853000044, -18.902258527999948], [29.73062385700007, -18.902258527999948], [29.73024486700018, -18.902256527999953], [29.730139870000073, -18.902256527999953], [29.730036873000188, -18.902254527999958], [29.72996787500017, -18.9022225249999], [29.729933876000075, -18.9022225249999], [29.729828879000024, -18.902189522999947], [29.72972588200014, -18.90215551999995], [29.729622885000026, -18.902122517999885], [29.72951988800014, -18.902056512999934], [29.729450890000123, -18.902021509999884], [29.729450890000123, -18.901989507999872], [29.729015901000082, -18.90011436499998], [29.729017900000144, -18.89988534699995], [29.72950455600011, -18.898479920999932], [29.729937873000154, -18.898559244999944], [29.729950873000178, -18.898558244999947], [29.73077685000004, -18.898603247999915], [29.750942282000153, -18.903637619999927], [29.752520237000056, -18.903391599999907], [29.76276594900014, -18.90612280299996], [29.780597447000105, -18.910502125999926], [29.780661446000124, -18.910519126999873], [29.8010008600001, -18.896866068999884], [29.81752638400019, -18.886714280999968], [29.81758738300016, -18.886714280999968], [29.81758738300016, -18.88665727599988], [29.817707379000126, -18.88659727099997], [29.81782937600019, -18.886481262999894], [29.81801037000008, -18.886365253999884], [29.818193365000184, -18.886306248999972], [29.818436358000156, -18.886189239999965], [29.81855835500005, -18.886130234999882], [29.818680351000182, -18.886014225999872], [29.818739350000158, -18.88595522199995], [29.81880034800008, -18.88589721699998], [29.81886134600012, -18.88578120799997], [29.818922344000043, -18.88572420399987], [29.81928033300005, -18.88386806099993], [29.819341331000146, -18.88375205199992], [29.81940132900013, -18.88352103499983], [29.819462327000053, -18.883347020999906], [29.819462327000053, -18.883115003999876], [29.81946032700006, -18.882940989999952], [29.81946032700006, -18.882824980999885], [29.820783286000164, -18.878301633999968], [29.820906283000113, -18.878071615999943], [29.820965281000042, -18.877895602999956], [29.821026279000137, -18.87778159399994], [29.821026279000137, -18.877722589999962], [29.821087277000174, -18.877664584999934], [29.823267213000065, -18.874758360999977], [29.82344820800006, -18.874584347999814], [29.823570205000124, -18.874525342999902], [29.823692201000085, -18.874468338999975], [29.82369020100009, -18.874408333999895], [29.82842806600013, -18.872417177999978], [29.82836706700016, -18.872419178999905], [29.830015418000016, -18.87070496199982], [29.830378786999972, -18.88817444299991]]]]}}, {"type": "Feature", "properties": {"GID_3": "ZWE.10.8.12_2", "GID_0": "ZWE", "COUNTRY": "Zimbabwe", "GID_1": "ZWE.10_1", "NAME_1": "Midlands", "NL_NAME_1": "NA", "GID_2": "ZWE.10.8_2", "NAME_2": "Kwekwe Urban", "NL_NAME_2": "NA", "NAME_3": "Ward 7", "VARNAME_3": "NA", "NL_NAME_3": "NA", "TYPE_3": "Ward", "ENGTYPE_3": "Ward", "CC_3": "NA", "HASC_3": "NA", "id": "ZWE.10.8.12_2", "name": "Ward 7"}, "geometry": {"type": "MultiPolygon", "coordinates": [[[[29.796249873000193, -18.93031943999995], [29.79678717600018, -18.93253507399993], [29.794135034000078, -18.934697870999912], [29.790763093000066, -18.936572076999937], [29.790354324000077, -18.942776799999933], [29.78901493000012, -18.944548108999925], [29.788803883000185, -18.947995446999983], [29.78467408400013, -18.94646077999994], [29.776513591000025, -18.949314098999935], [29.776254594000193, -18.94260358599996], [29.77483974900008, -18.942010088999893], [29.776429230000076, -18.940047363999952], [29.777390401000105, -18.939438528999858], [29.780296535000048, -18.936430779999966], [29.782869242, -18.935571876999916], [29.783250275, -18.934744415999944], [29.785270796000134, -18.932207735999953], [29.786233223000067, -18.931529360999946], [29.789882374000115, -18.931662098999936], [29.793824288000167, -18.93069130399988], [29.796249873000193, -18.93031943999995]]]]}}, {"type": "Feature", "properties": {"GID_3": "ZWE.10.8.13_2", "GID_0": "ZWE", "COUNTRY": "Zimbabwe", "GID_1": "ZWE.10_1", "NAME_1": "Midlands", "NL_NAME_1": "NA", "GID_2": "ZWE.10.8_2", "NAME_2": "Kwekwe Urban", "NL_NAME_2": "NA", "NAME_3": "Ward 8", "VARNAME_3": "NA", "NL_NAME_3": "NA", "TYPE_3": "Ward", "ENGTYPE_3": "Ward", "CC_3": "NA", "HASC_3": "NA", "id": "ZWE.10.8.13_2", "name": "Ward 8"}, "geometry": {"type": "MultiPolygon", "coordinates": [[[[29.77792104400004, -18.926488001999928], [29.77837921000014, -18.925971551999965], [29.778449844000136, -18.92228895699992], [29.777790135000146, -18.922416506999923], [29.777906822000148, -18.92394766799987], [29.77659005600009, -18.92406379399995], [29.776793398, -18.921078569999963], [29.777604442000154, -18.92067562899996], [29.7791228750001, -18.921466573999908], [29.77964989100019, -18.920641651999972], [29.782855242000096, -18.924867664999965], [29.783745954000096, -18.924118546999978], [29.78317654400007, -18.92334409999995], [29.79366673800007, -18.917061639999872], [29.794757915000048, -18.921111904999975], [29.79383681200011, -18.927282098999967], [29.79410762100008, -18.928398891999905], [29.793720023000162, -18.92957380599995], [29.793824288000167, -18.93069130399988], [29.789882374000115, -18.931662098999936], [29.786990025000193, -18.926329490999933], [29.784850203000076, -18.927474005999954], [29.783771059000117, -18.92662121199993], [29.78113614700004, -18.926923015999932], [29.778274212000156, -18.927637872999924], [29.77792104400004, -18.926488001999928]]]]}}, {"type": "Feature", "properties": {"GID_3": "ZWE.10.8.14_2", "GID_0": "ZWE", "COUNTRY": "Zimbabwe", "GID_1": "ZWE.10_1", "NAME_1": "Midlands", "NL_NAME_1": "NA", "GID_2": "ZWE.10.8_2", "NAME_2": "Kwekwe Urban", "NL_NAME_2": "NA", "NAME_3": "Ward 9", "VARNAME_3": "NA", "NL_NAME_3": "NA", "TYPE_3": "Ward", "ENGTYPE_3": "Ward", "CC_3": "NA", "HASC_3": "NA", "id": "ZWE.10.8.14_2", "name": "Ward 9"}, "geometry": {"type": "MultiPolygon", "coordinates": [[[[29.766103747999978, -18.929381356999954], [29.77727878100012, -18.926230451999913], [29.77792104400004, -18.926488001999928], [29.778274212000156, -18.927637872999924], [29.78113614700004, -18.926923015999932], [29.783771059000117, -18.92662121199993], [29.784850203000076, -18.927474005999954], [29.786990025000193, -18.926329490999933], [29.789882374000115, -18.931662098999936], [29.786233223000067, -18.931529360999946], [29.785270796000134, -18.932207735999953], [29.783250275, -18.934744415999944], [29.782869242, -18.935571876999916], [29.780296535000048, -18.936430779999966], [29.777390401000105, -18.939438528999858], [29.776429230000076, -18.940047363999952], [29.77483974900008, -18.942010088999893], [29.772294705000036, -18.940942460999963], [29.772881683000094, -18.933931924999968], [29.772881683000094, -18.933700906999945], [29.772881683000094, -18.933527893999837], [29.772879682, -18.93341188499994], [29.772324696000112, -18.93046065899989], [29.772324696000112, -18.93051766399998], [29.77214170100018, -18.930519663999974], [29.76841680600006, -18.929956622999953], [29.766103747999978, -18.929381356999954]]]]}}]}