{"type": "FeatureCollection", "features": [{"type": "Feature", "properties": {"GID_3": "ZWE.4.2.1_2", "GID_0": "ZWE", "COUNTRY": "Zimbabwe", "GID_1": "ZWE.4_1", "NAME_1": "Mashonaland Central", "NL_NAME_1": "NA", "GID_2": "ZWE.4.2_2", "NAME_2": "Bindura Urban", "NL_NAME_2": "NA", "NAME_3": "Ward 1", "VARNAME_3": "NA", "NL_NAME_3": "NA", "TYPE_3": "Ward", "ENGTYPE_3": "Ward", "CC_3": "NA", "HASC_3": "NA", "id": "ZWE.4.2.1_2", "name": "Ward 1"}, "geometry": {"type": "MultiPolygon", "coordinates": [[[[31.318696130000035, -17.285275923999905], [31.346170354000037, -17.27719027699993], [31.331343425000114, -17.296044067999844], [31.32882646500002, -17.30094814499995], [31.328569539000114, -17.302684250999903], [31.328839581000068, -17.303322427999944], [31.328864794000083, -17.30338201199993], [31.32555315500008, -17.302774960999955], [31.318569673000127, -17.30352772499998], [31.318696130000035, -17.285275923999905]]]]}}, {"type": "Feature", "properties": {"GID_3": "ZWE.4.2.2_2", "GID_0": "ZWE", "COUNTRY": "Zimbabwe", "GID_1": "ZWE.4_1", "NAME_1": "Mashonaland Central", "NL_NAME_1": "NA", "GID_2": "ZWE.4.2_2", "NAME_2": "Bindura Urban", "NL_NAME_2": "NA", "NAME_3": "Ward 10", "VARNAME_3": "NA", "NL_NAME_3": "NA", "TYPE_3": "Ward", "ENGTYPE_3": "Ward", "CC_3": "NA", "HASC_3": "NA", "id": "ZWE.4.2.2_2", "name": "Ward 10"}, "geometry": {"type": "MultiPolygon", "coordinates": [[[[31.356923442000152, -17.319862231999878], [31.357348195000043, -17.31978424399989], [31.357363399000064, -17.318073458999947], [31.357279889999973, -17.317740120999872], [31.36227662100015, -17.319080541999938], [31.365016613000194, -17.319713837999927], [31.366008706000116, -17.323955273999957], [31.3584869930001, -17.325252198999976], [31.35797814300014, -17.325248026999873], [31.35790491800003, -17.323943875999817], [31.357820835000098, -17.323861714999964], [31.35799045000016, -17.323863105999976], [31.3583296810001, -17.323865886999954], [31.35817019900003, -17.32272397299994], [31.357177135000086, -17.31994578499996], [31.356923442000152, -17.319862231999878]]]]}}, {"type": "Feature", "properties": {"GID_3": "ZWE.4.2.3_2", "GID_0": "ZWE", "COUNTRY": "Zimbabwe", "GID_1": "ZWE.4_1", "NAME_1": "Mashonaland Central", "NL_NAME_1": "NA", "GID_2": "ZWE.4.2_2", "NAME_2": "Bindura Urban", "NL_NAME_2": "NA", "NAME_3": "Ward 11", "VARNAME_3": "NA", "NL_NAME_3": "NA", "TYPE_3": "Ward", "ENGTYPE_3": "Ward", "CC_3": "NA", "HASC_3": "NA", "id": "ZWE.4.2.3_2", "name": "Ward 11"}, "geometry": {"type": "MultiPolygon", "coordinates": [[[[31.345161943, -17.3160445179999], [31.344402822000177, -17.31547887699992], [31.34408581700012, -17.313959112999953], [31.343967600000042, -17.313802266999915], [31.34309117300012, -17.309144041999957], [31.34511335999997, -17.31058259199989], [31.34701216100018, -17.311061105999954], [31.34697455000014, -17.3129144049999], [31.34687391000017, -17.31292415999991], [31.347027363000166, -17.315439085999913], [31.347027480000065, -17.315472799999952], [31.34657099900005, -17.315787629999875], [31.345941471, -17.315666280999892], [31.345161943, -17.3160445179999]]]]}}, {"type": "Feature", "properties": {"GID_3": "ZWE.4.2.4_2", "GID_0": "ZWE", "COUNTRY": "Zimbabwe", "GID_1": "ZWE.4_1", "NAME_1": "Mashonaland Central", "NL_NAME_1": "NA", "GID_2": "ZWE.4.2_2", "NAME_2": "Bindura Urban", "NL_NAME_2": "NA", "NAME_3": "Ward 12", "VARNAME_3": "NA", "NL_NAME_3": "NA", "TYPE_3": "Ward", "ENGTYPE_3": "Ward", "CC_3": "NA", "HASC_3": "NA", "id": "ZWE.4.2.4_2", "name": "Ward 12"}, "geometry": {"type": "MultiPolygon", "coordinates": [[[[31.3584869930001, -17.325252198999976], [31.366008706000116, -17.323955273999957], [31.36938372700007, -17.33838308299994], [31.35808004600011, -17.341492331999973], [31.355661931000157, -17.336768214999893], [31.355608902000085, -17.336664611999936], [31.36129314900012, -17.333992681999916], [31.36147000200009, -17.333179410999946], [31.36045225700019, -17.333171076999975], [31.360141941999984, -17.329909658999952], [31.360565271000155, -17.32999459799987], [31.360586238000167, -17.32763208299997], [31.35965478100013, -17.327461509999978], [31.35974610000011, -17.32672901099994], [31.35839132700005, -17.326473492999867], [31.3584869930001, -17.325252198999976]]]]}}, {"type": "Feature", "properties": {"GID_3": "ZWE.4.2.5_2", "GID_0": "ZWE", "COUNTRY": "Zimbabwe", "GID_1": "ZWE.4_1", "NAME_1": "Mashonaland Central", "NL_NAME_1": "NA", "GID_2": "ZWE.4.2_2", "NAME_2": "Bindura Urban", "NL_NAME_2": "NA", "NAME_3": "Ward 2", "VARNAME_3": "NA", "NL_NAME_3": "NA", "TYPE_3": "Ward", "ENGTYPE_3": "Ward", "CC_3": "NA", "HASC_3": "NA", "id": "ZWE.4.2.5_2", "name": "Ward 2"}, "geometry": {"type": "MultiPolygon", "coordinates": [[[[31.328839581000068, -17.303322427999944], [31.328569539000114, -17.302684250999903], [31.32882646500002, -17.30094814499995], [31.331343425000114, -17.296044067999844], [31.346170354000037, -17.27719027699993], [31.34739163200004, -17.31115673299996], [31.34701216100018, -17.311061105999954], [31.34511335999997, -17.31058259199989], [31.34309117300012, -17.309144041999957], [31.340498619000186, -17.307299683999872], [31.337948957000037, -17.306439634999947], [31.336939430000086, -17.306099090999908], [31.33556791500007, -17.305636427999843], [31.333517967999967, -17.30556145299994], [31.33045795600009, -17.303797738999947], [31.328839581000068, -17.303322427999944]]]]}}, {"type": "Feature", "properties": {"GID_3": "ZWE.4.2.6_2", "GID_0": "ZWE", "COUNTRY": "Zimbabwe", "GID_1": "ZWE.4_1", "NAME_1": "Mashonaland Central", "NL_NAME_1": "NA", "GID_2": "ZWE.4.2_2", "NAME_2": "Bindura Urban", "NL_NAME_2": "NA", "NAME_3": "Ward 3", "VARNAME_3": "NA", "NL_NAME_3": "NA", "TYPE_3": "Ward", "ENGTYPE_3": "Ward", "CC_3": "NA", "HASC_3": "NA", "id": "ZWE.4.2.6_2", "name": "Ward 3"}, "geometry": {"type": "MultiPolygon", "coordinates": [[[[31.318569673000127, -17.30352772499998], [31.32555315500008, -17.302774960999955], [31.328864794000083, -17.30338201199993], [31.328839581000068, -17.303322427999944], [31.33045795600009, -17.303797738999947], [31.333517967999967, -17.30556145299994], [31.33556791500007, -17.305636427999843], [31.336939430000086, -17.306099090999908], [31.336514396000098, -17.306933430999948], [31.33914346000006, -17.317744708999896], [31.340673238000136, -17.32403500199996], [31.32111029800012, -17.330161870999973], [31.31851815400006, -17.330973519999873], [31.318379158000084, -17.330972519999875], [31.318472456000165, -17.317540295999947], [31.318569673000127, -17.30352772499998]]]]}}, {"type": "Feature", "properties": {"GID_3": "ZWE.4.2.7_2", "GID_0": "ZWE", "COUNTRY": "Zimbabwe", "GID_1": "ZWE.4_1", "NAME_1": "Mashonaland Central", "NL_NAME_1": "NA", "GID_2": "ZWE.4.2_2", "NAME_2": "Bindura Urban", "NL_NAME_2": "NA", "NAME_3": "Ward 4", "VARNAME_3": "NA", "NL_NAME_3": "NA", "TYPE_3": "Ward", "ENGTYPE_3": "Ward", "CC_3": "NA", "HASC_3": "NA", "id": "ZWE.4.2.7_2", "name": "Ward 4"}, "geometry": {"type": "MultiPolygon", "coordinates": [[[[31.34309117300012, -17.309144041999957], [31.343967600000042, -17.313802266999915], [31.34408581700012, -17.313959112999953], [31.344402822000177, -17.31547887699992], [31.345161943, -17.3160445179999], [31.342366641000183, -17.316962959999955], [31.33914346000006, -17.317744708999896], [31.336514396000098, -17.306933430999948], [31.336939430000086, -17.306099090999908], [31.337948957000037, -17.306439634999947], [31.340498619000186, -17.307299683999872], [31.34309117300012, -17.309144041999957]]]]}}, {"type": "Feature", "properties": {"GID_3": "ZWE.4.2.8_2", "GID_0": "ZWE", "COUNTRY": "Zimbabwe", "GID_1": "ZWE.4_1", "NAME_1": "Mashonaland Central", "NL_NAME_1": "NA", "GID_2": "ZWE.4.2_2", "NAME_2": "Bindura Urban", "NL_NAME_2": "NA", "NAME_3": "Ward 5", "VARNAME_3": "NA", "NL_NAME_3": "NA", "TYPE_3": "Ward", "ENGTYPE_3": "Ward", "CC_3": "NA", "HASC_3": "NA", "id": "ZWE.4.2.8_2", "name": "Ward 5"}, "geometry": {"type": "MultiPolygon", "coordinates": [[[[31.345161943, -17.3160445179999], [31.345941471, -17.315666280999892], [31.34657099900005, -17.315787629999875], [31.347027480000065, -17.315472799999952], [31.347027363000166, -17.315439085999913], [31.34758809500005, -17.315483951999965], [31.34767145400008, -17.31960488599998], [31.346998156000154, -17.32050690199992], [31.346691471999975, -17.320408194999914], [31.345856286000185, -17.32241133699995], [31.34169046300019, -17.32371635499993], [31.340673238000136, -17.32403500199996], [31.33914346000006, -17.317744708999896], [31.342366641000183, -17.316962959999955], [31.345161943, -17.3160445179999]]]]}}, {"type": "Feature", "properties": {"GID_3": "ZWE.4.2.9_2", "GID_0": "ZWE", "COUNTRY": "Zimbabwe", "GID_1": "ZWE.4_1", "NAME_1": "Mashonaland Central", "NL_NAME_1": "NA", "GID_2": "ZWE.4.2_2", "NAME_2": "Bindura Urban", "NL_NAME_2": "NA", "NAME_3": "Ward 6", "VARNAME_3": "NA", "NL_NAME_3": "NA", "TYPE_3": "Ward", "ENGTYPE_3": "Ward", "CC_3": "NA", "HASC_3": "NA", "id": "ZWE.4.2.9_2", "name": "Ward 6"}, "geometry": {"type": "MultiPolygon", "coordinates": [[[[31.346998156000154, -17.32050690199992], [31.34767145400008, -17.31960488599998], [31.34758809500005, -17.315483951999965], [31.348934369000062, -17.315591665999932], [31.350858186000153, -17.316074226999888], [31.35289442000004, -17.316584963999958], [31.352850284000112, -17.32039886499996], [31.35276433300004, -17.320235428999922], [31.3509717820001, -17.321524224999962], [31.35079998800012, -17.321767224999917], [31.35037450200008, -17.321926663999875], [31.34927420100007, -17.321673182999973], [31.346998156000154, -17.32050690199992]]]]}}, {"type": "Feature", "properties": {"GID_3": "ZWE.4.2.10_2", "GID_0": "ZWE", "COUNTRY": "Zimbabwe", "GID_1": "ZWE.4_1", "NAME_1": "Mashonaland Central", "NL_NAME_1": "NA", "GID_2": "ZWE.4.2_2", "NAME_2": "Bindura Urban", "NL_NAME_2": "NA", "NAME_3": "Ward 7", "VARNAME_3": "NA", "NL_NAME_3": "NA", "TYPE_3": "Ward", "ENGTYPE_3": "Ward", "CC_3": "NA", "HASC_3": "NA", "id": "ZWE.4.2.10_2", "name": "Ward 7"}, "geometry": {"type": "MultiPolygon", "coordinates": [[[[31.357279889999973, -17.317740120999872], [31.357363399000064, -17.318073458999947], [31.357348195000043, -17.31978424399989], [31.356923442000152, -17.319862231999878], [31.356671198000072, -17.319615746999887], [31.35624572000006, -17.319775199999867], [31.356313786000158, -17.320153135999874], [31.356242822000183, -17.32010106299998], [31.356316760000084, -17.32132374799994], [31.353764586000125, -17.322198974999935], [31.353409390000024, -17.323988432999954], [31.351449368000033, -17.32503143799994], [31.35103114500015, -17.324376221999955], [31.35018015999998, -17.324695098999882], [31.349761214000125, -17.324121344999924], [31.349257509000154, -17.324255109999967], [31.347974322000084, -17.32174778299992], [31.345856286000185, -17.32241133699995], [31.346691471999975, -17.320408194999914], [31.346998156000154, -17.32050690199992], [31.34927420100007, -17.321673182999973], [31.35037450200008, -17.321926663999875], [31.35079998800012, -17.321767224999917], [31.3509717820001, -17.321524224999962], [31.35276433300004, -17.320235428999922], [31.352850284000112, -17.32039886499996], [31.35289442000004, -17.316584963999958], [31.357279889999973, -17.317740120999872]]]]}}, {"type": "Feature", "properties": {"GID_3": "ZWE.4.2.11_2", "GID_0": "ZWE", "COUNTRY": "Zimbabwe", "GID_1": "ZWE.4_1", "NAME_1": "Mashonaland Central", "NL_NAME_1": "NA", "GID_2": "ZWE.4.2_2", "NAME_2": "Bindura Urban", "NL_NAME_2": "NA", "NAME_3": "Ward 8", "VARNAME_3": "NA", "NL_NAME_3": "NA", "TYPE_3": "Ward", "ENGTYPE_3": "Ward", "CC_3": "NA", "HASC_3": "NA", "id": "ZWE.4.2.11_2", "name": "Ward 8"}, "geometry": {"type": "MultiPolygon", "coordinates": [[[[31.365016613000194, -17.319713837999927], [31.36227662100015, -17.319080541999938], [31.357279889999973, -17.317740120999872], [31.35289442000004, -17.316584963999958], [31.350858186000153, -17.316074226999888], [31.348934369000062, -17.315591665999932], [31.34758809500005, -17.315483951999965], [31.347027363000166, -17.315439085999913], [31.34687391000017, -17.31292415999991], [31.34697455000014, -17.3129144049999], [31.34701216100018, -17.311061105999954], [31.34739163200004, -17.31115673299996], [31.349867504000088, -17.311780638999892], [31.35232326100015, -17.312777027999914], [31.35469197000009, -17.31373806199997], [31.354732128000023, -17.313797154999975], [31.354871125000102, -17.313799154999856], [31.363892872, -17.316284346999964], [31.36430686000017, -17.316679377999947], [31.36462397000014, -17.318035149999957], [31.365016613000194, -17.319713837999927]]]]}}, {"type": "Feature", "properties": {"GID_3": "ZWE.4.2.12_2", "GID_0": "ZWE", "COUNTRY": "Zimbabwe", "GID_1": "ZWE.4_1", "NAME_1": "Mashonaland Central", "NL_NAME_1": "NA", "GID_2": "ZWE.4.2_2", "NAME_2": "Bindura Urban", "NL_NAME_2": "NA", "NAME_3": "Ward 9", "VARNAME_3": "NA", "NL_NAME_3": "NA", "TYPE_3": "Ward", "ENGTYPE_3": "Ward", "CC_3": "NA", "HASC_3": "NA", "id": "ZWE.4.2.12_2", "name": "Ward 9"}, "geometry": {"type": "MultiPolygon", "coordinates": [[[[31.356923442000152, -17.319862231999878], [31.357177135000086, -17.31994578499996], [31.35817019900003, -17.32272397299994], [31.3583296810001, -17.323865886999954], [31.35799045000016, -17.323863105999976], [31.357820835000098, -17.323861714999964], [31.35790491800003, -17.323943875999817], [31.35797814300014, -17.325248026999873], [31.3584869930001, -17.325252198999976], [31.35839132700005, -17.326473492999867], [31.35974610000011, -17.32672901099994], [31.35965478100013, -17.327461509999978], [31.360586238000167, -17.32763208299997], [31.360565271000155, -17.32999459799987], [31.360141941999984, -17.329909658999952], [31.36045225700019, -17.333171076999975], [31.36147000200009, -17.333179410999946], [31.36129314900012, -17.333992681999916], [31.355608902000085, -17.336664611999936], [31.352424948000078, -17.330443938999906], [31.349291020000123, -17.3243205899999], [31.349257509000154, -17.324255109999967], [31.349761214000125, -17.324121344999924], [31.35018015999998, -17.324695098999882], [31.35103114500015, -17.324376221999955], [31.351449368000033, -17.32503143799994], [31.353409390000024, -17.323988432999954], [31.353764586000125, -17.322198974999935], [31.356316760000084, -17.32132374799994], [31.356242822000183, -17.32010106299998], [31.356313786000158, -17.320153135999874], [31.35624572000006, -17.319775199999867], [31.356671198000072, -17.319615746999887], [31.356923442000152, -17.319862231999878]]]]}}]}