{"type": "FeatureCollection", "features": [{"type": "Feature", "properties": {"GID_3": "ZWE.6.2.1_2", "GID_0": "ZWE", "COUNTRY": "Zimbabwe", "GID_1": "ZWE.6_1", "NAME_1": "Mashonaland West", "NL_NAME_1": "NA", "GID_2": "ZWE.6.2_2", "NAME_2": "Chegutu Urban", "NL_NAME_2": "NA", "NAME_3": "Ward 1", "VARNAME_3": "NA", "NL_NAME_3": "NA", "TYPE_3": "Ward", "ENGTYPE_3": "Ward", "CC_3": "NA", "HASC_3": "NA", "id": "ZWE.6.2.1_2", "name": "Ward 1"}, "geometry": {"type": "MultiPolygon", "coordinates": [[[[30.120346398000095, -18.152117172999965], [30.109331751000127, -18.13922427599988], [30.11767223700008, -18.13215451699989], [30.11769142500009, -18.130983532999892], [30.110820618000105, -18.123244427999964], [30.117995229000144, -18.123828798999966], [30.127639006000038, -18.127426302999936], [30.13320344100015, -18.12950177999994], [30.137387606, -18.13106229899995], [30.13902026300019, -18.13108658599998], [30.139749355000106, -18.13109742699993], [30.143349307999983, -18.130314277999958], [30.144203662000166, -18.131581918999927], [30.153144228000087, -18.123363977999873], [30.158045545000164, -18.117830882999954], [30.16224595500006, -18.111722657999906], [30.16196386500019, -18.11691671999995], [30.16443712800009, -18.126079113999936], [30.16055682000018, -18.12584779699995], [30.158365988000128, -18.126066451999918], [30.15590192500008, -18.126950358999977], [30.150759507000032, -18.131141156999888], [30.14737991500016, -18.13452129799998], [30.14875238700006, -18.136214928999948], [30.14786677900014, -18.13687110999996], [30.141831171000092, -18.142151517999878], [30.139247667000177, -18.13960319399996], [30.13073222400004, -18.14365947599987], [30.1265701800001, -18.14669283799992], [30.12061727300005, -18.15220913999991], [30.120346398000095, -18.152117172999965]]]]}}, {"type": "Feature", "properties": {"GID_3": "ZWE.6.2.2_2", "GID_0": "ZWE", "COUNTRY": "Zimbabwe", "GID_1": "ZWE.6_1", "NAME_1": "Mashonaland West", "NL_NAME_1": "NA", "GID_2": "ZWE.6.2_2", "NAME_2": "Chegutu Urban", "NL_NAME_2": "NA", "NAME_3": "Ward 10", "VARNAME_3": "NA", "NL_NAME_3": "NA", "TYPE_3": "Ward", "ENGTYPE_3": "Ward", "CC_3": "NA", "HASC_3": "NA", "id": "ZWE.6.2.2_2", "name": "Ward 10"}, "geometry": {"type": "MultiPolygon", "coordinates": [[[[30.16224595500006, -18.111722657999906], [30.158045545000164, -18.117830882999954], [30.153144228000087, -18.123363977999873], [30.144203662000166, -18.131581918999927], [30.143349307999983, -18.130314277999958], [30.141507294000178, -18.12827907999997], [30.14362697000007, -18.12705560199987], [30.143876193000153, -18.124568539999814], [30.14426104300003, -18.12072778999982], [30.144775294000056, -18.115595154999937], [30.144771914000103, -18.110407938999913], [30.143741356000135, -18.10922136199997], [30.141658564000068, -18.10818649399988], [30.140637544000185, -18.106414398999902], [30.140504709000083, -18.103818850999915], [30.14153928800016, -18.10475450799987], [30.145803124000167, -18.106156358999954], [30.150709033000112, -18.105727007999974], [30.15697651300013, -18.10766024199995], [30.16128102900018, -18.10655242499996], [30.163507085000106, -18.106660902999977], [30.163364089000027, -18.106797912999923], [30.163223093000056, -18.107072934999962], [30.16308009800008, -18.107209945999898], [30.162938102000055, -18.107484966999948], [30.162797106000085, -18.107758987999944], [30.162513114000035, -18.10803400999987], [30.16237211800012, -18.108309030999976], [30.16237211800012, -18.108444041999974], [30.162229122000156, -18.108583052999904], [30.16208812600007, -18.10872106299996], [30.162088127000118, -18.10885607399996], [30.161947131000034, -18.10899508499989], [30.161804135000068, -18.10913309599988], [30.16180513500018, -18.109268105999945], [30.161662139000043, -18.109407116999876], [30.161662139000043, -18.10954312799987], [30.161519143000135, -18.109545127999866], [30.16152114300013, -18.10968013799993], [30.16152114300013, -18.10981714899998], [30.161523143000124, -18.10995515999997], [30.161666139000033, -18.11009016999992], [30.161668139000028, -18.11022718099997], [30.161811135000164, -18.110500201999912], [30.161813135000102, -18.11063821299996], [30.161958131000063, -18.110910233999903], [30.162101128000074, -18.111183254999958], [30.16210312800007, -18.11131826499991], [30.16224595500006, -18.111722657999906]]]]}}, {"type": "Feature", "properties": {"GID_3": "ZWE.6.2.3_2", "GID_0": "ZWE", "COUNTRY": "Zimbabwe", "GID_1": "ZWE.6_1", "NAME_1": "Mashonaland West", "NL_NAME_1": "NA", "GID_2": "ZWE.6.2_2", "NAME_2": "Chegutu Urban", "NL_NAME_2": "NA", "NAME_3": "Ward 11", "VARNAME_3": "NA", "NL_NAME_3": "NA", "TYPE_3": "Ward", "ENGTYPE_3": "Ward", "CC_3": "NA", "HASC_3": "NA", "id": "ZWE.6.2.3_2", "name": "Ward 11"}, "geometry": {"type": "MultiPolygon", "coordinates": [[[[30.1300127290001, -18.12317221099994], [30.12386951900004, -18.118981030999976], [30.128842598000176, -18.11445380799995], [30.138221592000093, -18.113338489999933], [30.139190969000083, -18.118289047999895], [30.136651740000048, -18.11841862199998], [30.13458764600017, -18.12005262899993], [30.134014153000066, -18.119216003999952], [30.130545717000132, -18.12267817999998], [30.1300127290001, -18.12317221099994]]]]}}, {"type": "Feature", "properties": {"GID_3": "ZWE.6.2.4_2", "GID_0": "ZWE", "COUNTRY": "Zimbabwe", "GID_1": "ZWE.6_1", "NAME_1": "Mashonaland West", "NL_NAME_1": "NA", "GID_2": "ZWE.6.2_2", "NAME_2": "Chegutu Urban", "NL_NAME_2": "NA", "NAME_3": "Ward 12", "VARNAME_3": "NA", "NL_NAME_3": "NA", "TYPE_3": "Ward", "ENGTYPE_3": "Ward", "CC_3": "NA", "HASC_3": "NA", "id": "ZWE.6.2.4_2", "name": "Ward 12"}, "geometry": {"type": "MultiPolygon", "coordinates": [[[[30.127639006000038, -18.127426302999936], [30.117995229000144, -18.123828798999966], [30.110820618000105, -18.123244427999964], [30.096396362000178, -18.10796197199994], [30.12032848300015, -18.087685984999894], [30.135048831000063, -18.098634671999946], [30.138221592000093, -18.113338489999933], [30.128842598000176, -18.11445380799995], [30.12386951900004, -18.118981030999976], [30.1300127290001, -18.12317221099994], [30.12894674299997, -18.12416026699998], [30.129897978000088, -18.12484375999992], [30.127639006000038, -18.127426302999936]]]]}}, {"type": "Feature", "properties": {"GID_3": "ZWE.6.2.5_2", "GID_0": "ZWE", "COUNTRY": "Zimbabwe", "GID_1": "ZWE.6_1", "NAME_1": "Mashonaland West", "NL_NAME_1": "NA", "GID_2": "ZWE.6.2_2", "NAME_2": "Chegutu Urban", "NL_NAME_2": "NA", "NAME_3": "Ward 2", "VARNAME_3": "NA", "NL_NAME_3": "NA", "TYPE_3": "Ward", "ENGTYPE_3": "Ward", "CC_3": "NA", "HASC_3": "NA", "id": "ZWE.6.2.5_2", "name": "Ward 2"}, "geometry": {"type": "MultiPolygon", "coordinates": [[[[30.14786677900014, -18.13687110999996], [30.14875238700006, -18.136214928999948], [30.14737991500016, -18.13452129799998], [30.150759507000032, -18.131141156999888], [30.15590192500008, -18.126950358999977], [30.158365988000128, -18.126066451999918], [30.16055682000018, -18.12584779699995], [30.16443712800009, -18.126079113999936], [30.165938691000065, -18.13086368899991], [30.165155314000174, -18.136039378999897], [30.16038466300006, -18.147347090999972], [30.1515163790001, -18.138431151999896], [30.149764131999973, -18.13857251899998], [30.14786677900014, -18.13687110999996]]]]}}, {"type": "Feature", "properties": {"GID_3": "ZWE.6.2.6_2", "GID_0": "ZWE", "COUNTRY": "Zimbabwe", "GID_1": "ZWE.6_1", "NAME_1": "Mashonaland West", "NL_NAME_1": "NA", "GID_2": "ZWE.6.2_2", "NAME_2": "Chegutu Urban", "NL_NAME_2": "NA", "NAME_3": "Ward 3", "VARNAME_3": "NA", "NL_NAME_3": "NA", "TYPE_3": "Ward", "ENGTYPE_3": "Ward", "CC_3": "NA", "HASC_3": "NA", "id": "ZWE.6.2.6_2", "name": "Ward 3"}, "geometry": {"type": "MultiPolygon", "coordinates": [[[[30.120346398000095, -18.152117172999965], [30.12061727300005, -18.15220913999991], [30.1265701800001, -18.14669283799992], [30.13073222400004, -18.14365947599987], [30.139247667000177, -18.13960319399996], [30.141831171000092, -18.142151517999878], [30.14786677900014, -18.13687110999996], [30.149764131999973, -18.13857251899998], [30.1515163790001, -18.138431151999896], [30.16038466300006, -18.147347090999972], [30.155002156000137, -18.158406600999967], [30.137720351000098, -18.17022452899988], [30.12031469800013, -18.152440371999944], [30.120346398000095, -18.152117172999965]]]]}}, {"type": "Feature", "properties": {"GID_3": "ZWE.6.2.7_2", "GID_0": "ZWE", "COUNTRY": "Zimbabwe", "GID_1": "ZWE.6_1", "NAME_1": "Mashonaland West", "NL_NAME_1": "NA", "GID_2": "ZWE.6.2_2", "NAME_2": "Chegutu Urban", "NL_NAME_2": "NA", "NAME_3": "Ward 4", "VARNAME_3": "NA", "NL_NAME_3": "NA", "TYPE_3": "Ward", "ENGTYPE_3": "Ward", "CC_3": "NA", "HASC_3": "NA", "id": "ZWE.6.2.7_2", "name": "Ward 4"}, "geometry": {"type": "MultiPolygon", "coordinates": [[[[30.143349307999983, -18.130314277999958], [30.139749355000106, -18.13109742699993], [30.13902026300019, -18.13108658599998], [30.13914238100017, -18.128172364999898], [30.139163243000098, -18.127674489999947], [30.138725890000103, -18.12766798699994], [30.13867242500004, -18.125575604999824], [30.138242855000158, -18.125578813999823], [30.138297038000132, -18.124825086999977], [30.1393453070001, -18.124924335999935], [30.13935618500011, -18.124255188999882], [30.14032106100018, -18.12410220199996], [30.140476971000112, -18.12527580999989], [30.142231795000157, -18.124967222999942], [30.14250914300004, -18.12405103999987], [30.143876193000153, -18.124568539999814], [30.14362697000007, -18.12705560199987], [30.141507294000178, -18.12827907999997], [30.143349307999983, -18.130314277999958]]]]}}, {"type": "Feature", "properties": {"GID_3": "ZWE.6.2.8_2", "GID_0": "ZWE", "COUNTRY": "Zimbabwe", "GID_1": "ZWE.6_1", "NAME_1": "Mashonaland West", "NL_NAME_1": "NA", "GID_2": "ZWE.6.2_2", "NAME_2": "Chegutu Urban", "NL_NAME_2": "NA", "NAME_3": "Ward 5", "VARNAME_3": "NA", "NL_NAME_3": "NA", "TYPE_3": "Ward", "ENGTYPE_3": "Ward", "CC_3": "NA", "HASC_3": "NA", "id": "ZWE.6.2.8_2", "name": "Ward 5"}, "geometry": {"type": "MultiPolygon", "coordinates": [[[[30.13902026300019, -18.13108658599998], [30.137387606, -18.13106229899995], [30.13320344100015, -18.12950177999994], [30.135136336000073, -18.12681297399996], [30.13636827300013, -18.127381923999963], [30.136461189000045, -18.127048652999918], [30.13914238100017, -18.128172364999898], [30.13902026300019, -18.13108658599998]]]]}}, {"type": "Feature", "properties": {"GID_3": "ZWE.6.2.9_2", "GID_0": "ZWE", "COUNTRY": "Zimbabwe", "GID_1": "ZWE.6_1", "NAME_1": "Mashonaland West", "NL_NAME_1": "NA", "GID_2": "ZWE.6.2_2", "NAME_2": "Chegutu Urban", "NL_NAME_2": "NA", "NAME_3": "Ward 6", "VARNAME_3": "NA", "NL_NAME_3": "NA", "TYPE_3": "Ward", "ENGTYPE_3": "Ward", "CC_3": "NA", "HASC_3": "NA", "id": "ZWE.6.2.9_2", "name": "Ward 6"}, "geometry": {"type": "MultiPolygon", "coordinates": [[[[30.14426104300003, -18.12072778999982], [30.143876193000153, -18.124568539999814], [30.14250914300004, -18.12405103999987], [30.142231795000157, -18.124967222999942], [30.140476971000112, -18.12527580999989], [30.14032106100018, -18.12410220199996], [30.13935618500011, -18.124255188999882], [30.1393453070001, -18.124924335999935], [30.138297038000132, -18.124825086999977], [30.138242855000158, -18.125578813999823], [30.13867242500004, -18.125575604999824], [30.138725890000103, -18.12766798699994], [30.139163243000098, -18.127674489999947], [30.13914238100017, -18.128172364999898], [30.136461189000045, -18.127048652999918], [30.13636827300013, -18.127381923999963], [30.135136336000073, -18.12681297399996], [30.137737117000086, -18.123194905999924], [30.13896371200002, -18.121488457999874], [30.139839747000167, -18.12141781399987], [30.139763153000047, -18.12074736699992], [30.141953908000175, -18.120528917999877], [30.141945759000123, -18.121030779999842], [30.14426104300003, -18.12072778999982]]]]}}, {"type": "Feature", "properties": {"GID_3": "ZWE.6.2.10_2", "GID_0": "ZWE", "COUNTRY": "Zimbabwe", "GID_1": "ZWE.6_1", "NAME_1": "Mashonaland West", "NL_NAME_1": "NA", "GID_2": "ZWE.6.2_2", "NAME_2": "Chegutu Urban", "NL_NAME_2": "NA", "NAME_3": "Ward 7", "VARNAME_3": "NA", "NL_NAME_3": "NA", "TYPE_3": "Ward", "ENGTYPE_3": "Ward", "CC_3": "NA", "HASC_3": "NA", "id": "ZWE.6.2.10_2", "name": "Ward 7"}, "geometry": {"type": "MultiPolygon", "coordinates": [[[[30.140504709000083, -18.103818850999915], [30.140637544000185, -18.106414398999902], [30.141658564000068, -18.10818649399988], [30.143741356000135, -18.10922136199997], [30.144771914000103, -18.110407938999913], [30.144775294000056, -18.115595154999937], [30.14426104300003, -18.12072778999982], [30.141945759000123, -18.121030779999842], [30.141953908000175, -18.120528917999877], [30.139763153000047, -18.12074736699992], [30.139839747000167, -18.12141781399987], [30.13896371200002, -18.121488457999874], [30.137737117000086, -18.123194905999924], [30.13666981400013, -18.122685725999816], [30.136535777000176, -18.12289454699993], [30.13458764600017, -18.12005262899993], [30.136651740000048, -18.11841862199998], [30.139190969000083, -18.118289047999895], [30.138221592000093, -18.113338489999933], [30.135048831000063, -18.098634671999946], [30.12032848300015, -18.087685984999894], [30.128317011000092, -18.080916007999917], [30.130919191000146, -18.08540666099998], [30.132645055000125, -18.086854613999947], [30.134060563000162, -18.085871699999814], [30.138088672000094, -18.0855968809999], [30.14447848400016, -18.079918798999927], [30.14622066600009, -18.080362908999916], [30.146727767000186, -18.081458047999945], [30.146509576000028, -18.084132075999946], [30.14661411100002, -18.088484163999965], [30.14817668500018, -18.09463031599995], [30.147108277000086, -18.095785801999966], [30.13900412600003, -18.097917550999966], [30.139218883000126, -18.102194613999814], [30.14023987000013, -18.103966711999874], [30.140504709000083, -18.103818850999915]]]]}}, {"type": "Feature", "properties": {"GID_3": "ZWE.6.2.11_2", "GID_0": "ZWE", "COUNTRY": "Zimbabwe", "GID_1": "ZWE.6_1", "NAME_1": "Mashonaland West", "NL_NAME_1": "NA", "GID_2": "ZWE.6.2_2", "NAME_2": "Chegutu Urban", "NL_NAME_2": "NA", "NAME_3": "Ward 8", "VARNAME_3": "NA", "NL_NAME_3": "NA", "TYPE_3": "Ward", "ENGTYPE_3": "Ward", "CC_3": "NA", "HASC_3": "NA", "id": "ZWE.6.2.11_2", "name": "Ward 8"}, "geometry": {"type": "MultiPolygon", "coordinates": [[[[30.130545717000132, -18.12267817999998], [30.134014153000066, -18.119216003999952], [30.13458764600017, -18.12005262899993], [30.136535777000176, -18.12289454699993], [30.135233566000124, -18.124923262999914], [30.133325603000117, -18.123890890999974], [30.132705149000117, -18.124383626999872], [30.130545717000132, -18.12267817999998]]]]}}, {"type": "Feature", "properties": {"GID_3": "ZWE.6.2.12_2", "GID_0": "ZWE", "COUNTRY": "Zimbabwe", "GID_1": "ZWE.6_1", "NAME_1": "Mashonaland West", "NL_NAME_1": "NA", "GID_2": "ZWE.6.2_2", "NAME_2": "Chegutu Urban", "NL_NAME_2": "NA", "NAME_3": "Ward 9", "VARNAME_3": "NA", "NL_NAME_3": "NA", "TYPE_3": "Ward", "ENGTYPE_3": "Ward", "CC_3": "NA", "HASC_3": "NA", "id": "ZWE.6.2.12_2", "name": "Ward 9"}, "geometry": {"type": "MultiPolygon", "coordinates": [[[[30.13320344100015, -18.12950177999994], [30.127639006000038, -18.127426302999936], [30.129897978000088, -18.12484375999992], [30.12894674299997, -18.12416026699998], [30.1300127290001, -18.12317221099994], [30.130545717000132, -18.12267817999998], [30.132705149000117, -18.124383626999872], [30.133325603000117, -18.123890890999974], [30.135233566000124, -18.124923262999914], [30.136535777000176, -18.12289454699993], [30.13666981400013, -18.122685725999816], [30.137737117000086, -18.123194905999924], [30.135136336000073, -18.12681297399996], [30.13320344100015, -18.12950177999994]]]]}}]}