{"type": "FeatureCollection", "features": [{"type": "Feature", "properties": {"GID_3": "ZWE.6.7.1_2", "GID_0": "ZWE", "COUNTRY": "Zimbabwe", "GID_1": "ZWE.6_1", "NAME_1": "Mashonaland West", "NL_NAME_1": "NA", "GID_2": "ZWE.6.7_2", "NAME_2": "Kariba Urban", "NL_NAME_2": "NA", "NAME_3": "Ward 1", "VARNAME_3": "NA", "NL_NAME_3": "NA", "TYPE_3": "Ward", "ENGTYPE_3": "Ward", "CC_3": "NA", "HASC_3": "NA", "id": "ZWE.6.7.1_2", "name": "Ward 1"}, "geometry": {"type": "MultiPolygon", "coordinates": [[[[28.854250280000088, -16.518097470999976], [28.853751769000155, -16.520056894999982], [28.851953155000047, -16.52183584599993], [28.851943034000158, -16.521861507999915], [28.851647554000067, -16.522610729999826], [28.85132190000013, -16.52234980999998], [28.85149338499997, -16.522084479999876], [28.851067849000117, -16.52177647999997], [28.84631358300004, -16.521123084999942], [28.846930955000175, -16.519706122999935], [28.84668181900014, -16.519648369999857], [28.847291267000116, -16.518383890999928], [28.847650089000126, -16.518212836999908], [28.847572670000034, -16.517913739999926], [28.847882348999974, -16.51780307699994], [28.846582415000114, -16.51703535899992], [28.846068534000096, -16.5165842319999], [28.84605041200001, -16.515984825999965], [28.845762745000116, -16.51579550799994], [28.844890960000043, -16.515611349999972], [28.84436545700015, -16.515244476999897], [28.843574127000068, -16.51339584999988], [28.843505279000055, -16.512688967999907], [28.843836056000157, -16.512182411999845], [28.843390178, -16.509709649999877], [28.84454916600015, -16.509675719999905], [28.848399732000075, -16.509804602999907], [28.848358194000184, -16.51066772899992], [28.84869248200016, -16.513146537999944], [28.847908947000064, -16.515707621999923], [28.847839734000104, -16.516271608999944], [28.84833834000017, -16.517730136999944], [28.84921743100017, -16.51737460499993], [28.849630028000092, -16.517490863999967], [28.850286208000057, -16.51722124199995], [28.850754725000172, -16.518128428999944], [28.854250280000088, -16.518097470999976]]]]}}, {"type": "Feature", "properties": {"GID_3": "ZWE.6.7.2_2", "GID_0": "ZWE", "COUNTRY": "Zimbabwe", "GID_1": "ZWE.6_1", "NAME_1": "Mashonaland West", "NL_NAME_1": "NA", "GID_2": "ZWE.6.7_2", "NAME_2": "Kariba Urban", "NL_NAME_2": "NA", "NAME_3": "Ward 2", "VARNAME_3": "NA", "NL_NAME_3": "NA", "TYPE_3": "Ward", "ENGTYPE_3": "Ward", "CC_3": "NA", "HASC_3": "NA", "id": "ZWE.6.7.2_2", "name": "Ward 2"}, "geometry": {"type": "MultiPolygon", "coordinates": [[[[28.843390178, -16.509709649999877], [28.843836056000157, -16.512182411999845], [28.843505279000055, -16.512688967999907], [28.843574127000068, -16.51339584999988], [28.84436545700015, -16.515244476999897], [28.844890960000043, -16.515611349999972], [28.845762745000116, -16.51579550799994], [28.84605041200001, -16.515984825999965], [28.846068534000096, -16.5165842319999], [28.846582415000114, -16.51703535899992], [28.847882348999974, -16.51780307699994], [28.847572670000034, -16.517913739999926], [28.847650089000126, -16.518212836999908], [28.847291267000116, -16.518383890999928], [28.84668181900014, -16.519648369999857], [28.846930955000175, -16.519706122999935], [28.84631358300004, -16.521123084999942], [28.845214280000107, -16.520948249999947], [28.8376222280001, -16.52181863499993], [28.837299622000046, -16.52118593199998], [28.83697296800017, -16.520817073999922], [28.83569733800016, -16.519988896999962], [28.83632336800008, -16.519155986999976], [28.83658818000015, -16.518242313999963], [28.836847025000168, -16.518012634999934], [28.836494842000036, -16.517572051999935], [28.83609532600002, -16.51738370299995], [28.83463758000005, -16.515693738999914], [28.83353409800003, -16.51669871599995], [28.83228991600015, -16.515246684999966], [28.831808835, -16.514315575999944], [28.831420180000123, -16.51395967699989], [28.831376684000077, -16.51330052999998], [28.830956496000113, -16.51283654899987], [28.831150601000104, -16.512331207999978], [28.830322568000042, -16.511511057999883], [28.83020560300008, -16.51117162199995], [28.834232364000115, -16.50997752099994], [28.83425186300019, -16.509976950999885], [28.843390178, -16.509709649999877]]]]}}, {"type": "Feature", "properties": {"GID_3": "ZWE.6.7.3_2", "GID_0": "ZWE", "COUNTRY": "Zimbabwe", "GID_1": "ZWE.6_1", "NAME_1": "Mashonaland West", "NL_NAME_1": "NA", "GID_2": "ZWE.6.7_2", "NAME_2": "Kariba Urban", "NL_NAME_2": "NA", "NAME_3": "Ward 3", "VARNAME_3": "NA", "NL_NAME_3": "NA", "TYPE_3": "Ward", "ENGTYPE_3": "Ward", "CC_3": "NA", "HASC_3": "NA", "id": "ZWE.6.7.3_2", "name": "Ward 3"}, "geometry": {"type": "MultiPolygon", "coordinates": [[[[28.854250280000088, -16.518097470999976], [28.850754725000172, -16.518128428999944], [28.850286208000057, -16.51722124199995], [28.849630028000092, -16.517490863999967], [28.84921743100017, -16.51737460499993], [28.84833834000017, -16.517730136999944], [28.847839734000104, -16.516271608999944], [28.847908947000064, -16.515707621999923], [28.84869248200016, -16.513146537999944], [28.848358194000184, -16.51066772899992], [28.848399732000075, -16.509804602999907], [28.848968348000085, -16.509823628999982], [28.852698859999975, -16.510617975999878], [28.8528792730001, -16.51259493799995], [28.85344897700014, -16.513069100999928], [28.853969760000155, -16.51554667399995], [28.854569276, -16.515852906999953], [28.854496580000045, -16.517352461999963], [28.854863746000035, -16.518056685999966], [28.854338790000156, -16.51774957499987], [28.854250280000088, -16.518097470999976]]]]}}, {"type": "Feature", "properties": {"GID_3": "ZWE.6.7.4_2", "GID_0": "ZWE", "COUNTRY": "Zimbabwe", "GID_1": "ZWE.6_1", "NAME_1": "Mashonaland West", "NL_NAME_1": "NA", "GID_2": "ZWE.6.7_2", "NAME_2": "Kariba Urban", "NL_NAME_2": "NA", "NAME_3": "Ward 4", "VARNAME_3": "NA", "NL_NAME_3": "NA", "TYPE_3": "Ward", "ENGTYPE_3": "Ward", "CC_3": "NA", "HASC_3": "NA", "id": "ZWE.6.7.4_2", "name": "Ward 4"}, "geometry": {"type": "MultiPolygon", "coordinates": [[[[28.782810550000136, -16.525355953999963], [28.78373873000004, -16.52442777399989], [28.78413290600014, -16.524575137999932], [28.78445512500008, -16.524542045999908], [28.784372241000142, -16.524800933999927], [28.783405416000164, -16.525096996999935], [28.782810550000136, -16.525355953999963]]]]}}, {"type": "Feature", "properties": {"GID_3": "ZWE.6.7.6_2", "GID_0": "ZWE", "COUNTRY": "Zimbabwe", "GID_1": "ZWE.6_1", "NAME_1": "Mashonaland West", "NL_NAME_1": "NA", "GID_2": "ZWE.6.7_2", "NAME_2": "Kariba Urban", "NL_NAME_2": "NA", "NAME_3": "Ward 6", "VARNAME_3": "NA", "NL_NAME_3": "NA", "TYPE_3": "Ward", "ENGTYPE_3": "Ward", "CC_3": "NA", "HASC_3": "NA", "id": "ZWE.6.7.6_2", "name": "Ward 6"}, "geometry": {"type": "MultiPolygon", "coordinates": [[[[28.78003109200006, -16.52813541199987], [28.782810550000136, -16.525355953999963], [28.783405416000164, -16.525096996999935], [28.784372241000142, -16.524800933999927], [28.78445512500008, -16.524542045999908], [28.785035223000136, -16.524482467999974], [28.784713095000086, -16.525895155999876], [28.78367620500012, -16.526683476999892], [28.782301186000097, -16.527198872999918], [28.781609548000063, -16.527684445999967], [28.780930687000136, -16.528421514999934], [28.780495551, -16.52841323599995], [28.78003109200006, -16.52813541199987]]]]}}, {"type": "Feature", "properties": {"GID_3": "ZWE.6.7.7_2", "GID_0": "ZWE", "COUNTRY": "Zimbabwe", "GID_1": "ZWE.6_1", "NAME_1": "Mashonaland West", "NL_NAME_1": "NA", "GID_2": "ZWE.6.7_2", "NAME_2": "Kariba Urban", "NL_NAME_2": "NA", "NAME_3": "Ward 7", "VARNAME_3": "NA", "NL_NAME_3": "NA", "TYPE_3": "Ward", "ENGTYPE_3": "Ward", "CC_3": "NA", "HASC_3": "NA", "id": "ZWE.6.7.7_2", "name": "Ward 7"}, "geometry": {"type": "MultiPolygon", "coordinates": [[[[28.792033886000183, -16.51846287399991], [28.79467773400006, -16.516296386999954], [28.79791259800004, -16.513977050999927], [28.801844551000045, -16.511137306999956], [28.80652689300001, -16.51392412499996], [28.80772708300003, -16.516012041999886], [28.81074587600017, -16.518515665999928], [28.810814221000044, -16.521848497999883], [28.81197367300001, -16.521278321999887], [28.81218071900014, -16.52169582599987], [28.81224856500006, -16.52230680399998], [28.81169765700014, -16.52321073199988], [28.81162586100004, -16.524842199999966], [28.811049753000134, -16.52571058799998], [28.80897443000015, -16.527167133999967], [28.808120509000105, -16.52757025399984], [28.80745357900014, -16.52803170899989], [28.807182457000067, -16.528165962999935], [28.806174025000132, -16.527994819999947], [28.80551907200004, -16.528408199999888], [28.80456840800008, -16.528704218999962], [28.80390491700018, -16.52953737199988], [28.80254248700004, -16.530064781999897], [28.801510221000058, -16.53019339499997], [28.799576424000065, -16.531145422999884], [28.798676744000034, -16.53198059899995], [28.79819233000012, -16.532020748999912], [28.797829989000036, -16.531820013999834], [28.797449670000105, -16.531019854999954], [28.796661073000166, -16.53042706699995], [28.79541880400012, -16.530509708999944], [28.794148343000074, -16.530184870999904], [28.793566379000083, -16.530429705999893], [28.793007500999977, -16.53048247499993], [28.792053022000175, -16.529423420999933], [28.791193520000093, -16.52922694299997], [28.79056498000017, -16.52846487299996], [28.789829004000183, -16.528207587999816], [28.789128769000058, -16.52775790999982], [28.788643257000047, -16.52767812999997], [28.787306783000133, -16.525627016999977], [28.785406542000032, -16.524444331999916], [28.785035223000136, -16.524482467999974], [28.78445512500008, -16.524542045999908], [28.78413290600014, -16.524575137999932], [28.78373873000004, -16.52442777399989], [28.783874512000068, -16.524291991999917], [28.78465457400017, -16.523757091999983], [28.791459805000045, -16.521802712999943], [28.79194441800007, -16.52178656199993], [28.792956905000096, -16.522401432999914], [28.793054123000104, -16.5221607659999], [28.792684505000125, -16.52116863599997], [28.792846673000042, -16.51988435699991], [28.792453089000162, -16.51898836499987], [28.792033886000183, -16.51846287399991]]]]}}, {"type": "Feature", "properties": {"GID_3": "ZWE.6.7.8_2", "GID_0": "ZWE", "COUNTRY": "Zimbabwe", "GID_1": "ZWE.6_1", "NAME_1": "Mashonaland West", "NL_NAME_1": "NA", "GID_2": "ZWE.6.7_2", "NAME_2": "Kariba Urban", "NL_NAME_2": "NA", "NAME_3": "Ward 8", "VARNAME_3": "NA", "NL_NAME_3": "NA", "TYPE_3": "Ward", "ENGTYPE_3": "Ward", "CC_3": "NA", "HASC_3": "NA", "id": "ZWE.6.7.8_2", "name": "Ward 8"}, "geometry": {"type": "MultiPolygon", "coordinates": [[[[28.84631358300004, -16.521123084999942], [28.851067849000117, -16.52177647999997], [28.85149338499997, -16.522084479999876], [28.85132190000013, -16.52234980999998], [28.851647554000067, -16.522610729999826], [28.851943034000158, -16.521861507999915], [28.86824348400006, -16.524459741999976], [28.868267622000133, -16.525268594999886], [28.868038851000108, -16.525720430999968], [28.86686424700008, -16.52636647399987], [28.868021860000056, -16.527831031999938], [28.867155654000157, -16.528234275999978], [28.86773521500004, -16.529044489999933], [28.86708374900013, -16.52980533099992], [28.86613720100013, -16.529609946999926], [28.86690596200009, -16.530706259999874], [28.86547653800011, -16.532002102999968], [28.864925979000134, -16.53162330599997], [28.865267424000024, -16.53093675599996], [28.864787418000105, -16.531432684999913], [28.86372785200018, -16.53111838899997], [28.863164357000187, -16.532322325999928], [28.86230350800014, -16.53265401099992], [28.86209945300004, -16.53247550999987], [28.861852252000062, -16.53262160999998], [28.861868361000063, -16.53300518599991], [28.86224652200019, -16.533553405999896], [28.86226079100004, -16.533745137999972], [28.86134287700014, -16.533945188999894], [28.860949973000118, -16.53445232599995], [28.86151365300003, -16.534902962999922], [28.861061582000048, -16.53503889999996], [28.86023594800014, -16.535789501999886], [28.85999956300003, -16.535767627999974], [28.859959633000074, -16.535492184999896], [28.859758239000087, -16.53523017399982], [28.859713001000102, -16.535698234999927], [28.85956454000018, -16.535771505999946], [28.85966523700006, -16.53590251199995], [28.859518842000114, -16.536191605999875], [28.859583745000066, -16.53647881699993], [28.859497774000147, -16.536587503999954], [28.85853509300017, -16.5360085129999], [28.858612769, -16.536331584999914], [28.858851795000078, -16.536629235999953], [28.85880460400017, -16.536893462999956], [28.858618623000154, -16.53694308499996], [28.85911705899997, -16.537070546999928], [28.85875729800017, -16.53714569999994], [28.85865912600019, -16.537278478999895], [28.858060810000097, -16.536924071999977], [28.857900376000146, -16.537045413999977], [28.857846183000163, -16.53657823799989], [28.857558359000166, -16.53637694999992], [28.857297803000108, -16.536427234999906], [28.857326447000162, -16.53682269099994], [28.857713248000096, -16.53697513299994], [28.857726824000167, -16.537094923999916], [28.857402170000114, -16.536941928999966], [28.85748202400015, -16.537492814999894], [28.85698725800006, -16.537749035999866], [28.85688702000016, -16.537665989999937], [28.85697242000009, -16.53749735299982], [28.85684766700018, -16.53745049799994], [28.856724521000103, -16.53757150699994], [28.856918344000064, -16.53704216699998], [28.85685470600015, -16.53688684699995], [28.85599616500008, -16.53679855799993], [28.8558623080001, -16.53709952999992], [28.855502889000093, -16.537210648999974], [28.85519467600011, -16.53747719799992], [28.854944828000043, -16.537347515999954], [28.854808792000142, -16.537420672999872], [28.854967968000153, -16.53716744099995], [28.854265908000173, -16.53784519399983], [28.854878441000096, -16.53690442999988], [28.855211284000063, -16.53661367999996], [28.855146616000184, -16.53635044799995], [28.854673271000024, -16.536246734999906], [28.854450460000123, -16.536344645999918], [28.85448946600019, -16.536524167999858], [28.85413904000012, -16.536275466999882], [28.85388232400004, -16.53542636899988], [28.854267173000153, -16.535374983999873], [28.854895451000118, -16.534781826999847], [28.854687935000186, -16.535179382999956], [28.854824427000096, -16.535154186999932], [28.854995801000086, -16.534876864999887], [28.85567998099998, -16.53493073599998], [28.855938702000174, -16.534688609999932], [28.855825808000077, -16.534581692999893], [28.85604472100016, -16.53407632999989], [28.855695559000026, -16.533959523999954], [28.855274457, -16.534119154999928], [28.855123130000038, -16.533892666999975], [28.85540579200017, -16.53355439799998], [28.855465417000175, -16.533290059999956], [28.854820249000113, -16.533415709999872], [28.854370052000093, -16.53313192099995], [28.854247478000048, -16.533312879999983], [28.854072326000107, -16.533194523999953], [28.854023869000116, -16.533326857999896], [28.85383766100017, -16.533352494999974], [28.853497725000125, -16.53289984799983], [28.853531464000127, -16.532527818999938], [28.85390010300017, -16.532081083999856], [28.854172855000172, -16.53200671299993], [28.85427887700007, -16.531394215999967], [28.85452493700018, -16.53112822199995], [28.85455959000012, -16.53085211499996], [28.85443243800006, -16.530553462999933], [28.85389117400007, -16.531145844999912], [28.853918550000174, -16.531409408999878], [28.85361216500013, -16.531364165999946], [28.853302699000153, -16.531498818999978], [28.853115577000096, -16.53142853299994], [28.853349439000112, -16.531186630999912], [28.85355421100013, -16.5305015269999], [28.853425344000073, -16.53002302099992], [28.852899824000076, -16.53096300699997], [28.85256149600019, -16.53067822099996], [28.852182603000188, -16.53135309499993], [28.852370525000083, -16.531507313999896], [28.852384670000106, -16.531687056999942], [28.851864821000163, -16.531919288999973], [28.851301887000147, -16.532847612999944], [28.85126208500003, -16.532584157999906], [28.850803122000173, -16.532684159999917], [28.85071714700007, -16.532792843999857], [28.85062911500006, -16.53268570299997], [28.850726719000136, -16.53249297699989], [28.850622144000113, -16.531954296999913], [28.850821238000094, -16.531976513999894], [28.850567514000033, -16.53143915599992], [28.850355307000143, -16.531345107999982], [28.85022121500009, -16.531622096999968], [28.85012178300019, -16.531622977999973], [28.850069325000106, -16.531335652999815], [28.850230560000057, -16.531298248999917], [28.850151759000028, -16.53085526999996], [28.85031333600017, -16.530853837999928], [28.850307626000188, -16.530254540999977], [28.849923699000158, -16.5304018409999], [28.849810239000192, -16.530234967999945], [28.84956325900015, -16.53040503599982], [28.849741261000133, -16.53082315299997], [28.849204235000116, -16.530923842999925], [28.848238529000184, -16.530021060999957], [28.84851093800006, -16.52991072599997], [28.848329287000013, -16.529108917999963], [28.848179915000117, -16.529086475999975], [28.848141145000113, -16.52893093199998], [28.84800522600011, -16.5290160749999], [28.84799165600009, -16.52889628199995], [28.84790499600018, -16.52893302299998], [28.84762790999997, -16.528551754999967], [28.847479448000172, -16.528625016999968], [28.847265763000166, -16.528375091999976], [28.84764638000013, -16.527880078999885], [28.847494612000162, -16.527605621999896], [28.847565991000124, -16.52726923399996], [28.847812741000098, -16.527075188999902], [28.847724599000117, -16.526956055999904], [28.847465078000027, -16.527114239999946], [28.847339536000106, -16.526983446999964], [28.84750019800009, -16.526886094999895], [28.84723816700017, -16.526780491999943], [28.847140904000184, -16.527009187999965], [28.84726131500014, -16.527907469999946], [28.84708742600003, -16.52792100099998], [28.8470062400001, -16.527226222999957], [28.846868953000183, -16.52716748199998], [28.846720378000043, -16.527228752999918], [28.846684459000187, -16.527372966999963], [28.846985943000107, -16.527706054999953], [28.846739647000106, -16.527948060999904], [28.846858803000032, -16.52871444999994], [28.846524249000083, -16.52882533199994], [28.84665834500015, -16.528548345999923], [28.84660543700005, -16.528213056999903], [28.846492666000017, -16.528118124999935], [28.84634454600001, -16.528227356999935], [28.845946708000156, -16.528218884999944], [28.846037927000168, -16.528661756999895], [28.845800517000043, -16.529035586999953], [28.84596300400011, -16.529130079999845], [28.846002001000045, -16.529309604999867], [28.84566755900005, -16.529432475999897], [28.84574555200004, -16.52979152599994], [28.84563688200012, -16.53012824399991], [28.84492854400014, -16.530146498999898], [28.845237559, -16.529963896999902], [28.84529753900017, -16.529735531999847], [28.84549708600008, -16.529805714999952], [28.845144063000077, -16.529281218999927], [28.844818861000192, -16.529068249999966], [28.84453664, -16.529454466999937], [28.84437449400008, -16.529395943999816], [28.844068097000047, -16.529854321999892], [28.84401496600003, -16.529495051999845], [28.84390208100018, -16.529388126999947], [28.84393777400004, -16.52921993299998], [28.84369775400006, -16.5288143489999], [28.843716671000095, -16.52949768699989], [28.843854528000065, -16.529616382999848], [28.84372384300019, -16.53025307699994], [28.843450291000124, -16.53024350299995], [28.842782338000177, -16.529278104999946], [28.842646189, -16.52933926399993], [28.842565215000036, -16.52997551899989], [28.84197665100004, -16.528205997999862], [28.842114165000055, -16.528288723999935], [28.84212830000007, -16.528468468999904], [28.842612913000096, -16.528452198999958], [28.842872099000033, -16.528258048999817], [28.84308350400005, -16.528268173999948], [28.843317718000037, -16.528062252999973], [28.84326663700017, -16.52791880799998], [28.843067092000126, -16.527848621999965], [28.843102672000043, -16.527668437999978], [28.84332605000003, -16.52763049099991], [28.843395844000156, -16.52712623899987], [28.843544306000183, -16.52705297999995], [28.843628579000097, -16.52676466099996], [28.843249003000153, -16.526060524999878], [28.84328446800015, -16.525868349999882], [28.84358332700009, -16.5259256679999], [28.843507389000024, -16.52578244199998], [28.842997129000082, -16.52571500099998], [28.842555528000048, -16.525023401999874], [28.843010387000106, -16.524492201999976], [28.842921908000164, -16.524337095999954], [28.842898643000126, -16.524505179999892], [28.842762156000106, -16.524530366999954], [28.842486338000185, -16.524280983999972], [28.842400588000032, -16.52441364599997], [28.84251346900004, -16.524520570999925], [28.842293506000033, -16.524918226999944], [28.842677965000178, -16.52613773199988], [28.842321171000094, -16.526524604999906], [28.842305444000147, -16.526176994999844], [28.841987754000172, -16.52675538299991], [28.84185172000008, -16.52682853099992], [28.84160178000019, -16.526686840999844], [28.84149196700008, -16.52690365399991], [28.841891505000092, -16.52709177299994], [28.841746112000067, -16.527488769999934], [28.841585219000137, -16.52756213799995], [28.841371428000116, -16.52730021499997], [28.84114989000011, -16.527577752999946], [28.841306084000053, -16.52831983799996], [28.840908018000164, -16.528287374999934], [28.840778161000173, -16.52770094499988], [28.840552169000148, -16.527463111999964], [28.840471461, -16.526816290999875], [28.840333722000082, -16.526709582999956], [28.84025649000006, -16.52774151999995], [28.840047585000093, -16.52799517999989], [28.83993493000014, -16.52791223399987], [28.839700371000163, -16.52808218099983], [28.839685330000066, -16.527806511999927], [28.83947199500011, -16.527592547999973], [28.839369499000156, -16.527269684999908], [28.839184542000055, -16.52742720299989], [28.838973024000097, -16.527405083999952], [28.838972003000094, -16.527297170999873], [28.83848671000004, -16.52724148999988], [28.839193621000163, -16.525760541999944], [28.839514043, -16.52546992599997], [28.839474145999986, -16.52519447599991], [28.83911700500005, -16.525545372999886], [28.83889090500014, -16.52529554599994], [28.838554308000084, -16.52519058899992], [28.838139397000134, -16.52469082399989], [28.838137923000033, -16.52453494899987], [28.837892299000146, -16.524848886999905], [28.838095242000122, -16.52527878899997], [28.8384203170001, -16.525479778999966], [28.838324746000126, -16.52588832699996], [28.838002052000093, -16.525939134999874], [28.838013006000097, -16.52578314999994], [28.837998762000154, -16.525591413999962], [28.83745246400008, -16.52565618099993], [28.837214502999984, -16.525466413999936], [28.83715530799998, -16.52577870999994], [28.837429421000024, -16.525848245999896], [28.837605466000127, -16.52606253999994], [28.837532367, -16.526219070999957], [28.83713396600018, -16.52615062999996], [28.836992259999988, -16.525624257999937], [28.837051229000167, -16.525287979999916], [28.836961847000055, -16.525036947999922], [28.83681497000009, -16.525278067999977], [28.836859172000175, -16.526009152999904], [28.836637155, -16.526190976999942], [28.836837603000106, -16.5263570919999], [28.83739860000003, -16.526532024999824], [28.837227432000077, -16.526833314999976], [28.837066537, -16.52690667999991], [28.83713072300003, -16.527121958999942], [28.837738828000113, -16.527020674999903], [28.838051519000146, -16.527641254999935], [28.837691536000136, -16.52769238999997], [28.83743336499998, -16.527994446999855], [28.837048636000077, -16.528057790999924], [28.8368892150001, -16.528287029999888], [28.83691600100019, -16.528490647999945], [28.836485974000027, -16.529021834999924], [28.836131955000155, -16.528389407999953], [28.835957837000137, -16.528378948999944], [28.836033544000088, -16.528498195999873], [28.836174797000126, -16.528976607999937], [28.83652723000006, -16.529441169999927], [28.836395159000062, -16.529933977999917], [28.836221720000026, -16.52999546099994], [28.835917755000025, -16.52939856699993], [28.835190302000115, -16.528709466999942], [28.83504195300003, -16.52881869299995], [28.83520647500012, -16.52912902199995], [28.83472763500015, -16.529756783999915], [28.834219177000136, -16.529881167999974], [28.834155447000057, -16.529713848999904], [28.834005845000092, -16.52966719799997], [28.834139847000188, -16.52937822699994], [28.83374223200002, -16.529393712999877], [28.83344812400003, -16.52983997799987], [28.83317434500003, -16.529806408999946], [28.833180436000077, -16.52913483899988], [28.833314212000175, -16.528821886999935], [28.83326110100012, -16.52846261199994], [28.83330855300011, -16.528222367999945], [28.833135227000184, -16.528295838999895], [28.832859641000084, -16.528070422999917], [28.832568587000026, -16.528840427999967], [28.832071201000076, -16.528820811999935], [28.832157073000076, -16.52870014399997], [28.831983293000064, -16.528725652999867], [28.831910303000086, -16.52889417299997], [28.831810871000187, -16.528895045999946], [28.831711439000117, -16.528895918999922], [28.831978882000158, -16.52825802699988], [28.831863969000153, -16.527935267999908], [28.832060683000066, -16.52770570499996], [28.831935263, -16.527586891999874], [28.831761597000025, -16.52762439099996], [28.831700922000095, -16.527780810999957], [28.831440706000024, -16.527867034999872], [28.831213594000076, -16.52750928599994], [28.83111529300004, -16.5276300619999], [28.83140602000003, -16.528143140999873], [28.83133302900012, -16.528311660999975], [28.83077316100014, -16.528256616999954], [28.83077225600016, -16.528160692999904], [28.830771352000056, -16.5280647699999], [28.83033941500014, -16.528224389999934], [28.83007184200011, -16.52841865599987], [28.830568210000138, -16.528330362999952], [28.830346748000125, -16.528572132999955], [28.830160539000076, -16.528597748999857], [28.830101784000078, -16.528958005999982], [28.83032799200015, -16.5292198329999], [28.830596348000142, -16.529996919999974], [28.830946058000166, -16.53017372299996], [28.830574542000136, -16.530320878999873], [28.830358277000073, -16.531114208999952], [28.829514789000086, -16.53130147699983], [28.829293549000113, -16.531567226999982], [28.828623615000083, -16.53170500499982], [28.828125770000042, -16.531637418999935], [28.828017291000037, -16.53199789499996], [28.827425090000133, -16.532470746999934], [28.826975944000083, -16.53229480899995], [28.826869855000098, -16.53158824499991], [28.827204202000132, -16.531453411999962], [28.826916300000164, -16.5312400869999], [28.82621947700011, -16.53116224699994], [28.826167054000166, -16.530874911999888], [28.826353153000184, -16.530837308999878], [28.82666004700019, -16.530426913999918], [28.82662185700019, -16.530331316999934], [28.825992369000176, -16.530804491999902], [28.82549062400011, -16.53046134799996], [28.825019894000093, -16.530633344999956], [28.82473210800009, -16.530432007999934], [28.824533355000085, -16.53044573699998], [28.824354503000166, -16.529931668999893], [28.824082302000136, -16.53006595499994], [28.823416803000043, -16.529352284999845], [28.823131769999975, -16.52811965699982], [28.822994939000125, -16.528108860999907], [28.82285660600013, -16.52831153699998], [28.822852357000045, -16.528491222999833], [28.822614855000154, -16.52834939999991], [28.822453503000077, -16.528374791999966], [28.822816195000087, -16.52861145399993], [28.82283256300019, -16.529031010999972], [28.821770972000024, -16.529819507999946], [28.82153346900003, -16.52967768399992], [28.821384882000075, -16.529738937999866], [28.821109867000132, -16.52957345799996], [28.82112443300008, -16.52980116899994], [28.82129934000011, -16.529895573999966], [28.821655679000173, -16.530779829999915], [28.821434765, -16.53108154499995], [28.820545932000073, -16.53173683999995], [28.820297122000113, -16.53171502799995], [28.82005905600016, -16.531513249999932], [28.819612502000155, -16.53161307599993], [28.819664466000177, -16.531852451999953], [28.819477800000186, -16.53182987999992], [28.81965372000019, -16.53203220099988], [28.819668509000053, -16.532283891999953], [28.820039140000063, -16.53204083099996], [28.820054154000104, -16.532316502999947], [28.819883628000184, -16.532689725999944], [28.81993525600018, -16.532893129999877], [28.819662148000134, -16.53293148699987], [28.818453281000075, -16.53392532599986], [28.818044455000177, -16.534072568999875], [28.817745027000058, -16.53395526399993], [28.817671011000186, -16.53401586599989], [28.81714661900014, -16.53376861299995], [28.8169702510001, -16.533518327999843], [28.816979314000037, -16.533158504999903], [28.81696475299998, -16.53293079399998], [28.81675087400015, -16.532656852999878], [28.81683350600008, -16.53218868299996], [28.81672969599998, -16.53172191999988], [28.816852979000146, -16.53161292299984], [28.816775599000152, -16.531313809999972], [28.816848716000095, -16.53115728399996], [28.816948374000162, -16.531180398999936], [28.817209702000127, -16.529883261999885], [28.81732077900017, -16.52979835399998], [28.81725773600016, -16.529702970999892], [28.816872096000054, -16.52967035499995], [28.81677165299999, -16.529563305999886], [28.81704386000007, -16.52942902999996], [28.81710465900005, -16.52928460299995], [28.816711778000126, -16.52869133699994], [28.816919090000056, -16.52868099699998], [28.816967685000066, -16.52856065899988], [28.816704992000098, -16.52838307399992], [28.816911014000084, -16.527817680999874], [28.816734428000018, -16.527543413999922], [28.816500632000043, -16.52779726999995], [28.816803956000115, -16.52700319199988], [28.816327618000116, -16.52657564499998], [28.814094813000054, -16.528693574999977], [28.812347912000178, -16.52797727199993], [28.812110375000145, -16.526708234999944], [28.81178386600004, -16.52635132399996], [28.810975983000105, -16.52635833599993], [28.809490760000017, -16.527042741999878], [28.80759186100005, -16.528198391999922], [28.80745357900014, -16.52803170899989], [28.808120509000105, -16.52757025399984], [28.80897443000015, -16.527167133999967], [28.811049753000134, -16.52571058799998], [28.81162586100004, -16.524842199999966], [28.81169765700014, -16.52321073199988], [28.81224856500006, -16.52230680399998], [28.81218071900014, -16.52169582599987], [28.81197367300001, -16.521278321999887], [28.812005710000108, -16.521262566999894], [28.81157676500004, -16.520582773999877], [28.813279156000135, -16.519200963999936], [28.81343515800006, -16.51593835299991], [28.814102481000134, -16.51552484599989], [28.817838037000115, -16.51587609099994], [28.822074799, -16.514424174999874], [28.823940430000107, -16.512861210999972], [28.827221624000174, -16.51169356199989], [28.828774325000154, -16.51159603399998], [28.83020560300008, -16.51117162199995], [28.830322568000042, -16.511511057999883], [28.831150601000104, -16.512331207999978], [28.830956496000113, -16.51283654899987], [28.831376684000077, -16.51330052999998], [28.831420180000123, -16.51395967699989], [28.831808835, -16.514315575999944], [28.83228991600015, -16.515246684999966], [28.83353409800003, -16.51669871599995], [28.83463758000005, -16.515693738999914], [28.83609532600002, -16.51738370299995], [28.836494842000036, -16.517572051999935], [28.836847025000168, -16.518012634999934], [28.83658818000015, -16.518242313999963], [28.83632336800008, -16.519155986999976], [28.83569733800016, -16.519988896999962], [28.83697296800017, -16.520817073999922], [28.837299622000046, -16.52118593199998], [28.8376222280001, -16.52181863499993], [28.845214280000107, -16.520948249999947], [28.84631358300004, -16.521123084999942]]]]}}, {"type": "Feature", "properties": {"GID_3": "ZWE.6.7.9_2", "GID_0": "ZWE", "COUNTRY": "Zimbabwe", "GID_1": "ZWE.6_1", "NAME_1": "Mashonaland West", "NL_NAME_1": "NA", "GID_2": "ZWE.6.7_2", "NAME_2": "Kariba Urban", "NL_NAME_2": "NA", "NAME_3": "Ward 9", "VARNAME_3": "NA", "NL_NAME_3": "NA", "TYPE_3": "Ward", "ENGTYPE_3": "Ward", "CC_3": "NA", "HASC_3": "NA", "id": "ZWE.6.7.9_2", "name": "Ward 9"}, "geometry": {"type": "MultiPolygon", "coordinates": [[[[28.77753933800011, -16.53220336299995], [28.777492583000083, -16.532527536999908], [28.776986371000078, -16.53290359199997], [28.776927076000106, -16.533215880999933], [28.77679013100004, -16.533193062999942], [28.776775108000095, -16.533133515999964], [28.77735247400011, -16.53218428799994], [28.77753933800011, -16.53220336299995]]], [[[28.778051649000133, -16.53103479599997], [28.778500840000106, -16.53029629499997], [28.778643606000173, -16.53043160999988], [28.778051649000133, -16.53103479599997]]], [[[28.778621731000044, -16.530097542999954], [28.778763376000143, -16.52986466899995], [28.77880035700008, -16.529902638999886], [28.778621731000044, -16.530097542999954]]], [[[28.780495551, -16.52841323599995], [28.780930687000136, -16.528421514999934], [28.781609548000063, -16.527684445999967], [28.782301186000097, -16.527198872999918], [28.78367620500012, -16.526683476999892], [28.784713095000086, -16.525895155999876], [28.785035223000136, -16.524482467999974], [28.785406542000032, -16.524444331999916], [28.787306783000133, -16.525627016999977], [28.788643257000047, -16.52767812999997], [28.789128769000058, -16.52775790999982], [28.789829004000183, -16.528207587999816], [28.79056498000017, -16.52846487299996], [28.791193520000093, -16.52922694299997], [28.792053022000175, -16.529423420999933], [28.793007500999977, -16.53048247499993], [28.793566379000083, -16.530429705999893], [28.794148343000074, -16.530184870999904], [28.79541880400012, -16.530509708999944], [28.796661073000166, -16.53042706699995], [28.797449670000105, -16.531019854999954], [28.797829989000036, -16.531820013999834], [28.79819233000012, -16.532020748999912], [28.798676744000034, -16.53198059899995], [28.799576424000065, -16.531145422999884], [28.801510221000058, -16.53019339499997], [28.80254248700004, -16.530064781999897], [28.80390491700018, -16.52953737199988], [28.80456840800008, -16.528704218999962], [28.80551907200004, -16.528408199999888], [28.806174025000132, -16.527994819999947], [28.807182457000067, -16.528165962999935], [28.80745357900014, -16.52803170899989], [28.80759186100005, -16.528198391999922], [28.809490760000017, -16.527042741999878], [28.810975983000105, -16.52635833599993], [28.81178386600004, -16.52635132399996], [28.812110375000145, -16.526708234999944], [28.812347912000178, -16.52797727199993], [28.814094813000054, -16.528693574999977], [28.816327618000116, -16.52657564499998], [28.816803956000115, -16.52700319199988], [28.816500632000043, -16.52779726999995], [28.816734428000018, -16.527543413999922], [28.816911014000084, -16.527817680999874], [28.816704992000098, -16.52838307399992], [28.816967685000066, -16.52856065899988], [28.816919090000056, -16.52868099699998], [28.816711778000126, -16.52869133699994], [28.816459262000024, -16.528798570999925], [28.816700125000125, -16.529300115999945], [28.816618505000122, -16.529876417999958], [28.816481784000075, -16.52987760799988], [28.81655972400017, -16.530236673999923], [28.81638840700009, -16.530525959999977], [28.815880490999973, -16.53071025299994], [28.815844325, -16.53083048299993], [28.815753396000048, -16.530411571999934], [28.81540504200018, -16.530378628999927], [28.815644672000133, -16.530748279999955], [28.81557133000007, -16.53088082399995], [28.815921028000048, -16.53105743599997], [28.815506954000057, -16.53197239199983], [28.814750783000136, -16.532194816999947], [28.814469502000065, -16.532688913999948], [28.81381701900017, -16.53336610999986], [28.813617588000056, -16.53330788699992], [28.813146503000098, -16.533443886999976], [28.812690875000044, -16.53306390199998], [28.812659296, -16.5336757419999], [28.81240085200011, -16.533953791999977], [28.81181857000007, -16.53416270499997], [28.811164506000125, -16.534672026999885], [28.81101915500011, -16.53508099999982], [28.810536639000134, -16.535325017999924], [28.80970419400012, -16.535368215999938], [28.809568363000153, -16.535465325999894], [28.809447999000156, -16.535824001999913], [28.80803793000007, -16.53661778999998], [28.80662273400003, -16.536821914999962], [28.80550651700014, -16.536603740999965], [28.802955975000145, -16.53521079799998], [28.802087350000136, -16.535374193999928], [28.80135255700003, -16.535224648999872], [28.80083916100017, -16.53482136899993], [28.80101284100016, -16.53478389499992], [28.801405248000037, -16.534204911999893], [28.80217098200012, -16.533670670999925], [28.802600672000153, -16.533091363999972], [28.802860245000034, -16.532933448999927], [28.802519641000117, -16.53239677199997], [28.802508436000153, -16.532528774999946], [28.802244636000182, -16.53223126499995], [28.801933121000104, -16.532150014999957], [28.801288238000097, -16.532311473999982], [28.8000580260001, -16.53232687299993], [28.79979116800007, -16.532432533999952], [28.7993600260001, -16.532855956999924], [28.799068718000115, -16.533613937999917], [28.79743190300013, -16.532704693999847], [28.797096418000024, -16.53271957599992], [28.796955141000126, -16.53286469099993], [28.796655391, -16.532711381999945], [28.796370067000055, -16.532773796999948], [28.795710084000063, -16.532647570999927], [28.79538824800005, -16.532794238999884], [28.79455513900018, -16.532765431999962], [28.793655231000116, -16.532233547999965], [28.793294001000106, -16.532152711999913], [28.791642721000073, -16.532910376999894], [28.791405786000098, -16.53282846999997], [28.791153656000176, -16.532446902999936], [28.7913092660001, -16.531798019999883], [28.791591715000095, -16.5314238549999], [28.791626900999972, -16.531195711999942], [28.791451562000134, -16.531053317999977], [28.791537755000093, -16.530680837999967], [28.791448758000058, -16.530465752999874], [28.791137028000037, -16.530360504999976], [28.790988539000125, -16.53043372899998], [28.790317444000095, -16.530362023999885], [28.79045462900018, -16.530498268999963], [28.790456840000104, -16.530738081999914], [28.790271283000095, -16.530835606999915], [28.789821504000088, -16.53058764199983], [28.78883157000007, -16.53107579499988], [28.788494871000182, -16.53095876499998], [28.78803023500012, -16.53044710699993], [28.78778966100009, -16.529969502999847], [28.787542037000037, -16.52979196699988], [28.787168384000154, -16.52971122599996], [28.786356064000074, -16.529238514999918], [28.78628840300007, -16.528639511999927], [28.78646252400017, -16.52865001299989], [28.786423030000094, -16.528410517999816], [28.78596568300003, -16.528690240999936], [28.7856393240001, -16.528345274999936], [28.785428026000034, -16.52834708299997], [28.785556596000163, -16.528669757999864], [28.785060526000166, -16.528793917999906], [28.784816237000086, -16.529263681999964], [28.78512928300006, -16.529512611999962], [28.785624722000136, -16.53067156299994], [28.78546347000008, -16.530708917999902], [28.785452694000128, -16.530888884999968], [28.784595503000162, -16.530944183999907], [28.7840281550001, -16.53142870199997], [28.783993400000156, -16.53170480699987], [28.783741946000134, -16.531395172999964], [28.78384577100013, -16.53051889499983], [28.783608290000075, -16.530377024999893], [28.78376778000012, -16.530147819999854], [28.784449635000158, -16.529950123999924], [28.784560397000064, -16.52982925999987], [28.784423564000065, -16.52981843899994], [28.78429739700016, -16.529615659999877], [28.784419267000146, -16.529350800999964], [28.783823211000026, -16.529416071999947], [28.783722565000062, -16.529285023999876], [28.784072334000086, -16.528119060999927], [28.78365150100018, -16.52831452499987], [28.7835003670001, -16.528099965999957], [28.783220162000134, -16.528198266999937], [28.782466555000042, -16.528036847999886], [28.78207838700007, -16.527728379999928], [28.782101265000165, -16.527512334999926], [28.781762374000095, -16.527767130999962], [28.781763752000074, -16.52798153899994], [28.78176375300012, -16.528137551999976], [28.781845750000116, -16.528372569999874], [28.781845751000162, -16.528606588999878], [28.781780085000094, -16.529085985999927], [28.781398625000122, -16.52950895099991], [28.781350997000118, -16.529737198999896], [28.781112529000097, -16.5294874089999], [28.780752407000136, -16.529526457999964], [28.77977455100006, -16.52997849199994], [28.779599330000053, -16.52984807799993], [28.779714943999977, -16.528899748999947], [28.779646532000186, -16.52851997099998], [28.78003109200006, -16.52813541199987], [28.780495551, -16.52841323599995]]], [[[28.792033886000183, -16.51846287399991], [28.792453089000162, -16.51898836499987], [28.792846673000042, -16.51988435699991], [28.792684505000125, -16.52116863599997], [28.793054123000104, -16.5221607659999], [28.792956905000096, -16.522401432999914], [28.79194441800007, -16.52178656199993], [28.791459805000045, -16.521802712999943], [28.78465457400017, -16.523757091999983], [28.790283203000172, -16.519897460999857], [28.792033886000183, -16.51846287399991]]]]}}]}