{"type": "FeatureCollection", "features": [{"type": "Feature", "properties": {"GID_3": "ZWE.4.8.1_2", "GID_0": "ZWE", "COUNTRY": "Zimbabwe", "GID_1": "ZWE.4_1", "NAME_1": "Mashonaland Central", "NL_NAME_1": "NA", "GID_2": "ZWE.4.8_2", "NAME_2": "Mvurwi", "NL_NAME_2": "NA", "NAME_3": "Ward 28", "VARNAME_3": "NA", "NL_NAME_3": "NA", "TYPE_3": "Ward", "ENGTYPE_3": "Ward", "CC_3": "NA", "HASC_3": "NA", "id": "ZWE.4.8.1_2", "name": "Ward 28"}, "geometry": {"type": "MultiPolygon", "coordinates": [[[[30.863534793999975, -17.024635550999903], [30.8596309080001, -17.032342161999964], [30.858384942000043, -17.030516017999844], [30.856906983000044, -17.029657950999876], [30.85232211100015, -17.028637871999877], [30.850211172000172, -17.033036220999975], [30.848124230000167, -17.031832125999927], [30.847813239000118, -17.032292162999966], [30.846114286000102, -17.03164211199993], [30.843890348000173, -17.0309020549999], [30.842978373999983, -17.03025900399996], [30.84229339200016, -17.028986903999964], [30.840594438000096, -17.02475556999991], [30.840502436000122, -17.014559763999898], [30.840550434000193, -17.014182734999963], [30.840594433000035, -17.014182734999963], [30.845236303000036, -17.014023719999955], [30.845219305000057, -17.01895310999987], [30.855282025000065, -17.022983423999904], [30.856536989000176, -17.02059723499991], [30.85774795499998, -17.021789327999954], [30.85911991600011, -17.020542228999886], [30.85946090700014, -17.02126128599997], [30.863435796000147, -17.02202234399988], [30.862880813000174, -17.024460536999925], [30.863534793999975, -17.024635550999903]]]]}}]}